name	postindex	address	contact	latitude	longitude	unk1	unk2	image_url	unk3	unk4
ПЧ-23 ГУ «2 ОФПС»	53199	г.Сосногорск, ул. Набережная д.47	(82149) 5-40-01 (Гаврюшин Николай Александрович)	63.573685	53.925336	0	 undefined	" ""/images/pojarka_small.png"""	 80	 58
ФГКУ 28 ОФПС по МО, ПЧ-87	53858	г.Сергиев-Посад, ул.Центральная д.2	Воронцов Роман Николаевич, подполковник вн.сл.,  начальник части	56.294046	38.151522	0	 undefined	" ""/images/pojarka_small.png"""	 80	 58
ФГКУ 28 ОФПС по МО, ПЧ-87	53860	г.Сергиев-Посад, ул.Центральная д.2	Воронцов Роман Николаевич, подполковник вн.сл.,  начальник части	56.294046	38.151522	0	 undefined	" ""/images/pojarka_small.png"""	 80	 58
ПЧ-43	53090	с. Якшур-Бодья, ул. Ленина, 53	(8-341-62) 4-16-55 (Востриков Игорь Владимирович)	57.185700	53.169898	0	 undefined	" ""/images/pojarka_small.png"""	 80	 58
ПЧ-42	53088	с. Юкаменское, ул. Первомайская, 50	(8-341-61) 2-16-05 (Сысоев Артемий Сергеевич)	57.886502	52.241202	0	 undefined	" ""/images/pojarka_small.png"""	 80	 58
Пожарная часть № 40 (Шатровский район)	53383	с. Шатрово, ул. Кирова,4	8(35257) 9-11-95 (Галанина Алена Петровна, инспектор  по основной деятельности)	56.512002	64.634198	0	 undefined	" ""/images/pojarka_small.png"""	 80	 58
ПЧ-41	53086	с. Шаркан, ул Советская, 4а 	(8-341-36) 3-31-57 (Меньшиков Александр Алексеевич)	57.299701	53.864503	0	 undefined	" ""/images/pojarka_small.png"""	 80	 58
ПЧ-82 ГУ «8 ОФПС» с. Усть-Цильма	53233	с. Усть-Цильма, ул. Комсомольская, д.20	(82141) 9-15-06 (Твердов Сергей Владимирович)	65.436000	52.163102	0	 undefined	" ""/images/pojarka_small.png"""	 80	 58
ПЧ-71  ОФПС-7	53227	с.Усть-Кулом, ул. Ленина д. 3 «б»<br />	(82137) 9-44-00 (Игнатов Александр Николаевич)	61.689737	53.700596	0	 undefined	" ""/images/pojarka_small.png"""	 80	 58
ПЧ-39	53082	с. Сюмси, ул. Базарная, 12 	(8-341-52) 2-11-09 (Альматов Александр Анатольевич)	57.105402	51.610998	0	 undefined	" ""/images/pojarka_small.png"""	 80	 58
ПЧ-38	53080	с. Селты, ул. Ленина, 22 	(8-341-59) 3-12-67 (Базилевских Павел Петрович)	57.311117	52.120208	0	 undefined	" ""/images/pojarka_small.png"""	 80	 58
ПЧ-62  ОФПС-6  с. Объячево	53223	с. Объячево, ул. Советская, 14	(82133) 2-23-94 (Оботуров Владимир Анатольевич)	60.337701	49.608429	0	 undefined	" ""/images/pojarka_small.png"""	 80	 58
ПЧ-64	54001	с. Миасское, ул. Юбилейная, 1	8-351-50 2-19-01 (Начальник ЖИДКОВ Алексей Вячеславович)	55.286999	61.895396	0	 undefined	" ""/images/pojarka_small.png"""	 80	 58
ПЧ-37	53078	с. Малая Пурга, ул. Советская, 93 	(8-341-38) 4-13-60 (Чураков Денис Николаевич)	56.553670	52.991143	0	 undefined	" ""/images/pojarka_small.png"""	 80	 58
ПЧ-36	53076	с. Красногорское, ул. Пушкина, 2 	(8-341-64) 2-19-02 (Ефремов Николай Федотович)	57.701001	52.497797	0	 undefined	" ""/images/pojarka_small.png"""	 80	 58
ПЧ-53 ГУ «5 ОФПС»	53219	с. Кослан, ул. Нагорный проезд, д.1	(82135) 5-26-93 (Попов Сергей Александрович)	63.458901	48.893567	0	 undefined	" ""/images/pojarka_small.png"""	 80	 58
ПЧ-72  ОФПС-7	53229	с. Корткерос, ул. Советская, д.252	(82136) 9-23-59 (Хвастунов Алексей Васильевич)	61.806681	51.574778	0	 undefined	" ""/images/pojarka_small.png"""	 80	 58
ПЧ-63  ОФПС-6	53225	с. Койгородок, ул. Мира, 6	(82132) 9-14-19 (Муравьёв Юрий Алексеевич)	60.442200	51.004797	0	 undefined	" ""/images/pojarka_small.png"""	 80	 58
ПЧ-35	53074	с. Киясово, ул. Полевая, 7 	(8-341-33) 3-21-67 (Иванов Максим Сергеевич)	56.337801	53.115200	0	 undefined	" ""/images/pojarka_small.png"""	 80	 58
ПЧ-63	53922	с. Кизильское, пер. Бородулина, 3-а	8-351-55-3-02-47, Начальник КАДИГРОБ  Павел Сергеевич  	52.723499	58.900000	0	 undefined	" ""/images/pojarka_small.png"""	 80	 58
ПЧ-32	53067	с. Каракулино, ул. Каманина, 21	(8-341-32) 3-14-64 (Нияматов Валерий Рафикович)	56.005098	53.707199	0	 undefined	" ""/images/pojarka_small.png"""	 80	 58
ПЧ-81 ГУ «8 ОФПС»	53231	с. Ижма, ул. Чупрова, д.149 «а»<br />	(82140) 9-41-11 (Сметанин Николай Иванович)	65.012171	53.914206	0	 undefined	" ""/images/pojarka_small.png"""	 80	 58
Пост с.Званное ППС Курской области	53553	Глушкий район, с.Званное ул.Октябрьская, 35 - Б<br />	21001 (Феднев Вячеслав Александрович)	51.376800	34.550401	0	 undefined	" ""/images/pojarka_small.png"""	 80	 58
Пост с.Званное ППС Курской области	53555	Глушкий район, с.Званное ул.Октябрьская, 35 - Б<br />	21001 (Феднев Вячеслав Александрович)	51.376800	34.550401	0	 undefined	" ""/images/pojarka_small.png"""	 80	 58
ПЧ-29	53061	с. Дебесы, ул. Строителей, 1	(8-341-51) 2-11-79 (Ураков Андрей Васильевич)	57.651080	53.804522	0	 undefined	" ""/images/pojarka_small.png"""	 80	 58
ПЧ-28	53059	с. Грахово, ул. Азина, 25	(8-341-63) 3-13-08 (Мыльников Сергей Владимирович)	56.045302	51.948998	0	 undefined	" ""/images/pojarka_small.png"""	 80	 58
ПЧ-61 ГУ «6 ОФПС»	53221	с. Визинга, ул. 50 лет ВЛКСМ, 84	(82131) 9-26-41 (Асанбаев Владимир Геннадьевич)	61.058301	50.069902	0	 undefined	" ""/images/pojarka_small.png"""	 80	 58
Пожарная часть № 21 (Белозерский район) 	53301	с. Белозерское, ул. Попова 1<br />	8(35232) 2-26-02 (Зотикова Людмила Геннадьевна, инспектор  по основной деятельности)	55.822999	65.586700	0	 undefined	" ""/images/pojarka_small.png"""	 80	 58
ПЧ-25	53053	с. Алнаши, ул. Первомайская, 1	(8-341-50) 3-13-45 (Юрин Сергей Васильевич)	56.184300	52.483001	0	 undefined	" ""/images/pojarka_small.png"""	 80	 58
ПЧ-52 ГУ «5 ОФПС»	53217	с. Айкино, ул. Центральная д.115	(82134) 2-00-01 (Антоненко Александр Николаевич)	62.219081	49.996878	0	 undefined	" ""/images/pojarka_small.png"""	 80	 58
9 ПЧ 8 ОФПС	53264	С-Пб Большой проспект В.О., дом 73	356-63-21 (Клинг Игорь Викторович), 355-71-00 (Герасименко Александр Николаевич)	59.933988	30.263658	0	 undefined	" ""/images/pojarka_small.png"""	 80	 58
44 ПЧ Хомутовского  района ППС Курской области	53513	п. Хомутовка, ул. Кирова,  23<br />	21101 (Устиченко Александр Владимирович)	51.918199	34.558099	0	 undefined	" ""/images/pojarka_small.png"""	 80	 58
44 ПЧ Хомутовского  района ППС Курской области	53515	п. Хомутовка, ул. Кирова,  23<br />	21101 (Устиченко Александр Владимирович)	51.918199	34.558099	0	 undefined	" ""/images/pojarka_small.png"""	 80	 58
ПЧ-73	54017	п. Увельский, ул. Кирова, 11	8 351 66 3-14-00 (Начальник КУТЕЙНИКОВ Виктор Владимирович)	54.438701	61.351197	0	 undefined	" ""/images/pojarka_small.png"""	 80	 58
43 ПЧ Тимского  района ППС Курской области	53509	п. Тим, ул. Кирова,  49  л	21099 (Акульшин Леонид Витальевич)	51.615202	37.122996	0	 undefined	" ""/images/pojarka_small.png"""	 80	 58
43 ПЧ Тимского  района ППС Курской области	53511	п. Тим, ул. Кирова,  49  л	21099 (Акульшин Леонид Витальевич)	51.615202	37.122996	0	 undefined	" ""/images/pojarka_small.png"""	 80	 58
25 ПЧ п. Теткино ППС Курской области	53423	Глушковский  р-н, п. Теткино ул.Первомайская, 33<br />	24222 (Полиенко Василий Иванович)	51.281701	34.290500	0	 undefined	" ""/images/pojarka_small.png"""	 80	 58
25 ПЧ п. Теткино ППС Курской области	53425	Глушковский  р-н, п. Теткино ул.Первомайская, 33<br />	24222 (Полиенко Василий Иванович)	51.281701	34.290500	0	 undefined	" ""/images/pojarka_small.png"""	 80	 58
ПЧ № 4 ФГКУ «1 ОФПС по Белгородской области»	53850	Белгородский район, п.Северный, ул.Транспортная, 10	8-960-623-60-62 (Кузьменко Владимир Анатольевич)	50.660599	36.556204	0	 undefined	" ""/images/pojarka_small.png"""	 80	 58
37 ПЧ Поныровского  района ППС Курской области	53485	п. Поныри, ул. М.Горького, 39	21101 (Вавилов Валерий Васильевич)	52.316500	36.292396	0	 undefined	" ""/images/pojarka_small.png"""	 80	 58
37 ПЧ Поныровского  района ППС Курской области	53487	п. Поныри, ул. М.Горького, 39	21101 (Вавилов Валерий Васильевич)	52.316500	36.292396	0	 undefined	" ""/images/pojarka_small.png"""	 80	 58
ФГКУ «6 ОФПС по Челябинской области»	53989	г. Копейск, ул. Ленина, 2	8 351 39 239-71-45, 7-51-86 (Начальник СМАГИН Евгений Юрьевич)	55.231201	61.602303	0	 undefined	" ""/images/pojarka_small.png"""	 80	 58
Пожарная часть № 31 (Мишкинский район)	53325	р.п. Мишкино, ул. Первомайская 68<br />	8(35247) 2-32-02 (Маслакова Ольга Дмитриевна, инспектор  по основной деятельности)	55.337599	63.925104	0	 undefined	" ""/images/pojarka_small.png"""	 80	 58
31 ПЧ Кореневского  района   ППС Курской области	53461	п. Коренево, ул. Октябрьская, 11	21101 (Дрючин Николай Васильевич)	51.418198	34.903403	0	 undefined	" ""/images/pojarka_small.png"""	 80	 58
31 ПЧ Кореневского  района   ППС Курской области	53463	п. Коренево, ул. Октябрьская, 11	21101 (Дрючин Николай Васильевич)	51.418198	34.903403	0	 undefined	" ""/images/pojarka_small.png"""	 80	 58
30 ПЧ Конышевского  района ППС Курской области 	53457	п. Конышевка, ул.Мирная, 5	21501 (Квасов Валерий Николаевич)	51.839099	35.297601	0	 undefined	" ""/images/pojarka_small.png"""	 80	 58
30 ПЧ Конышевского  района ППС Курской области 	53459	п. Конышевка, ул.Мирная, 5	21501 (Квасов Валерий Николаевич)	51.839099	35.297601	0	 undefined	" ""/images/pojarka_small.png"""	 80	 58
ПЧ-34	53072	п. Кизнер, ул. Первомайская, 77 	(8-341-54) 3-52-35 (Портнов Сергей Викторович)	56.273500	51.518004	0	 undefined	" ""/images/pojarka_small.png"""	 80	 58
28 ПЧ Касторенского  района  ППС Курской области	53449	п. Касторное, ул.Фрунзе, 116	21001 (Коновалов Геннадий Андреевич)	51.826499	38.141003	0	 undefined	" ""/images/pojarka_small.png"""	 80	 58
28 ПЧ Касторенского  района  ППС Курской области	53451	п. Касторное, ул.Фрунзе, 116	21001 (Коновалов Геннадий Андреевич)	51.826499	38.141003	0	 undefined	" ""/images/pojarka_small.png"""	 80	 58
27 ПЧ Золотухинского  района ППС Курской области	53445	п.Золотухино, ул. Железнодорожная, 82	21101 (Стрелков Иван Иванович)	52.082398	36.372400	0	 undefined	" ""/images/pojarka_small.png"""	 80	 58
Пожарная часть № 24 (Каргапольский район)	53309	р.п. Каргаполье, ул. Мира 15	8(35256) 2-14-01 (Шахматов Андрей Анатольевич, инспектор по основной деятельности)	55.955100	64.431700	0	 undefined	" ""/images/pojarka_small.png"""	 80	 58
27 ПЧ Золотухинского  района ППС Курской области	53447	п.Золотухино, ул. Железнодорожная, 82	21101 (Стрелков Иван Иванович)	52.082398	36.372400	0	 undefined	" ""/images/pojarka_small.png"""	 80	 58
Пост м. Свобода ППС Курской области	53529	Золотухинский район м. Свобода ул. Электрическая, 1<br />	41101 (Бурцев Сергей Васильевич)	52.086101	36.386898	0	 undefined	" ""/images/pojarka_small.png"""	 80	 58
Пост м. Свобода ППС Курской области	53531	Золотухинский район м. Свобода ул. Электрическая, 1<br />	41101 (Бурцев Сергей Васильевич)	52.086101	36.386898	0	 undefined	" ""/images/pojarka_small.png"""	 80	 58
23 ПЧ Горшеченского  района  ППС Курской области	53429	п. Горшечное, ул. Мира, 1	21301 (Черевченко Михаил Владимирович)	51.533299	38.036798	0	 undefined	" ""/images/pojarka_small.png"""	 80	 58
23 ПЧ Горшеченского  района  ППС Курской области	53431	п. Горшечное, ул. Мира, 1	21301 (Черевченко Михаил Владимирович)	51.533299	38.036798	0	 undefined	" ""/images/pojarka_small.png"""	 80	 58
ПЧ-52	53999	п. Вахрушево, ул. 22 Партсъезда, 13б	8-351-39 9-81-01 (Начальник ВАСЯНИН Олег Викторович)	55.230102	61.730798	0	 undefined	" ""/images/pojarka_small.png"""	 80	 58
ПЧ-56	53973	с. Аргаяш, ул. Комсомольская, 12	8-351-31 2-14- 38 (Начальник ЖИГАНШИН Роберт Вакильевич)	55.488800	60.881504	0	 undefined	" ""/images/pojarka_small.png"""	 80	 58
Пост с. Ястребовка ППС Курской области	53533	Мантуровский район, с. Ястребовка<br />	41101 (Селезнев Николай Владимирович)	51.449524	37.555014	0	 undefined	" ""/images/pojarka_small.png"""	 80	 58
Пост с. Ястребовка ППС Курской области	53535	Мантуровский район, с. Ястребовка<br />	41101 (Селезнев Николай Владимирович)	51.449524	37.555014	0	 undefined	" ""/images/pojarka_small.png"""	 80	 58
ПЧ-55	54011	п. Южный	код  8-351-63 2-43-60 ШКАРАПУТА Михаил Александрович	53.120545	59.455913	0	 undefined	" ""/images/pojarka_small.png"""	 80	 58
ПЧ-76	54019	с. Чесма, ул. Первомайская, 1	8-351-69 2-10-50 (Начальник БОБЫРЬ Алексей Владимирович)	53.806717	60.657365	0	 undefined	" ""/images/pojarka_small.png"""	 80	 58
46 ПЧ Черемисиновского  района ППС Курской области	53521	п. Черемисиново, ул. Петровский проезд,4	21001 (Токмаков Иван Александрович)	51.888643	37.274614	0	 undefined	" ""/images/pojarka_small.png"""	 80	 58
46 ПЧ Черемисиновского  района ППС Курской области	53523	п. Черемисиново, ул. Петровский проезд,4	21001 (Токмаков Иван Александрович)	51.888643	37.274614	0	 undefined	" ""/images/pojarka_small.png"""	 80	 58
ПЧ-68	53926	с. Фершампенуаз, Нагайбакского района, пер. Пионерский, 2	8-351-57 2-21-43, 2-20-60 (Начальник ЯКОВЛЕВ Сергей Иванович)	53.519519	59.821698	0	 undefined	" ""/images/pojarka_small.png"""	 80	 58
ПЧ-74	53987	с. Уйское, ул. Карла Маркса, 34	8-351-65-3-11-05, Начальник  ГАБДРАФИКОВ  Касим Каюмович  	54.377710	59.998774	0	 undefined	" ""/images/pojarka_small.png"""	 80	 58
ПЧ-40	53084	п. Ува, ул. Карла Маркса, 22 	(8-341-30) 5-18-30 (Хорошавина Надежда Васильевна)	56.988002	52.181787	0	 undefined	" ""/images/pojarka_small.png"""	 80	 58
Пожарная часть № 22 (Варгашинский район) 	53303	п.Варгаши, ул. Матросова, 56<br />	8(35233)2-15-91 (Сунгурова Татьяна Николаевна, инспектор  по основной деятельности)	55.383802	65.796699	0	 undefined	" ""/images/pojarka_small.png"""	 80	 58
Пост с. Старый Лещин ППС Курской области	53557	Солнцевский район, с.Старый Лещин	21101 (Бурцев Павел Викторович)	51.489897	36.897555	0	 undefined	" ""/images/pojarka_small.png"""	 80	 58
Пост с. Старый Лещин ППС Курской области	53559	Солнцевский район, с.Старый Лещин	21101 (Бурцев Павел Викторович)	51.489897	36.897555	0	 undefined	" ""/images/pojarka_small.png"""	 80	 58
Пост с. Средние Апочки ППС Курской области	53545	Горшеченский  район, с. Средние Апочки, ул. Советская 1<br />	21301 (Головин Александр Алексеевич)	51.511651	37.699840	0	 undefined	" ""/images/pojarka_small.png"""	 80	 58
Пост с. Средние Апочки ППС Курской области	53547	Горшеченский  район, с. Средние Апочки, ул. Советская 1<br />	21301 (Головин Александр Алексеевич)	51.511651	37.699840	0	 undefined	" ""/images/pojarka_small.png"""	 80	 58
41 ПЧ Солнцевского  района ППС Курской области	53501	п. Солнцево, ул.Ленина, 45<br />	21101 (Бурцев Юрий Михайлович)	51.410828	36.751965	0	 undefined	" ""/images/pojarka_small.png"""	 80	 58
41 ПЧ Солнцевского  района ППС Курской области	53503	п. Солнцево, ул.Ленина, 45<br />	21101 (Бурцев Юрий Михайлович)	51.410828	36.751965	0	 undefined	" ""/images/pojarka_small.png"""	 80	 58
33 ПЧ п. Сейм Мантуровского района ППС Курской области	53469	Мантуровский район, п. Сейм	51301 (Барбинов Олег Анатольевич)	51.344276	37.045328	0	 undefined	" ""/images/pojarka_small.png"""	 80	 58
33 ПЧ п. Сейм Мантуровского района ППС Курской области	53471	Мантуровский район, п. Сейм	51301 (Барбинов Олег Анатольевич)	51.344276	37.045328	0	 undefined	" ""/images/pojarka_small.png"""	 80	 58
Пост с. Рыбинские Буды ППС Курской области	53573	Обоянский район, с. Рыбинские Буды<br />	21461 (Кононов Сергей Иванович)	51.204945	35.953497	0	 undefined	" ""/images/pojarka_small.png"""	 80	 58
Пост с. Рыбинские Буды ППС Курской области	53575	Обоянский район, с. Рыбинские Буды<br />	21461 (Кононов Сергей Иванович)	51.204945	35.953497	0	 undefined	" ""/images/pojarka_small.png"""	 80	 58
38 ПЧ Пристенского  района ППС Курской области	53489	п. Пристень, ул.Советская, 34	21101 (Ломоносов Александр Николаевич)	51.236220	36.697895	0	 undefined	" ""/images/pojarka_small.png"""	 80	 58
38 ПЧ Пристенского  района ППС Курской области	53491	п. Пристень, ул.Советская, 34	21101 (Ломоносов Александр Николаевич)	51.236220	36.697895	0	 undefined	" ""/images/pojarka_small.png"""	 80	 58
Пост д. Петропавловка ППС Курской области	53549	Советский район, д. Петропавловка<br />	21101 (Положенцев Сергей Николаевич)	51.668160	37.549920	0	 undefined	" ""/images/pojarka_small.png"""	 80	 58
Пост д. Петропавловка ППС Курской области	53551	Советский район, д. Петропавловка<br />	21101 (Положенцев Сергей Николаевич)	51.668160	37.549920	0	 undefined	" ""/images/pojarka_small.png"""	 80	 58
Пост с.Орехово ППС Курской области	53569	Касторенский район, с. Орехово	32122 (Иванов Николай Михайлович)	51.757435	38.376505	0	 undefined	" ""/images/pojarka_small.png"""	 80	 58
Пожарная часть № 39 (Частоозерский район)	53375	с. Частоозерье, ул.Октябрьская, 115	8(35230) 9-20-50 (Хательская Татьяна Николаевна, инспектор по основной деятельности)	55.567983	67.911674	0	 undefined	" ""/images/pojarka_small.png"""	 80	 58
Пожарная часть № 23 (Звериноголовский район)	53307	с. Звериноголовское, ул. Октябрьская 39	8(35240) 2-00-01 (Жильцова Светлана Анатольевна, инспектор по основной деятельности)	54.465120	64.854609	0	 undefined	" ""/images/pojarka_small.png"""	 80	 58
Пост с.Орехово ППС Курской области	53571	Касторенский район, с. Орехово	32122 (Иванов Николай Михайлович)	51.757435	38.376505	0	 undefined	" ""/images/pojarka_small.png"""	 80	 58
Пост с. Ольховатка ППС Курской области	53561	Поныровский район, с.Ольховатка, ул. Большак, 27-А	21101 (Богданов Николай Алексеевич)	52.252913	36.125102	0	 undefined	" ""/images/pojarka_small.png"""	 80	 58
Пост с. Ольховатка ППС Курской области	53563	Поныровский район, с.Ольховатка, ул. Большак, 27-А	21101 (Богданов Николай Алексеевич)	52.252913	36.125102	0	 undefined	" ""/images/pojarka_small.png"""	 80	 58
29 ПЧ п. Олымский  Касторенского  района  ППС Курской области	53453	Касторенский р-н  п.Олымский, ул.Строителей,  8	66991 (Бородин Руслан Евгеньевич)	51.775845	38.146438	0	 undefined	" ""/images/pojarka_small.png"""	 80	 58
29 ПЧ п. Олымский  Касторенского  района  ППС Курской области	53455	Касторенский р-н  п.Олымский, ул.Строителей,  8	66991 (Бородин Руслан Евгеньевич)	51.775845	38.146438	0	 undefined	" ""/images/pojarka_small.png"""	 80	 58
Пожарная часть № 20 (Альменевский район)	53298	с. Альменево, ул.Советская 11	8(35242)9-24-55 (Локосова Надежда Ивановна, инспектор  по основной деятельности  ПЧ № 20)	54.945474	63.578345	0	 undefined	" ""/images/pojarka_small.png"""	 80	 58
ПЧ-70	54013	с. Октябрьское, ул. Восточная, 104	8-351-58-5-29-87, Заместитель начальника  КОРОВИН  Евгений Владимирович  	54.412448	62.727937	0	 undefined	" ""/images/pojarka_small.png"""	 80	 58
34 ПЧ Медвенского  района ППС Курской области	53473	п. Медвенка, ул. Советская, 58	41101 (ВрИО начальника Веревкин Алексей Васильевич)	51.420338	36.119380	0	 undefined	" ""/images/pojarka_small.png"""	 80	 58
34 ПЧ Медвенского  района ППС Курской области	53475	п. Медвенка, ул. Советская, 58	41101 (ВрИО начальника Веревкин Алексей Васильевич)	51.420338	36.119380	0	 undefined	" ""/images/pojarka_small.png"""	 80	 58
14 ПЧ по охране Мантуровского района ГУ &quot;1 Отряд  ФПС по Курской области&quot;	53392	Мантуровский район, с. Мантурово	2-11-01 (майор вн. службы Золотухин Алексей Иванович)	51.453324	37.126868	0	 undefined	" ""/images/pojarka_small.png"""	 80	 58
14 ПЧ по охране Мантуровского района ГУ &quot;1 Отряд  ФПС по Курской области&quot;	53396	Мантуровский район, с. Мантурово	2-11-01 (майор вн. службы Золотухин Алексей Иванович)	51.453324	37.126868	0	 undefined	" ""/images/pojarka_small.png"""	 80	 58
Пост с.Лачиново ППС Курской области	53565	Касторенский район, с. Лачиново	41201 (Захаров Валерий Леонидович)	51.803165	37.922523	0	 undefined	" ""/images/pojarka_small.png"""	 80	 58
Пост с.Лачиново ППС Курской области	53567	Касторенский район, с. Лачиново	41201 (Захаров Валерий Леонидович)	51.803165	37.922523	0	 undefined	" ""/images/pojarka_small.png"""	 80	 58
40 ПЧ Советского  района ППС Курской области	53497	Советский район, п. Кшенский, ул. Ленина,  7<br />	21101 (Усов Роман Николаевич)	51.844580	37.715210	0	 undefined	" ""/images/pojarka_small.png"""	 80	 58
40 ПЧ Советского  района ППС Курской области	53499	Советский район, п. Кшенский, ул. Ленина,  7<br />	21101 (Усов Роман Николаевич)	51.844580	37.715210	0	 undefined	" ""/images/pojarka_small.png"""	 80	 58
ПЧ-65	54031	с. Кунашак, ул. Октябрьская,16	8-351-48 3-10-38 (Начальник ШАГИАХМЕТОВ Руслан Ревьевич)	55.698310	61.546176	0	 undefined	" ""/images/pojarka_small.png"""	 80	 58
Пост п. Крупец ППС Курской области	53537	Рыльский район, с.Крупец  ул.Советская, 144а	22331 (Казарезов Евгений Владимирович)	51.624043	34.359859	0	 undefined	" ""/images/pojarka_small.png"""	 80	 58
Пост п. Крупец ППС Курской области	53539	Рыльский район, с.Крупец  ул.Советская, 144а	22331 (Казарезов Евгений Владимирович)	51.624043	34.359859	0	 undefined	" ""/images/pojarka_small.png"""	 80	 58
Пост с. Котово ППС Курской области	53577	Пристенский район, с. Котово	21101 (Угримов Генадий Владимирович)	51.270742	36.429101	0	 undefined	" ""/images/pojarka_small.png"""	 80	 58
Пост с. Котово ППС Курской области	53579	Пристенский район, с. Котово	21101 (Угримов Генадий Владимирович)	51.270742	36.429101	0	 undefined	" ""/images/pojarka_small.png"""	 80	 58
ПЧ-33	53070	п. Кез, ул. Лесовозная, 37 	(8-341-58) 3-11-01 (Тихонов Константин Апполосович)	57.897529	53.709579	0	 undefined	" ""/images/pojarka_small.png"""	 80	 58
Пост п. им. Ленина ППС Курской области	53581	Советский район, п. им. Ленина<br />	35616 (Минаев Валерий Леонидович)	51.867966	37.552552	0	 undefined	" ""/images/pojarka_small.png"""	 80	 58
Пост п. им. Ленина ППС Курской области	53583	Советский район, п. им. Ленина<br />	35616 (Минаев Валерий Леонидович)	51.867966	37.552552	0	 undefined	" ""/images/pojarka_small.png"""	 80	 58
9 ПЧ по охране Курчатовского района  ГУ &quot;1 Отряд ФПС по Курской области&quot;	53363	Курчатовский район п.К.Либкнехта ул. К.Маркса, 3	9-15-09 (майор вн. службы Мажоров Анатолий Владимирович)	51.620397	35.463296	0	 undefined	" ""/images/pojarka_small.png"""	 80	 58
9 ПЧ по охране Курчатовского района  ГУ &quot;1 Отряд ФПС по Курской области&quot;	53369	Курчатовский район п.К.Либкнехта ул. К.Маркса, 3	9-15-09 (майор вн. службы Мажоров Анатолий Владимирович)	51.620397	35.463296	0	 undefined	" ""/images/pojarka_small.png"""	 80	 58
ПЧ-31	53065	п. Игра, пер. Советский, 28	(8-341-34) 4-21-10 (Петров Артем Владимирович)	57.550775	53.066763	0	 undefined	" ""/images/pojarka_small.png"""	 80	 58
ПЧ-66	54003	с. Еткуль, Переулок 17, д.14	8 351 45 2-12-67 (Начальник ФОМЯКОВ Алексей Александрович)	54.826474	61.594317	0	 undefined	" ""/images/pojarka_small.png"""	 80	 58
ПЧ-61	53975	с. Долгодеревенское, ул. Сиреневая, 1б	код 8-351-44 3-20-29 ПЕРШУКОВ Сергей Викторович	55.345836	61.321876	0	 undefined	" ""/images/pojarka_small.png"""	 80	 58
Пожарная часть № 25 (Красный Октябрь) 	53311	Красный Октябрь, п.Каргаполье	8(35256) 2-46-01 (Семиренко Алла Анатольевна, инспектор по основной деятельности)	55.649967	64.812451	0	 undefined	" ""/images/pojarka_small.png"""	 80	 58
24 ПЧ Глушковского  района ППС Курской области	53417	п. Глушково, ул.Ленина, 263<br />	21001 (Щербаков Дмитрий Александрович)	51.335859	34.631024	0	 undefined	" ""/images/pojarka_small.png"""	 80	 58
24 ПЧ Глушковского  района ППС Курской области	53419	п. Глушково, ул.Ленина, 263<br />	21001 (Щербаков Дмитрий Александрович)	51.335859	34.631024	0	 undefined	" ""/images/pojarka_small.png"""	 80	 58
Пост с. Верхний Любаж ППС Курской области	53585	Фатежский район, с. Верхний Любаж	41201 (Гнездилов Алексей Васильевич)	52.217305	35.834039	0	 undefined	" ""/images/pojarka_small.png"""	 80	 58
Пост с. Верхний Любаж ППС Курской области	53587	Фатежский район, с. Верхний Любаж	41201 (Гнездилов Алексей Васильевич)	52.217305	35.834039	0	 undefined	" ""/images/pojarka_small.png"""	 80	 58
ПЧ-27	53057	с. Вавож, пер. Азина,2	(8-341-55) 2-10-01 (Кузьмин Евгений Леонидович)	56.866150	51.953031	0	 undefined	" ""/images/pojarka_small.png"""	 80	 58
ПЧ-57	54040	с. Бреды,  ул. Маяковского, 3	код  8 351 41 3-54-73 БОРОДИН Сергей Павлович	52.411972	60.346485	0	 undefined	" ""/images/pojarka_small.png"""	 80	 58
22 ПЧ Большесолдатского  района ППС Курской области	53411	п.Б.Солдатское, ул. Кооперативная, 19	21101 (Самойлов Валерий Владимирович)	51.331560	35.522971	0	 undefined	" ""/images/pojarka_small.png"""	 80	 58
22 ПЧ Большесолдатского  района ППС Курской области	53413	п.Б.Солдатское, ул. Кооперативная, 19	21101 (Самойлов Валерий Владимирович)	51.331560	35.522971	0	 undefined	" ""/images/pojarka_small.png"""	 80	 58
32 ПЧ Курского  района ППС Курской области	53465	Курский район, с.Беседено	597156 (Руднев Сергей Николаевич)	51.708735	36.471636	0	 undefined	" ""/images/pojarka_small.png"""	 80	 58
32 ПЧ Курского  района ППС Курской области	53467	Курский район, с.Беседено	597156 (Руднев Сергей Николаевич)	51.708735	36.471636	0	 undefined	" ""/images/pojarka_small.png"""	 80	 58
ПЧ-26	53055	п. Балезино, ул. Полевая, 12	(8-341-66) 5-27-18 (Цветков Александр Сергеевич)	57.978605	53.004033	0	 undefined	" ""/images/pojarka_small.png"""	 80	 58
10 ПЧ по охране г. Льгова ГУ &quot;1 Отряд ФПС по Курской области&quot;	53373	г. Льгов, ул. Комсомольская, 41	2-23-01 (подполковник вн. службы Фрундин Александр Викторович)	51.660613	35.263753	0	 undefined	" ""/images/pojarka_small.png"""	 80	 58
10 ПЧ по охране г. Льгова ГУ &quot;1 Отряд ФПС по Курской области&quot;	53377	г. Льгов, ул. Комсомольская, 41	2-23-01 (подполковник вн. службы Фрундин Александр Викторович)	51.660613	35.263753	0	 undefined	" ""/images/pojarka_small.png"""	 80	 58
ПЧ-51 ГУ «5 ОФПС»	53215	г. Емва, ул. Полевая, 28<br />	(82139) 2-15-01 (Пищула Алексей Евгеньевич)	62.577762	50.873724	0	 undefined	" ""/images/pojarka_small.png"""	 80	 58
ФГКУ 28 ОФПС по МО, ПЧ-5	53854	Сергиево-Посадский р-он, г.Краснозаводск, ул. Красной армии, д.1	926-130-65-09 (Назаров Сергей Анатольевич, капитан вн.сл., заместитель начальника части)	56.448190	38.217207	0	 undefined	" ""/images/pojarka_small.png"""	 80	 58
ФГКУ 28 ОФПС по МО, ПЧ-5	53856	Сергиево-Посадский р-он, г.Краснозаводск, ул. Красной армии, д.1	926-130-65-09 (Назаров Сергей Анатольевич, капитан вн.сл., заместитель начальника части)	56.448190	38.217207	0	 undefined	" ""/images/pojarka_small.png"""	 80	 58
ПЧ-18 ФКУ «ЦУКС ГУ МЧС России по Республике Калмыкия»	53272	Республика Калмыкия, г. Элиста, Ленина 395<br />	8 (84722) 6-52-72, 8 (84722) 6-20-14 (Власов Евгений Геннадьевич)	46.312698	44.226801	0	 undefined	" ""/images/pojarka_small.png"""	 80	 58
Пожарная часть № 42 (Шумихинский район)	53387	г. Шумиха, ул. Гагарина, 6	8(35245) 2-13-62 (Мананкова Мария Викторовна, инспектор  по основной деятельности)	55.225902	63.283904	0	 undefined	" ""/images/pojarka_small.png"""	 80	 58
45 ПЧ Фатежского  района ППС Курской области	53517	г. Фатеж, ул. Советская,  17<br />	21101 (Долженков Александр Алексеевич)	52.085298	35.864402	0	 undefined	" ""/images/pojarka_small.png"""	 80	 58
45 ПЧ Фатежского  района ППС Курской области	53519	г. Фатеж, ул. Советская,  17<br />	21101 (Долженков Александр Алексеевич)	52.085298	35.864402	0	 undefined	" ""/images/pojarka_small.png"""	 80	 58
Пожарная часть № 43 (Щучанский район)	53394	г. Щучье, улица Жукова ,33	8(35244) 2-37-35 (Косарева Галина Николаевна, инспектор  по основной деятельности)	55.220202	62.753898	0	 undefined	" ""/images/pojarka_small.png"""	 80	 58
17 ПЧ ФГКУ «3 отряд ФПС по Вологодской области»	53242	Вологодская область, Сокольский район, г.Сокол, ул.Советская, 89	(81733) 2-12-92 (заместитель начальника 17 ПЧ капитан внутренней службы Пахнин Евгений Иванович)	59.464100	40.110002	0	 undefined	" ""/images/pojarka_small.png"""	 80	 58
ПЧ № 32 Федерального государственного казенного учреждения «14 ОФПС по Владимирской области»	53695	г. Собинка, ул. Некрасова, д. 1а	8-903-831-98-26 (Заместитель начальника ФГКУ «14 ОФПС по Владимирской области» подполковник вн. сл. Колчин А.В.)	55.988902	40.010801	0	 undefined	" ""/images/pojarka_small.png"""	 80	 58
ПЧ-12 по охране г. Сегежа ФГКУ «4 отряд ФПС по Республике Карелия»	53181	г. Сегежа ул. Гражданская д.15	(81431) 43490 (Крынник Сергей Анатольевич)	63.740402	34.317701	0	 undefined	" ""/images/pojarka_small.png"""	 80	 58
ПЧ-49	53910	г. Сатка, ул. 100-летия комбината «Магнезит», 7	8-351-61 4-33-30 (Начальник ДМИТРИЕВ Евгений Александрович)	55.070298	58.991700	0	 undefined	" ""/images/pojarka_small.png"""	 80	 58
21 ПЧ Беловского  района ППС Курской области	53403	Беловский район, сл. Белая, пл.Советская, строение 3	21101 (Гарбуз Валерий Николаевич)	51.573200	34.687996	0	 undefined	" ""/images/pojarka_small.png"""	 80	 58
2-я  Пожарная часть ФГКУ «1-й отряд ФПС по РБ»	53133	г. Улан-Удэ, ул. Чертенкова, 40	8 (3012) 46-56-66 (Начальник пожарной части №2  Поплевин Иван Иннокентьевич)	51.857899	107.570003	0	 undefined	" ""/images/pojarka_small.png"""	 80	 58
ПЧ-25  ОФПС-2, п. Троицко-Печорск	53203	пгт. Троицко-Печорск, ул.Портовая, 3«а»	(82138)  9-71-46 (Яковлев Алексей Леонидович)	62.719900	56.166696	0	 undefined	" ""/images/pojarka_small.png"""	 80	 58
ФГКУ «7 ОФПС по Челябинской области»	54005	г. Троицк, ул. Денисова, 3а	8-351-63 239-71-69, 2-07-97 (Начальник ТРУНОВ Вадим Викторович)	54.076101	61.539798	0	 undefined	" ""/images/pojarka_small.png"""	 80	 58
ПЧ-3, ФГКУ &quot;1 ОФПС по РБ&quot;	53153	г. Улан-Удэ, Пирогова 5а	8 (3012) 43-79-44 (и.о. начальника пожарной части - Посельский Алексей Владимирович)	51.804301	107.621998	0	 undefined	" ""/images/pojarka_small.png"""	 80	 58
ПЧ-31	54007	г. Троицк, ул. Денисова, 3а	8-351-63 2-01-65 (Начальник БОЧКАРЕВ Василий Павлович)	54.076101	61.539798	0	 undefined	" ""/images/pojarka_small.png"""	 80	 58
42 ПЧ Суджанского  района ППС Курской области	53505	г. Суджа, ул. Розы Луксембург, 15	21831 (Лукин Александр Михайлович)	51.192398	35.273302	0	 undefined	" ""/images/pojarka_small.png"""	 80	 58
42 ПЧ Суджанского  района ППС Курской области	53507	г. Суджа, ул. Розы Луксембург, 15	21831 (Лукин Александр Михайлович)	51.192398	35.273302	0	 undefined	" ""/images/pojarka_small.png"""	 80	 58
ПЧ №6 ФГКУ «2 ОФПС по Белгородской области»	53846	г. Старый Оскол ул. Ерошенко, 3	8-951-131-43-83 (лейтенант внутренней службы  Шеховцов Юрий Петрович)	51.296402	37.884399	0	 undefined	" ""/images/pojarka_small.png"""	 80	 58
ПЧ-7 ФГКУ «3 отряд ФПС по Новгородской области»	53258	г. Старая Русса, ул. Яковлева д. 18<br />	Федоров Сергей Борисович	58.003202	31.376401	0	 undefined	" ""/images/pojarka_small.png"""	 80	 58
21 ПЧ Беловского  района ППС Курской области	53407	Беловский район, сл. Белая, пл.Советская, строение 3	21101 (Гарбуз Валерий Николаевич)	51.573200	34.687996	0	 undefined	" ""/images/pojarka_small.png"""	 80	 58
39 ПЧ Рыльского  района ППС Курской области	53493	г. Рыльск, ул.К.Либкнехта, 4	21312 (Осадчий Василий Иванович)	51.571599	34.684699	0	 undefined	" ""/images/pojarka_small.png"""	 80	 58
39 ПЧ Рыльского  района ППС Курской области	53495	г. Рыльск, ул.К.Либкнехта, 4	21312 (Осадчий Василий Иванович)	51.571599	34.684699	0	 undefined	" ""/images/pojarka_small.png"""	 80	 58
Пожарная часть № 10 ФГКУ «2 ОФПС по Ярославской области»	53625	152911, г. Рыбинск, ул. Кулибина, 15	8 (4855) 29-62-21 (Суриков Дмитрий Николаевич)	58.051898	38.798498	0	 undefined	" ""/images/pojarka_small.png"""	 80	 58
Пожарная часть № 10 ФГКУ «2 ОФПС по Ярославской области»	53627	152911, г. Рыбинск, ул. Кулибина, 15	8 (4855) 29-62-21 (Суриков Дмитрий Николаевич)	58.051898	38.798498	0	 undefined	" ""/images/pojarka_small.png"""	 80	 58
Пожарная часть № 15 по охране г. Родники и Родниковского района ФГКУ «10 отряд ФПС по Ивановской области»	53814	г. Родники, ул. Космонавтов, д. 1-а	8-920-677-23-09 (Гусев Андрей Юрьевич - Начальник части, старший лейтенант внутренней службы)	57.116698	41.701197	0	 undefined	" ""/images/pojarka_small.png"""	 80	 58
ПЧ-55 по охране г. Питкяранта ФГКУ «5 отряд ФПС по Республике Карелия»	53183	г. Питкяранта ул.Пионерская д.14	(81433) 45058 (Белов Алексей Анатольевич)	61.577502	31.472198	0	 undefined	" ""/images/pojarka_small.png"""	 80	 58
ПЧ-41 ГУ «4 ОФПС»	53211	г. Печора, ул. Ленинградская, 15	(82142) 3-13-96 (Сумароков Владимир Валерьевич)	65.113998	57.160601	0	 undefined	" ""/images/pojarka_small.png"""	 80	 58
ФГКУ «8 ОФПС по Челябинской области»	54023	г. Касли, ул. Комсомольская, 25	8-351-49 2-55-20 (Начальник КАЗАКОВ Кирилл Владимирович)	55.896898	60.754401	0	 undefined	" ""/images/pojarka_small.png"""	 80	 58
ПЧ-60	54029	г. Касли, ул. Комсомольская, 25	8-351-49 2-55-20 (Начальник ШИРОКОВ Евгений Юрьевич)	55.896898	60.754401	0	 undefined	" ""/images/pojarka_small.png"""	 80	 58
ПЧ № 20  Федерального государственного казенного учреждения «9 ОФПС по Владимирской области»	53687	г. Камешково, ул. Дорофеичева, д. 4	8-910-013-72-16 (Заместитель начальника ФГКУ «9 ОФПС по Владимирской области» подполковник вн. сл. Фадеев В.И.)	56.347300	40.988599	0	 undefined	" ""/images/pojarka_small.png"""	 80	 58
ПЧ-33  ОФПС-3	53209	г. Инта, ул. Лунина, 5-а<br />	(82145) 2-24-94 (Воронин Александр Витальевич)	66.038599	60.143098	0	 undefined	" ""/images/pojarka_small.png"""	 80	 58
ПЧ-15 ФГКУ «2 ОФПС по Калининградской области»	53246	Калининградская область, г. Зеленоградск, ул. Железнодорожная, 38-А	(4012)  52-93-45 (Заместитель начальника ФГКУ «2 ОФПС по Калининградской области» по кадровой и воспитательной работе капитан внутренней службы Яськов Д.Ю.)	54.954300	20.471096	0	 undefined	" ""/images/pojarka_small.png"""	 80	 58
26 ПЧ Дмитриевского  района  ППС Курской области	53441	г. Дмитриев, ул.Володарского, 49	21001 (Сысоев Александр Афанасьевич)	52.127802	35.075502	0	 undefined	" ""/images/pojarka_small.png"""	 80	 58
26 ПЧ Дмитриевского  района  ППС Курской области	53443	г. Дмитриев, ул.Володарского, 49	21001 (Сысоев Александр Афанасьевич)	52.127802	35.075502	0	 undefined	" ""/images/pojarka_small.png"""	 80	 58
ПЧ-42	54027	г. Верхний Уфалей,  ул. К. Маркса, 123	код  8-351-64 2-35-31 КОЗИН Сергей Викторович	56.063002	60.214999	0	 undefined	" ""/images/pojarka_small.png"""	 80	 58
ПЧ-59	53920	г. Верхнеуральск, ул. Энергетиков, 1В	8- 351- 43 факс 2-24-46, 2-20-07 (Начальник ГОРОХОВ Вячеслав Александрович)	53.886599	59.222702	0	 undefined	" ""/images/pojarka_small.png"""	 80	 58
Пост с. Старо – Меловое ППС Курской области	53541	Горшеченский  район, с. Старо - Меловое, ул. Колхозная<br />	21301 (Разинкин Юрий Викторович)	51.528901	38.038101	0	 undefined	" ""/images/pojarka_small.png"""	 80	 58
Пост с. Старо – Меловое ППС Курской области	53543	Горшеченский  район, с. Старо - Меловое, ул. Колхозная<br />	21301 (Разинкин Юрий Викторович)	51.528901	38.038101	0	 undefined	" ""/images/pojarka_small.png"""	 80	 58
ПЧ №8  ФГКУ «2 ОФПС по Белгородской области»	53848	г. Губкин, ул. Артема, 1	8-980-372-14-53 (капитан  внутренней службы Алехин Александр Сергеевич)	51.290601	37.546596	0	 undefined	" ""/images/pojarka_small.png"""	 80	 58
20 специализированная часть по тушению крупных пожаров ФКГУ «19 отряд ФПС МЧС России по Тульской области»	53597	г. Тула, Новомедвенский пр., 14	8(4872)467101 (майор внутренней службы Князев Сергей Владимирович)	54.218600	37.685404	0	 undefined	" ""/images/pojarka_small.png"""	 80	 58
ПЧ-29	53979	г. Миасс, ул. Труда, 3	8-351-3 57-83-62 (Начальник ЧИНЕНОВ Сергей Владимирович)	55.065257	60.101551	0	 undefined	" ""/images/pojarka_small.png"""	 80	 58
ПЧ-47	53981	г. Миасс, Тургоякское шоссе, 20	8-351-3 24-29-75 (Начальник АБАБКОВ Андрей Евгеньевич)	55.081699	60.119202	0	 undefined	" ""/images/pojarka_small.png"""	 80	 58
ПЧ-48	53983	г. Чебаркуль, ул. Дзержинского,3а	8-351-68 2-08-51 (Начальник ЧАЙКИН Сергей Юрьевич)	54.979098	60.379103	0	 undefined	" ""/images/pojarka_small.png"""	 80	 58
ПЧ-72	53985	г. Карабаш, ул. Кузнецова, 10	8-351-53 2-31-01 (Начальник МЕДВЕДЬ Александр Сергеевич)	55.456622	60.212250	0	 undefined	" ""/images/pojarka_small.png"""	 80	 58
ПЧ-37	53993	г. Коркино, ул. 1 Мая, 17	8-351-52-3-95-03, Начальник  СЕРЕБРЯННИКОВ   Сергей Николаевич  	54.890200	61.415804	0	 undefined	" ""/images/pojarka_small.png"""	 80	 58
Пожарная часть № 34 (Петуховский район)	53345	г. Петухово, ул. К-Маркса, 2<br />	8(35235) 2-20-01 (Шепелина Елена Ивановна, инспектор по основной деятельности)	55.067298	67.888201	0	 undefined	" ""/images/pojarka_small.png"""	 80	 58
35 ПЧ Обоянского  района ППС Курской области	53477	г. Обоянь, ул.1 Мая,  15	41461 (Кононов  Сергей Иванович)	51.209600	36.272597	0	 undefined	" ""/images/pojarka_small.png"""	 80	 58
35 ПЧ Обоянского  района ППС Курской области	53479	г. Обоянь, ул.1 Мая,  15	41461 (Кононов  Сергей Иванович)	51.209600	36.272597	0	 undefined	" ""/images/pojarka_small.png"""	 80	 58
ПЧ № 15 Федерального государственного казенного учреждения «11 ОФПС по Владимирской области»	53691	г. Муром, ул. Войкова, д. 5а	8-919-010-02-91 (Заместитель начальника ФГКУ «11 ОФПС по Владимирской области» капитан вн. сл. Синева Е.Ю.)	55.579098	42.036502	0	 undefined	" ""/images/pojarka_small.png"""	 80	 58
ПЧ-22	53129	г. Кызыл,ул. Магистральная, 4/4	8 (39422)2-64-41 (Начальник пожарной части № 22 подполковник вн.сл. Онгуда Ш.Х.)	51.702997	94.516297	0	 undefined	" ""/images/pojarka_small.png"""	 80	 58
ПЧ-36	53991	г. Копейск, ул. Борьбы, 57	8-351-39 7-51-63 (Начальник КРОХИН Андрей Михайлович)	55.116902	61.624402	0	 undefined	" ""/images/pojarka_small.png"""	 80	 58
ПЧ-13 по охране г. Кондопога ФГКУ «3 отряд ФПС по Республике Карелия»	53179	г. Кондопога, ул. Заводская д.1-а	(81451) 79582 (Трифонов Александр Павлович)	62.205199	34.275902	0	 undefined	" ""/images/pojarka_small.png"""	 80	 58
Пожарная часть № 28 (Куртамышский район)	53317	г.Куртамыш, пл. Революции 10<br />	8(35249) 2-18-27 (Олексюк Наталья Валерьевна, инспектор  по основной деятельности)	54.912998	64.434601	0	 undefined	" ""/images/pojarka_small.png"""	 80	 58
Пожарная часть № 26 (Катайский район)	53313	г.Катайск, ул. Советская, 34	8(35251) 2-46-01 (Горланова Ольга Александровна, инспектор по основной деятельности)	56.291324	62.570417	0	 undefined	" ""/images/pojarka_small.png"""	 80	 58
ПЧ-1 ФГКУ «1 ОФПС по РС (Я)»	53292	г.Алдан, ул. 10 лет Якутии, 40<br />	8(41145)32-0-93, 37-12-4 (Инспектор ОС и П, капитан в/с, Флусов Евгений Владимирович)	58.609601	125.393001	0	 undefined	" ""/images/pojarka_small.png"""	 80	 58
Пожарная часть № 14 (Далматовский район)	53305	г.Далматово, ул. Рукманиса, 2а	8(35252)2-26-25 (Каурова Наталья Юрьевна, инспектор по основной деятельности)	56.267002	62.937397	0	 undefined	" ""/images/pojarka_small.png"""	 80	 58
ПЧ № 18  Федерального государственного казенного учреждения «3 ОФПС по Владимирской области»	53672	г. Вязники, площадь Соборная, д. 2	8-920-936-39-80 (Заместитель начальника ФГКУ «3 ОФПС по Владимирской области» подполковник вн. сл. Лезов А.И.)	56.246601	42.159302	0	 undefined	" ""/images/pojarka_small.png"""	 80	 58
ПЧ-39	53995	г. Еманжелинск, ул. Заводская,13	8-351-38 2-31-00 (Начальник КАДНИКОВ Александр Николаевич)	54.771128	61.334246	0	 undefined	" ""/images/pojarka_small.png"""	 80	 58
ПЧ-43	53997	г. Копейск, посёлок  Советов	8-351-39 9-15-63 (Начальник РАДЧИНСКИЙ Николай Михайлович)	55.112880	61.646859	0	 undefined	" ""/images/pojarka_small.png"""	 80	 58
ПЧ-33	54009	г. Южноуральск, ул. Спортивная, 17	8 351 34 4-63-19 (Начальник БУРМАТОВ Андрей Викторович)	54.448999	61.278002	0	 undefined	" ""/images/pojarka_small.png"""	 80	 58
ПЧ-71	54015	г. Пласт, ул. Октябрьская, 75	8 351 60 2-21-08 (Начальник ЧЕРНЫШОВ Александр Сергеевич)	54.350002	60.818604	0	 undefined	" ""/images/pojarka_small.png"""	 80	 58
ПЧ-17	54021	г. Южноуральск, ул. Спортивная, 17	8-351-63 3-49-01, 5-94-54 (Начальник КАРПОВ Евгений Николаевич)	54.448999	61.278002	0	 undefined	" ""/images/pojarka_small.png"""	 80	 58
ПЧ-38	54025	г. Кыштым, ул. Чернышевского, 6	8-351-51 4-74-43 (Начальник КИСЕЛЕВ Николай Анатольевич)	55.706898	60.548885	0	 undefined	" ""/images/pojarka_small.png"""	 80	 58
ПЧ-69	54033	г. Нязепетровск, ул. Пушкина, 5	8-351-56 3-12-57 (Начальник ВИКУЛОВ Павел Борисович)	56.047600	59.587499	0	 undefined	" ""/images/pojarka_small.png"""	 80	 58
ФГКУ «9 ОФПС по Челябинской области»	54036	г. Карталы, ул. Братьев Кашириных, 11	8-351-33 239-71-53, 2-24-44 (Начальник ТРЕСКОВ Сергей Владимирович)	53.058634	60.662854	0	 undefined	" ""/images/pojarka_small.png"""	 80	 58
Пожарная часть №1 ФГКУ  «ОФПС по Рязанской  области» 	54038	г. Рязань, ул. Семинарская, 11<br />	8-960-574-37-79 (Дианов Виталий Николаевич)	54.632228	39.738055	0	 undefined	" ""/images/pojarka_small.png"""	 80	 58
ПЧ-58	54042	с. Варна, пер. Пионерский, 12	8 351 42 2-14-69 (Начальник РАКАЕВ Марат Рамильевич)	53.386900	60.959999	0	 undefined	" ""/images/pojarka_small.png"""	 80	 58
ПЧ-62	54044	г. Карталы, ул. Братьев Кашириных, 11	8 351 33 2-22-46 (Начальник ПАВЛОВ Денис Александрович)	53.058634	60.662854	0	 undefined	" ""/images/pojarka_small.png"""	 80	 58
Отдельный пост №16 ПЧ-26 ГКУ Рязанской области «Рязанская областная противопожарно-спасательная служба»	54049	Клепиковский район, с. Криуша, ул. 1-я Мая, д.2<br />	8-910-509-70-06 (Сергеев Александр Константинович)	54.951172	39.962499	0	 undefined	" ""/images/pojarka_small.png"""	 80	 58
ПЧ-10	54051	г. Сим, ул. Пушкина, 6	8 351 59 7-89-80 (Начальник МОШКИН Сергей Леонтьевич)	54.982698	57.685702	0	 undefined	" ""/images/pojarka_small.png"""	 80	 58
ПЧ-14	54053	г. Катав-Ивановск, ул. Дм. Тараканова, 46	8-351-47 2-39-51 (Начальник БОЧКАРЕВ Владимир Борисович)	54.753601	58.198497	0	 undefined	" ""/images/pojarka_small.png"""	 80	 58
ПЧ-75	54057	г. Усть-Катав, ул. Строителей, 8	8 351 67 3-12-01 (Начальник САЛИЙ Владислав Викторович)	54.928898	58.155593	0	 undefined	" ""/images/pojarka_small.png"""	 80	 58
ПЧ-1	54059	ул. Тульская, 130	(4842) 73-57-01 8-910-705-31-78 (Начальник  майор вн. службы  Друщиц Юрий Алексеевич)	54.513025	36.297247	0	 undefined	" ""/images/pojarka_small.png"""	 80	 58
ФКУ 4 ОФПС	54061	г. Тюмень                                        ул. Кедровая, 125	8(3452)48-26-00 Кряжева Юлия Сергеевна	57.153732	65.672579	0	 undefined	" ""/images/pojarka_small.png"""	 80	 58
ПЧ-4	54063	г. Людиново ул. Урицкого, 12-а 	(48444) 6-22-00 8-910-913-34-40 (Начальник  лейтенант вн. службы Юрчиков Владимир Сергеевич)	53.862903	34.438102	0	 undefined	" ""/images/pojarka_small.png"""	 80	 58
ФГКУ 8 ОФПС	54066	г. Тобольск 4 мкр., д.56	8(3456) 25 19 92 Терехов Вячеслав Александрович	58.205188	68.324935	0	 undefined	" ""/images/pojarka_small.png"""	 80	 58
ФГКУ 24 ОФПС	54075	г. Ялуторовск ул. Бахтиярова 32	(34535) 2 60 64 Кузнецова Екатерина Владимировна	56.637798	66.273498	0	 undefined	" ""/images/pojarka_small.png"""	 80	 58
ФГКУ «146 ПЧ ФПС по Тюменской области»	54087	с. Ярково, ул. Пионерская, 80	8-345 590-261 (Хримучков Олег Васильевич, Майор вн.службы, Зам начальника ПЧ по работе с кадрами)	57.401287	67.069998	0	 undefined	" ""/images/pojarka_small.png"""	 80	 58
118 ПЧ 1 ОФПС	54091	Ханты-Мансийский автономный округ-Югра, г. Сургут, ул. Фармана Салманова, 4<br />	7-3462-52-58-11, Змановский Виталий Сергеевич,  заместитель начальника  118 ПЧ 1 ОФПС  	61.241112	73.465688	0	 undefined	" ""/images/pojarka_small.png"""	 80	 58
35 ПЧ 2 ОФПС 	54093	г. Лянтор,<br />ул. Магистральная,18 А<br />	Тел. (34638)28689 Факс (34638)23494 Пузырев Владимир Николаевич	61.625101	72.176300	0	 undefined	" ""/images/pojarka_small.png"""	 80	 58
ПЧ 111 ФГКУ 19 ОФПС	54068	п.Винзили ул.Заводская, 17	Р.т. 8(3452) 728-152; с.т. 926239 Пятых Ирина Александровна	56.952799	65.769004	0	 undefined	" ""/images/pojarka_small.png"""	 80	 58
ФГКУ 23 ОФПС	54070	с. Уват, ул. Ленина 54<br />	83456128156-рабочий; 83456125425-домашний (Пономарева Мария Сергеевна  Л-т вн.службы, ст.инспектор ОКиВР ФГКУ «23 ОФПС по Тюм. Обл»)	59.143993	68.893120	0	 undefined	" ""/images/pojarka_small.png"""	 80	 58
74 ПЧ 3 ОФПС	54095	Ханты-Мансийский автономный округ-Югра, г. Когалым, ул. Бакинская, 2<br />	7-34667-6-54-15, (Брасленко Светлана Юрьевна,  инженер ГПП  74 ПЧ 3 ОФПС  )	62.261799	74.460896	0	 undefined	" ""/images/pojarka_small.png"""	 80	 58
42 ПЧ 5 ОФПС	54099	Ханты-Мансийский<br />автономный округ-Югра,<br />г.Нижневартовск,<br />ул. Интернациональная, 63<br />	7-3466-46-92-00, Камалов Л.Ю.,  заместитель начальника части - начальник группы по кадровой и воспитательной работе 42 ПЧ  5 ОФПС, капитан внутренней службы  	60.942142	76.615379	0	 undefined	" ""/images/pojarka_small.png"""	 80	 58
73 ПЧ 5 ОФПС 	54101	г.Радужный,<br />ул. Новая, 4<br />	Тел. (34668) 3-77-54 Факс  (34668) 3-96-91 Ракивин О.А	62.128201	77.437904	0	 undefined	" ""/images/pojarka_small.png"""	 80	 58
84 ПЧ 6 ОФПС 	54105	г. Пыть-Ях, <br />3 мкрн., 14 «А»<br />	Тел. (3463) 465-285 Факс (3463) 462-285 Легостаев Виктор Вадимович	60.752000	72.780804	0	 undefined	" ""/images/pojarka_small.png"""	 80	 58
ФГКУ 25 ОФПС	54077	г. Заводоуковск ул.Шоссейная,117	8(34542) 2-34-53 Дубовец Сергей Иванович	56.510701	66.532796	0	 undefined	" ""/images/pojarka_small.png"""	 80	 58
119 ПЧ ФГКУ 26 ОФПС	54081	с. Омутинское, ул. Мелиораторов, 1	8 (34544) 3- 33- 81 (Демидова Наталья Александровна, Инспектор  по основной деятельности)	56.467598	67.695603	0	 undefined	" ""/images/pojarka_small.png"""	 80	 58
4 ПЧ 9 ОФПС	54109	г. Югорск, ул. Мира, 75 Сиволобцева Юлия Валентиновна		61.319300	63.315399	0	 undefined	" ""/images/pojarka_small.png"""	 80	 58
9 ПЧ	54111	Ханты-Мансийский автономный округ-Югра, г. Белоярский, пер. Северный, д.1	7+34670-2-68-32, Павлюхин А.Е.  заместитель начальника 9 ПЧ  капитан вн. службы.  	63.714502	66.678099	0	 undefined	" ""/images/pojarka_small.png"""	 80	 58
96 ПЧ 10 ОФПС 	54115	г. Покачи, ул. Таежная,13	(34669) 7-21-30 Набиев Элсевар ганбар оглы	61.746401	75.598001	0	 undefined	" ""/images/pojarka_small.png"""	 80	 58
12 ПЧ 14 ОФПС 	54121	г. Мегион,<br />ул. Кузьмина, 55<br />	Тел. (34643) 4-64-55 Факс (34643) 4-64-55 Киселев Павел Алексеевич	61.039199	76.087700	0	 undefined	" ""/images/pojarka_small.png"""	 80	 58
50 ПЧ 16 ОФПС	54123	Ханты-Мансийский автономный округ-Югра, г. Покачи, Промышленная зона ЦППН	+7-34669-3-90-04, Ковалевский Николай  Евгеньевич,  начальник караула 50 ПЧ 16 ОФПС,  лейтенант внутренней службы  	61.713331	75.359463	0	 undefined	" ""/images/pojarka_small.png"""	 80	 58
136 ПЧ 17 ОФПС 	54125	Сургутский район,<br />п.Тром-Аган,<br />ул. Родниковая, 2<br />	Тел./факс (3462) 42-48-90 Сафронов Константин Валентинович	61.679251	74.310608	0	 undefined	" ""/images/pojarka_small.png"""	 80	 58
ФГКУ 27 ОФПС	54083	с. Голышманово, ул. Вокзальная, 85<br />	8 34546 261-90 (Лещева Ольга Михайловна, Инспектор  по основной деятельности 110 ПЧ ФПС)	56.390699	68.382104	0	 undefined	" ""/images/pojarka_small.png"""	 80	 58
ФГКУ 32 ОФПС	54085	г. Тюмень ул. Чекистов, 33	590-795 988308 Борисова Елена Александровна	57.118990	65.651657	0	 undefined	" ""/images/pojarka_small.png"""	 80	 58
Учебная пожарная часть Учебного центра	54127	Ханты-Мансийский автономный округ-Югра,  г. Сургут, ул.Автомобилистов, д. 11	7+3462-51-84-31, Савин Евгений Игоревич,  заместитель начальника учебной ПЧ,  капитан внутренней службы  	61.294647	73.317960	0	 undefined	" ""/images/pojarka_small.png"""	 80	 58
4 ПЧ 13 ОФПС 	54133	г. Ноябрьск, м-н Вынгапуровский, Промзона, панель №1.	(3496) 37-82-07 – ПСЧ ф: (3496) 37-82-07 – ПСЧ Роккель  Андрей Георгиевич	63.193798	75.502501	0	 undefined	" ""/images/pojarka_small.png"""	 80	 58
24 ПЧ  ФГКУ «19 отряд ФПС по Приморскому краю»	54183	г.Артем, ул. Кооперативная, 2	8(42337)4-26-01 (Начальник части, полковник в/с, Земсков А.В)	43.357203	132.184004	0	 undefined	" ""/images/pojarka_small.png"""	 80	 58
26 ПЧ ФГКУ «6 отряд ФПС по Приморскому краю»	54185	г. Партизанск, ул. М.Горького, 1<br />	8(42363)6-23-97 (Зам.начальника части, старший лейтенант в/с, Горпенко Семен Александрович)	43.118800	133.126004	0	 undefined	" ""/images/pojarka_small.png"""	 80	 58
2 ПЧ ФПС, 3 ПЧ ФПС	54129	г. Надым,<br />Ул. Проезд 1 д. 1<br />	8(3499)53-52-21 8(3499)56-69-83 8 (3499)53-65-40ф. А.В. Кудинов, 8(3499)56-69-83 8 (3499)53-65-40ф. В.А. Тищенко	65.535421	72.543496	0	 undefined	" ""/images/pojarka_small.png"""	 80	 58
84 ПЧ ФГКУ «6 отряд ФПС по Приморскому краю»	54187	г.Партизанск, с. Углекаменск, ул. Калинина, 32 Б<br />	8(42363)6-11-44 (Зам.начальника части, старший лейтенант в/с, Юлин Александр Юрьевич)	43.114483	133.137907	0	 undefined	" ""/images/pojarka_small.png"""	 80	 58
23 ПЧ ФГКУ «20 отряд ФПС по Приморскому краю»	54191	г. Спасск-Дальний, ул. Советская, 50<br />	8(42352)2-53-13 (Начальник отряда, подполковник в/с, Нестреляй Юрий Анатольевич)	44.603102	132.820999	0	 undefined	" ""/images/pojarka_small.png"""	 80	 58
32 ПЧ  ФГКУ «7 отряд ФПС по Приморскому краю»	54199	г. Уссурийск, ул.Ленина, 143	8(42341)33-49-06 (Начальник части, капитан в/с, Маслянко П.Н)	43.802205	131.975810	0	 undefined	" ""/images/pojarka_small.png"""	 80	 58
33 ПЧ ФГКУ «7 отряд ФПС по Приморскому краю»	54201	г. Уссурийск, ул. Раковская, 2а	8(42341)38-19-58 (Начальник части, Конончук С.В)	43.792900	131.985000	0	 undefined	" ""/images/pojarka_small.png"""	 80	 58
34 ПЧ ФГКУ «7 отряд ФПС по Приморскому краю»	54203	г. Уссурийск, ул. Новонекольский проезд, 1а<br />	8(42341)34-62-44 (Начальник части, Жук В.М)	43.802205	131.975810	0	 undefined	" ""/images/pojarka_small.png"""	 80	 58
ФГКУ «7 ПЧ ФПС по Амурской области»	54223	г. Завитинск, ул. Куйбышева, д.87<br />	8-914-043-28-92 (Заместитель начальника части, майор в/с, Гольц К.Л)	50.108200	129.437998	0	 undefined	" ""/images/pojarka_small.png"""	 80	 58
7 ПЧ	54135	г. Новый Уренгой,<br />Геологоразведчиков, 3<br />	8(3494) 23-14-37 8(3494) 23-14-37 Морозова  Елена Викторовна 	66.086399	76.694700	0	 undefined	" ""/images/pojarka_small.png"""	 80	 58
9 ПЧ	54137	г. Новый Уренгой,<br />Западная промзона,<br />ул. Магистральная<br />	8(3494) 23-14-37 8(3494) 23-14-37 Пауль  Ирина Александровна 	66.076499	76.526203	0	 undefined	" ""/images/pojarka_small.png"""	 80	 58
ПЧ-2 ФГКУ «1 ОФПС по РС (Я)»	54143	г.Томмот, ул. Укуланская,93<br />	8(41145)41-5-93, 41-2-66 (Начальник части, майор в/с, Щербаков Сергей Викторович)	58.955607	126.270574	0	 undefined	" ""/images/pojarka_small.png"""	 80	 58
ПЧ № 6 ФГКУ  «ОФПС по ЕАО» 	54251	г. Облучье, ул. Денисова, 29<br />	8 (42666) 4-29-45 (Начальник части, Зайцев Евгений Николаевич)	49.008800	131.058002	0	 undefined	" ""/images/pojarka_small.png"""	 80	 58
ФГКУ 28 ОФПС по МО, ПЧ-5	54253	Сергиево-Посадский р-он, г. Краснозаводск, ул. Красной армии, д.1	(Назаров Сергей Анатольевич, капитан вн.сл., заместитель начальника части)	56.448190	38.217207	0	 undefined	" ""/images/pojarka_small.png"""	 80	 58
10 ПЧ	54141	г. Новый Уренгой,<br />р-он Коротчаево, промбаза <br />СМП-522	8(3494) 24-70-01 8(3494) 24-70-01 Багиров Игорь Айдын-оглы	66.094159	76.702516	0	 undefined	" ""/images/pojarka_small.png"""	 80	 58
ФГКУ 28 ОФПС по МО, ПЧ-87	54255	г.Сергиев-Посад, ул.Центральная д.2	(Воронцов Роман Николаевич, подполковник вн.сл.,  начальник части)	56.294046	38.151522	0	 undefined	" ""/images/pojarka_small.png"""	 80	 58
Клинский гарнизон пожарной охраны. 37 специализированная часть по тушению крупных пожаров	54257	Клинский гарнизон пожарной охраны.37 специализированная часть по тушению крупных пожаров. М.О., г. Клин, ул. Московская, д. 33	7+496-441-23-58,Ватутин Андрей Васильевич  подполковник внутренней службы,  Врид.начальника ФГКУ «13 ОФПС по Московской области»  	56.328494	36.725015	0	 undefined	" ""/images/pojarka_small.png"""	 80	 58
Воскресенский гарнизон пожарной охраны, 2 пожарная часть	54259	г. Воскресенск, ул. Цесиса д.13	8496-441-23-58 (Гребцов Дмитрий Владиславович, капитан внутренней службы, и.о. начальника 2-ПЧ)	55.306799	38.655396	0	 undefined	" ""/images/pojarka_small.png"""	 80	 58
14  ПЧ	54146	г. Лабытнанги<br />ул. Автострадная, 28<br />	8(34992) 2-15-96 8(34992) 2-19-11 Вилисова Анна Анатольевна	66.668599	66.356403	0	 undefined	" ""/images/pojarka_small.png"""	 80	 58
ПЧ-1 ФГКУ «2 ОФПС по РС (Я)»	54150	г.Ленск, ул. Победы,69	8(41137)24-8-31 (Психолог группы КВР, старший лейтенант в/с, Юркина Надежда Константиновна)	58.596201	125.373004	0	 undefined	" ""/images/pojarka_small.png"""	 80	 58
Воскресенский гарнизон пожарной охраны, 314 пожарная часть 	54261	Воскресенский район пос. Хорлово мкр. Фосфоритный промплощадка стр.4	8496-444-34-55 (Дульцев Владимир Валентинович, начальник ПЧ-314)	55.331761	38.889165	0	 undefined	" ""/images/pojarka_small.png"""	 80	 58
Воскресенский гарнизон пожарной охраны, 209 пожарная часть	54263	Воскресенский район пгт. Белоозерский ул. Коммунальная д.5	8496-445-14-30 (Тарасов Виктор Николаевич Начальник ПЧ-209)	55.457669	38.445738	0	 undefined	" ""/images/pojarka_small.png"""	 80	 58
Воскресенский гарнизон пожарной охраны 210 пожарная часть	54265	Воскресенский район с. Барановское ул. Центральная д.131	8496-44531-01 (Береснев Игорь Геннадиевич Начальник ПЧ-210)	55.401601	38.760499	0	 undefined	" ""/images/pojarka_small.png"""	 80	 58
ФГКУ « 17 ОФПС по Московской области», 61 Пожарная часть	54267	г.Можайск ул.Мира д.95	8-926-824-88-27 (Капралов П.Ю., Зам.Начальника ПЧ-61, ст.лейтенант внутренней службы)	55.504751	36.044479	0	 undefined	" ""/images/pojarka_small.png"""	 80	 58
Химкинский ГПО,  1 пожарная часть	54269	г. Химки, ул. Ленинградская, д. 13	8-916-708-19-20 (Лукьянов Денис Алексеевич, майор внутренней службы заместитель начальника 1 пожарной части)	55.888982	37.440739	0	 undefined	" ""/images/pojarka_small.png"""	 80	 58
ПЧ-4 ОФПС-1 г. Мурманск	53252	г. Мурманск, ул. Старостина,103	26-96-03 (Пьянков Виктор Иванович)	68.981327	33.111587	0	 undefined	" ""/images/pojarka_small.png"""	 80	 58
Пожарная часть №1 по охране Ленинского района г. Оренбурга ФГКУ «9-й отряд ФПС по Оренбургской области»	53011	г. Оренбург ул. Луговая 78/а	8 (3532) 33-20-19 (начальник пожарной части №1 подполковник вн. службы Забиров Руслан Ганиевич)	51.783969	55.159199	0	 undefined	" ""/images/pojarka_small.png"""	 80	 58
1 ПЧ ФПС	54148	г. Салехард,<br />ул. Броднева, д.44<br />	8(34922)3-54-77 8(34922)3-53-39 ф. Мукасеев Алексей Николаевич  	66.539699	66.640900	0	 undefined	" ""/images/pojarka_small.png"""	 80	 58
Пожарная часть №42	53013	г. Пенза, Виноградный пр-д, 9	(8412) 95-26-02, 94-45-00 подполковник вн. сл. Козлов Д.П. (8412) 94-64-17	53.221285	44.935294	0	 undefined	" ""/images/pojarka_small.png"""	 80	 58
4-ПЧ, 8-СЧ	53015	4-ПЧ г. Пермь, ул. Каменского,2, 8-СЧ г. Пермь, ул. Балхашская,135	8(3422)22-40-28 (Заморин Виталий Сергеевич), 8 (342) 282-42-68 (Балуев Юрий Алексеевич)	57.999663	56.166597	0	 undefined	" ""/images/pojarka_small.png"""	 80	 58
ПЧ-1	53032	г. Ижевск, ул. Карла Либкнехта, 46	(8-341-2) 68-15-33 (Кулемин Павел Сергеевич)	56.838253	53.231954	0	 undefined	" ""/images/pojarka_small.png"""	 80	 58
ПЧ-2	53034	г. Ижевск, ул. Коммунаров, 323	(8-341-2) 60-66-57 (Ральников Алексей Васильевич)	56.859758	53.216215	0	 undefined	" ""/images/pojarka_small.png"""	 80	 58
ПЧ-3	53036	г. Ижевск, ул. Школьная площадь, 15	(8-341-2) 74-16-56 (Метелева Марьяна Анатольевна)	56.866977	53.184900	0	 undefined	" ""/images/pojarka_small.png"""	 80	 58
ПЧ-4	53038	г. Ижевск, ул. Салютовская, 67	(8-341-2) 46-25-10 (Архипов Андрей Викторович)	56.882181	53.267123	0	 undefined	" ""/images/pojarka_small.png"""	 80	 58
ПЧ-13	53040	г. Сарапул, ул. Азина, 166а	(8-341-47) 4-06-49 (Зидыганов Юрий Владимирович)	56.445802	53.797201	0	 undefined	" ""/images/pojarka_small.png"""	 80	 58
ФКУ «6 ОФПС ГПС по ЯНАО 	54152	г. Губкинский<br />промзона,<br />панель №6<br />	"8 (34936) 5-26-14 8 (34936) 5-39-44 1.	Браун И.В"	63.208999	75.498396	0	 undefined	" ""/images/pojarka_small.png"""	 80	 58
ПЧ-14	53042	г. Воткинск, ул. Королева, 2	(8-341-45) 3-67-11 (Галичанин Алексей Николаевич)	57.046102	54.002098	0	 undefined	" ""/images/pojarka_small.png"""	 80	 58
ПЧ-17	53044	г. Глазов, ул. Пряженникова, 14	(8-341-41) 2-89-50 (Дряхлова Анна Александровна)	58.135199	52.659197	0	 undefined	" ""/images/pojarka_small.png"""	 80	 58
ПЧ-19	53046	г. Ижевск, ул. Ленина, 111	(8-341-2) 68-93-74 (Иовлев Дмитрий Сергеевич)	56.853218	53.278253	0	 undefined	" ""/images/pojarka_small.png"""	 80	 58
ПЧ-22	53048	г. Можга, ул. Можгинская, 120	(8-341-39) 3-18-49 (Осташев Денис Валерьевич)	56.435800	52.210201	0	 undefined	" ""/images/pojarka_small.png"""	 80	 58
ПЧ-23	53051	г. Камбарка, ул. Сосновый бор, 2	(8-341-53) 3-33-50 (Илекбаев Дмитрий Игнатьевич)	56.269321	54.206976	0	 undefined	" ""/images/pojarka_small.png"""	 80	 58
ПЧ-30	53063	с. Завьялово, ул. Гольянская, 1	(8-341-2) 62-11-01 (Князев Александр Васильевич)	56.788623	53.377229	0	 undefined	" ""/images/pojarka_small.png"""	 80	 58
ПЧ-44	53092	п. Яр, ул. Флора Васильева, 46 	(8-341-57) 4-12-56 (Наумов Роман Михайлович)	58.122701	52.672896	0	 undefined	" ""/images/pojarka_small.png"""	 80	 58
12 ПЧ ФПС	54157	г. Губкинский, промзона, <br />6 панель<br />	8 (34936) 5-10-27 (2224) – служебный, ф: 8(34936) 5-25-77 Шихалиев Рамазан Каирбекович	64.427800	76.386201	0	 undefined	" ""/images/pojarka_small.png"""	 80	 58
ПЧ-1 ФГКУ «4 ОФПС по РС (Я)»	54165	г. Нерюнгри, ул. Строителей, 21	8 (41147)68-9-01 (Зам. начальника ПЧ, лейтенант в/с. Лиханов Олег Леонидович)	56.661398	124.741004	0	 undefined	" ""/images/pojarka_small.png"""	 80	 58
Пожарная часть №1 по охране Ленинского района г. Оренбурга ФГКУ «9-й отряд ФПС по Оренбургской области»	53102	г. Оренбург ул. Луговая 78/а 	8 (3532) 33-20-19 (Начальник пожарной части №1 подполковник вн. службы Забиров Руслан Ганиевич)	51.783969	55.159199	0	 undefined	" ""/images/pojarka_small.png"""	 80	 58
Пожарная часть №42-й	53104	г. Пенза, Виноградный пр-д, 9	(8412) 95-26-02, 94-45-00, (8412) 94-64-17 (Подполковник вн. сл. Козлов Д.П.)	53.221285	44.935294	0	 undefined	" ""/images/pojarka_small.png"""	 80	 58
6 ПЧ ФПС	54159	г. Муравленко,<br />ул. Губкина д. 51<br />	8 (34938) 43-2-74 8 (34938) 24-5-57 Бондарь Елена Владимировна	63.793402	74.507500	0	 undefined	" ""/images/pojarka_small.png"""	 80	 58
ФГКУ «11ПЧ ФПС по ЯНАО»	54167	Пуровский район<br />г. Тарко-Сале<br />ул. Таежная д. 23<br />	8(34997)21077служебный 8(34997)63310 факс Винцевич Евгений Владимирович 	64.908100	77.758899	0	 undefined	" ""/images/pojarka_small.png"""	 80	 58
47-ПЧ	53106	г. Чайковский, ул. Советская, 23<br />	8 (3424) 16-29-20 (Ведров Сергей Викторович)	56.759227	54.127251	0	 undefined	" ""/images/pojarka_small.png"""	 80	 58
ПЧ-9  по обслуживанию ОАО &quot;Саратовский НПЗ&quot;	53112	г. Саратов, ул. Брянская, 1	8 (8452) 47-32-21 (Начальник части полковник вн.сл. Качев И.Н), 8 (8452) 74-14-00 (Начальник отдела информации и связи с общественностью капитан вн.сл.  Куличенкова Н.С)	51.461680	45.932747	0	 undefined	" ""/images/pojarka_small.png"""	 80	 58
ПЧ-53 ОФПС-8 	53114	г. Зеленодольск,  ул. Чайковского, 52	89274-02-13-11 (Ст. инспектор отделения профилактики пожаров ОФПС-8 по РТ, майор вн.сл., Юсупова Резеда Рафкатовна)	55.855800	48.524602	0	 undefined	" ""/images/pojarka_small.png"""	 80	 58
ПЧ-52 ОФПС-8	53116	г. Зеленодольск ул.Наумова, 2а 	89274-02-13-11 (Ст. инспектор отделения профилактики пожаров ОФПС-8 по РТ, майор вн.сл.,   Юсупова Резеда Рафкатовна)	55.847765	48.519679	0	 undefined	" ""/images/pojarka_small.png"""	 80	 58
92-ПЧ ГУ «38 ОФПС»	53118	г. Отрадный  ул. Советская, 101	8 (846-61) 2-57-88; 8-927-758-38-93 (Заместитель начальника 62-ПЧ ГУ «38 ОФПС» младший лейтенант вн. службы Ершов Юрий Игориевич)	53.379300	51.364797	0	 undefined	" ""/images/pojarka_small.png"""	 80	 58
1-ПЧ ГУ «3 ОФПС»	53120	г. Самара  ул. Чернореченская, 101	8 (846) 338-26-56; 8 (846) 338-37-17; 8-927-711-74-86 (Начальник 1-ПЧ ГУ «3 ОФПС» подполковник вн. Службы Томилин Павел Петрович)	53.195738	50.136422	0	 undefined	" ""/images/pojarka_small.png"""	 80	 58
Пожарная часть №5 ФГКУ «5 отряд ФПС по Чувашской Республике – Чувашии»	53124	г.Чебоксары, ул. Мичмана Павлова, д.21	(Начальник пожарной  части №5 ФКУ «5 отряд ФПС по Чувашской Республике – Чувашии» майор внутренней службы Владимиров Алексей Мефодьевич)	56.140003	47.177201	0	 undefined	" ""/images/pojarka_small.png"""	 80	 58
ФКУ «7 ОФПС ГПС по ЯНАО»	54163	г. Муравленко,<br />ул. Губкина <br />д. 51 «а»<br />	8 (34938) 43-2-74 8 (34938)  24-5-57 Сидорова Анна Владимировна	63.793402	74.507500	0	 undefined	" ""/images/pojarka_small.png"""	 80	 58
ПЧ-1 ФГКУ «5 ОФПС по РС (Я)»	54169	г. Якутск, ул. Дзержинского, 35	8(4112)22-34-70 (Начальник части, майор в/с, Козлов Денис Олегович)	62.050901	129.738996	0	 undefined	" ""/images/pojarka_small.png"""	 80	 58
5 ПЧ	53141	г. Омск, ул. Железнодорожная 1-я, 5	8-(3812) 54-79-68 (Начальник части - Насекин С.В.)	54.942175	73.432513	0	 undefined	" ""/images/pojarka_small.png"""	 80	 58
Пожарная часть по охране объектов ТПУ	53143	г. Томск, Вершинина пр-д, 7<br />	8 (3822) 41-67-57 (Доманов Александр Владимирович), 8 (3822) 43-32-96 (Слесарева Диана Павловна)	56.472715	84.962713	0	 undefined	" ""/images/pojarka_small.png"""	 80	 58
СЧ г. Красноярска	53145	г. Красноярск, мкр. Солнечный, ул. 40 лет Победы, 15<br />	(391) 225-92-55 (Начальник части - Романов О.В.)	56.110967	92.928893	0	 undefined	" ""/images/pojarka_small.png"""	 80	 58
Специализированная часть по тушению  крупных пожаров №8	53147	г. Чита, ул. Кирова, 2<br />	Малышев Вадим Владимирович	52.020774	113.539928	0	 undefined	" ""/images/pojarka_small.png"""	 80	 58
ПЧ №1	53149	г.Горно-Алтайск, ул. Павла Кучияк, 9	8 (388-22)-2-41-80 (Начальник ПЧ №1 - м-р вн.сл. Трапеев Евгений Олегович)	51.961101	85.966904	0	 undefined	" ""/images/pojarka_small.png"""	 80	 58
ПЧ-2 ФГКУ «5 ОФПС по РС (Я)»	54171	г. Якутск, ул. Вилюйский тракт, 5-й км	8(4112)36-94-49, 36-92-63 (Начальник части, подполковник в/с, Мироненко Владимир Иванович Зам. начальника части, майор в/с, Михайлов Павел Степанович)	62.028191	129.701779	0	 undefined	" ""/images/pojarka_small.png"""	 80	 58
ПЧ-3 ФГКУ «5 ОФПС по РС (Я)»	54173	г. Якутск, ул. Маганский тракт, 2-й км	8(4112)20-42-33 (Начальник части, майор в/с, Подваркин Юрий Александрович, Зам. начальника части, майор в/с, Попов Александр Семенович)	62.028191	129.701779	0	 undefined	" ""/images/pojarka_small.png"""	 80	 58
ФГБОУ ДПО &quot;Учебный центр ФПС  по Новосибирской области&quot;	53161	ул. Приморская, 43	232-74-35 (Шестопалов Сергей Викторович)	54.868000	82.989699	0	 undefined	" ""/images/pojarka_small.png"""	 80	 58
Пожарная часть по охране объектов ТГУ	53165	г. Томск, Московский тракт, 109/4<br />	8 (3822) 41-50-31 (Андреев Дмитрий Фёдорович), 8 (3822) 43-32-96 (Слесарева Диана Павловна)	56.459890	84.938180	0	 undefined	" ""/images/pojarka_small.png"""	 80	 58
ПЧ-1 г. Краснояска	53167	г. Краснояск, ул. Ленина, 59	(391) 227-04-09 (Зам. начальника части Гаманюк В.Г.)	56.013351	92.873529	0	 undefined	" ""/images/pojarka_small.png"""	 80	 58
2 ПЧ г. Омск	53169	г. Омск, ул. 24-я Северная, 172в	8-(3812) 31-83-33 (Начальник части Чириков А. А.)	55.023150	73.384148	0	 undefined	" ""/images/pojarka_small.png"""	 80	 58
ПЧ-4 по охране г.Петрозаводска ФГКУ «1 отряд ФПС по Республике Карелия»	53173	г.Петрозаводск, ул. Калевалы, д.10	(8142)740872 (Титов Роман Валерьевич)	61.806175	34.311988	0	 undefined	" ""/images/pojarka_small.png"""	 80	 58
ФГКУ СПЧ ФПС по Республике Карелия	53175	ул. Попова, 5а	(8142) 740179 (Ляккоев Александр Владимирович)	61.765330	34.300894	0	 undefined	" ""/images/pojarka_small.png"""	 80	 58
ФГКУ «СПЧ ФПС по РС (Я)»	54175	г. Якутск, ул. Дежнёва, 75	8(4112)36-02-60 74-37-63 (Старший мастер ГДЗС, прапорщик в/с, Костырин В.А)	62.015099	129.706998	0	 undefined	" ""/images/pojarka_small.png"""	 80	 58
22-ПЧ ФГКУ «5 отряд ФПС по Приморскому краю»	54189	г. Арсеньев, ул. Луговая, 29<br />	8(42361)3-04-91 (Начальник части, полковник в/с, Жлобицкий Алексей Юрьевич, Зам.началька части, капитан в/с, Снитко Алексей Викторович)	44.161101	133.250996	0	 undefined	" ""/images/pojarka_small.png"""	 80	 58
ПЧ-6 по охране г. Костомукша ФГКУ «2 отряд ФПС по Республике Карелия»	53177	г.Костомукша, ул.Пожарного Семёнова, 1<br />	(81459) 53700 (Герасимов Михаил Андреевич)	64.601701	30.635498	0	 undefined	" ""/images/pojarka_small.png"""	 80	 58
ПЧ-38 по охране г. Сортавала ФГКУ «6 отряд ФПС по Республике Карелия»	53185	г. Сортавала ул. Лесная д. 2	(81430) 47376 (Шевчук Алесей Владимирович)	61.714200	30.702000	0	 undefined	" ""/images/pojarka_small.png"""	 80	 58
ПЧ-11 ГУ «1 ОФПС по РК»	53187	г.Сыктывкар, ул. Советская, д. 9<br />	(8212) 22-83-54 (Ильчуков Владимир Владимирович)	61.672857	50.837836	0	 undefined	" ""/images/pojarka_small.png"""	 80	 58
2-ПЧ ФГКУ «21-ОФПС по Хабаровскому краю»	54177	г. Хабаровск, ул. Волочаевская, 5<br />	8(4212) 48-71-35 (Воронцов Константин Михайлович )	48.458742	135.098166	0	 undefined	" ""/images/pojarka_small.png"""	 80	 58
ПЧ №1 ФГКУ «ОФПС по Камчатскому краю»	54205	г. Петропавловск-Камчатский, ул. Ленинградская, 25<br />	8-924-891-96-75 (Начальник ПЧ, Петров А.Ю)	53.033000	158.643997	0	 undefined	" ""/images/pojarka_small.png"""	 80	 58
ПЧ №2 ФГКУ «ОФПС по Камчатскому краю»	54207	г. Петропавловск-Камчатский, пер. Садовый, 10/1<br />	8-914-786-13-66 (ВрИО начальника ПЧ, Омельченко О.И)	52.979801	158.681996	0	 undefined	" ""/images/pojarka_small.png"""	 80	 58
ПЧ-13 ГУ «1 ОФПС»	53189	г. Сыктывкар, ул. Емвальская д.3<br />	(8212) 22-83-54 (Ильчуков Владимир Владимирович)	61.787599	50.740602	0	 undefined	" ""/images/pojarka_small.png"""	 80	 58
СПЧ-12 ГУ «1 ОФПС»	53191	г.Сыктывкар, ул. Пушкина д.135<br />	(8212) 22-83-54 Ильчуков Владимир Владимирович	61.647608	50.822322	0	 undefined	" ""/images/pojarka_small.png"""	 80	 58
ПЧ-14 ГУ «1 ОФПС»	53193	с. Выльгорт, ул. Домны Каликовой д.52	(82130) 7-13-07 (Голуб Андрей Михайлович)	61.628406	50.771109	0	 undefined	" ""/images/pojarka_small.png"""	 80	 58
ПЧ-21 ГУ «2 ОФПС»	53195	г. Ухта, ул. Первомайская д.20<br />	(82167) 9-19-69 (Фетюков Алексей Сергеевич)	63.557199	53.693904	0	 undefined	" ""/images/pojarka_small.png"""	 80	 58
ПЧ-22 ГУ «2 ОФПС»	53197	г. Ухта, ул. нтернациональная д.40 «б»<br />	(82167) 4-77-26 (Мартынюк Роман Григорьевич)	63.574001	53.666999	0	 undefined	" ""/images/pojarka_small.png"""	 80	 58
ПЧ -24 ГУ «2 ОФПС»	53201	г.Вуктыл, ул. Пионерская д.8	(82146) 2-11-05 (Ефимов  Ефим Валерьевич)	63.847999	57.311204	0	 undefined	" ""/images/pojarka_small.png"""	 80	 58
ПЧ-31 ГУ «3 ОФПС»	53205	г. Воркута, ул. Пушкина, д. 26<br />	(82151) 3-91-75 (Попов  Роман Анатольевич)	67.490299	64.032399	0	 undefined	" ""/images/pojarka_small.png"""	 80	 58
98-ПЧ ФГКУ «8-ОФПС по Хабаровскому краю»	54179	г. Комсомольск-на -Амуре, ул. Севостопольская,27<br />	8(4217) 54-28-31 (Халиков Эдуард Рафаилович )	50.544400	137.015000	0	 undefined	" ""/images/pojarka_small.png"""	 80	 58
ПЧ №3 ФГКУ «ОФПС по Камчатскому краю»	54209	г. Петропавловск-Камчатский, ул. Вулканная, 25<br />	8 914 628 99 99 (Начальник ПЧ Головенко С.И )	53.076598	158.611002	0	 undefined	" ""/images/pojarka_small.png"""	 80	 58
ПЧ-42 ГУ ОФПС-4	53213	г.Усинск, ул.Комсомольская д.24	(82144) 4-13-39 (Силков Сергей Вячеславович)	65.990899	57.539196	0	 undefined	" ""/images/pojarka_small.png"""	 80	 58
7 ПЧ ФГКУ «1 ОФПС по Архангельской области»	53238	г.Северодвинск, ул.Лесная д.48-а	8-8184-58-55-60 (Щеголихин Иван  Николаевич)	64.560299	39.829701	0	 undefined	" ""/images/pojarka_small.png"""	 80	 58
ПЧ-1 ФГКУ «1 ОФПС по Калининградской области»	53244	г.Калининград ул.1812 года, 59	(4012)  52-94-72 (Заместитель начальника ФГКУ «1 ОФПС по Калининградской области» капитан внутренней службы Маковский Д.В.)	54.711249	20.532927	0	 undefined	" ""/images/pojarka_small.png"""	 80	 58
5-я пожарная часть ФГКУ «2 отряд ФПС по Псковской области»	53262	г. Великие Луки, ул. Дружбы, 6<br />	(811-53)-9-19-74 (Куранов Денис Николаевич)	56.353699	30.573604	0	 undefined	" ""/images/pojarka_small.png"""	 80	 58
ФГКУ «1 ПЧ ФПС по НАО»	53268	г. Нарьян-Мар, ул. Пырерка, д. 14	8(818-53) 4-22-61 (Носов Р.А.)	67.645277	53.048455	0	 undefined	" ""/images/pojarka_small.png"""	 80	 58
Специализированная часть экстренного реагирования г. Краснодара	53276	Краснодарский край, г. Краснодар, ул. Новороссийская, 104	8 (861) 227-18-54 (Метлин Анатолий Яковлевич)	45.026826	39.013168	0	 undefined	" ""/images/pojarka_small.png"""	 80	 58
ПЧ-14 «ФГКУ 2 отряд ФПС по Астраханской области»	53280	Астраханская область, г. Ахтубинск, ул. Шубина, 84	8-(85141)-5-24-57 (Фирсов Андрей Игоревич)	48.304000	46.150597	0	 undefined	" ""/images/pojarka_small.png"""	 80	 58
1 ПЧ ГУ &quot;1 Отряд ФПС по Курской области&quot;	53294	г. Курск, ул. 50 лет Октября, 116-б	57-38-11 (капитан вн. службы Колесниченко Юрий Николаевич)	51.755373	36.135559	0	 undefined	" ""/images/pojarka_small.png"""	 80	 58
ФГБОУ ДПО Хабаровский учебный центр ФПС	54181	г. Хабаровск, ул. Орджоникидзе, 4<br />	8(4212)57-35-55 (Капитан в/с, Горбунова О.А)	48.493307	135.042820	0	 undefined	" ""/images/pojarka_small.png"""	 80	 58
ФГКУ «4 ПЧ ФПС по Амурской области»	54217	г. Белогорск, ул. Скорикова, 7<br />	8-914-604-40-20 (Заместитель по кадрам, майор в/с, Чистяков А.А)	50.918300	128.479001	0	 undefined	" ""/images/pojarka_small.png"""	 80	 58
1 ПЧ ГУ &quot;1 Отряд ФПС по Курской области&quot;	53323	г. Курск, ул. 50 лет Октября, 116-б	57-38-11 (капитан вн. службы Колесниченко Юрий Николаевич)	51.755373	36.135559	0	 undefined	" ""/images/pojarka_small.png"""	 80	 58
2 ПЧ по охране Центрального округа г. Курска ГУ &quot; 1 Отряд ФПС по Курской области&quot;	53327	г. Курск, ул. Радищева, 79	58-55-11 (старший лейтенант вн. службы Каракулин Сергей Николаевич)	51.744851	36.190616	0	 undefined	" ""/images/pojarka_small.png"""	 80	 58
2 ПЧ по охране Центрального округа г. Курска ГУ &quot; 1 Отряд ФПС по Курской области&quot;	53331	г. Курск, ул. Радищева, 79	58-55-11 (старший лейтенант вн. службы Каракулин Сергей Николаевич)	51.744851	36.190616	0	 undefined	" ""/images/pojarka_small.png"""	 80	 58
3 ПЧ по охране Центрального округа г. Курска ГУ &quot;Отряда ФПС по Курской области&quot;	53333	г. Курск, ул. Гремяченская, 11<br />	50-06-99 (Минаков Андрей Викторович)	51.755869	36.128399	0	 undefined	" ""/images/pojarka_small.png"""	 80	 58
3 ПЧ по охране Центрального округа г. Курска ГУ &quot;Отряда ФПС по Курской области&quot;	53335	г. Курск, ул. Гремяченская, 11<br />	50-06-99 (Минаков Андрей Викторович)	51.755869	36.128399	0	 undefined	" ""/images/pojarka_small.png"""	 80	 58
ФГКУ « СПСЧ ФПС по Камчатскому краю»	54211	г. Петропавловск-Камчатский, ул. Степная, 50<br />	8-914-780-02-20 (Начальник ПЧ Пахомов А.В)	53.012098	158.724998	0	 undefined	" ""/images/pojarka_small.png"""	 80	 58
ФГКУ «2 ПЧ ФПС по Амурской области»	54219	г. Свободный, ул. Ленина, 87<br />	8-914-381-00-67 (Начальник отряда п/п-к в/с  Ларин О.А)	51.383698	128.132000	0	 undefined	" ""/images/pojarka_small.png"""	 80	 58
ФГКУ «3 ПЧ ФПС по Амурской области»	54221	г. Тында, ул. Советская, 51<br />	8-914-597-07-67 (ВрИО начальника части, майор в/с, Набок А.А)	55.140019	124.739611	0	 undefined	" ""/images/pojarka_small.png"""	 80	 58
4 ПЧ по охране Центрального округа г. Курска ГУ &quot;1 Отряд ФПС по Курской области&quot;	53337	г. Курск, ул. Можаевская, 9<br />	55-95-49 (майор вн. службы Колтыгин Дмитрий Викторович)	51.735632	36.195764	0	 undefined	" ""/images/pojarka_small.png"""	 80	 58
4 ПЧ по охране Центрального округа г. Курска ГУ &quot;1 Отряд ФПС по Курской области&quot;	53339	г. Курск, ул. Можаевская, 9<br />	55-95-49 (майор вн. службы Колтыгин Дмитрий Викторович)	51.735632	36.195764	0	 undefined	" ""/images/pojarka_small.png"""	 80	 58
5 ПЧ по охране Железнодорожного округа г. Курска ГУ &quot;1 Отряд ФПС МЧС России по Курской области	53341	г. Курск, ул. 2-я рабочая 18-б	6-03-35 (майор вн. службы Мамошин Владимир Александрович)	51.740663	36.246312	0	 undefined	" ""/images/pojarka_small.png"""	 80	 58
ФГКУ «9 ПЧ ФПС по Амурской области»	54225	г. Шимановск, микрорайон №1, д. 13<br />	8-961-953-44-24 (Заместитель начальника части,  капитан в/с Семенов Е.Ю)	51.998971	127.676105	0	 undefined	" ""/images/pojarka_small.png"""	 80	 58
ФГКУ «10 ПЧ ФПС по Амурской области»	54227	г. Зея, ул. Магистральная, д.13<br />	8-909-810-79-70 (Заместитель по кадрам капитан в/с , Трифонов О.А)	53.736398	127.226004	0	 undefined	" ""/images/pojarka_small.png"""	 80	 58
1 ПЧ ФГКУ «1 ОФПС по Сахалинской области»	54229	г. Южно-Сахалинск, ул. Амурская 60	8(4242)25-50-72 (Начальник части,  капитан в/с,  Левченко  Сергей Владимирович)	46.959708	142.730396	0	 undefined	" ""/images/pojarka_small.png"""	 80	 58
3 ПЧ ФГКУ «1 ОФПС по Сахалинской области»	54231	г. Холмск, ул. Советская, 81	8-914-749-58-90 (Начальник части,  лейтенант в/с, Стойка  Владислав Валерьевич)	47.057440	142.055968	0	 undefined	" ""/images/pojarka_small.png"""	 80	 58
5 ПЧ по охране Железнодорожного округа г. Курска ГУ &quot;1 Отряд ФПС МЧС России по Курской области	53343	г. Курск, ул. 2-я рабочая 18-б	6-03-35 (майор вн. службы Мамошин Владимир Александрович)	51.740663	36.246312	0	 undefined	" ""/images/pojarka_small.png"""	 80	 58
6 ПЧ по охране Сеймского округа г. Курска ГУ &quot; 1 Отряд ФПС по Курской области&quot;	53348	г. Курск, ул. Энергетиков, 4	37-24-89 (Субботин Виктор Иванович)	51.665401	36.136197	0	 undefined	" ""/images/pojarka_small.png"""	 80	 58
6 ПЧ по охране Сеймского округа г. Курска ГУ &quot; 1 Отряд ФПС по Курской области&quot;	53352	г. Курск, ул. Энергетиков, 4	37-24-89 (Субботин Виктор Иванович)	51.665401	36.136197	0	 undefined	" ""/images/pojarka_small.png"""	 80	 58
12 ПЧ по охране Сеймского округа г. Курска ГУ &quot; 1 Отряд ФПС по Курской области&quot;	53354	г. Курск, пр-д Лесной, 26	4-03-97 (майор вн. службы Сидоров Владимир Викторович)	51.664038	36.085792	0	 undefined	" ""/images/pojarka_small.png"""	 80	 58
12 ПЧ по охране Сеймского округа г. Курска ГУ &quot; 1 Отряд ФПС по Курской области&quot;	53357	г. Курск, пр-д Лесной, 26	4-03-97 (майор вн. службы Сидоров Владимир Викторович)	51.664038	36.085792	0	 undefined	" ""/images/pojarka_small.png"""	 80	 58
7 ПЧ  по охране г. Курчатова ГУ &quot;1 Отряд ФПС по Курской области&quot;	53359	г. Курчатов ул. Молодежная д.41	4-24-64, 4-24-85 (майор вн. службы Коростелев Геннадий Петрович)	51.659300	35.644297	0	 undefined	" ""/images/pojarka_small.png"""	 80	 58
7 ПЧ  по охране г. Курчатова ГУ &quot;1 Отряд ФПС по Курской области&quot;	53365	г. Курчатов ул. Молодежная д.41	4-24-64, 4-24-85 (майор вн. службы Коростелев Геннадий Петрович)	51.659300	35.644297	0	 undefined	" ""/images/pojarka_small.png"""	 80	 58
4 ПЧ ФГКУ «1 ОФПС по Сахалинской области»	54233	г. Корсаков, ул. Краснофлотская 12	8-924-185-32-70 (Начальник части.  майор в/с,  Яковлев Дмитрий Юрьевич)	46.630301	142.777001	0	 undefined	" ""/images/pojarka_small.png"""	 80	 58
8 ПЧ ФГКУ «1 ОФПС по Сахалинской области»	54235	пос. Ноглики, пер. Свободный, 1<br />	8-924-187-79-22 (Начальник части,  майор в/с,  Таратов Михаил Алексеевич)	51.795757	143.142211	0	 undefined	" ""/images/pojarka_small.png"""	 80	 58
22-ПЧ ФГКУ «5 отряд ФПС по Приморскому краю»	54413	г. Арсеньев, ул. Луговая, 29<br />	8(42361)3-04-91 (Начальник части, полковник в/с, Жлобицкий Алексей Юрьевич, Зам.началька части, капитан в/с, Снитко Алексей Викторович)	44.161101	133.250996	0	 undefined	" ""/images/pojarka_small.png"""	 80	 58
11 ПЧ по охране г. Железногорска ГУ &quot;1 Отряд  ФПС по Курской области»	53379	г.Железногорск, ул. Мира, д.65	4-36-11 (подполковник вн. службы Чавкин Иван Иванович)	52.355399	35.362100	0	 undefined	" ""/images/pojarka_small.png"""	 80	 58
11 ПЧ по охране г. Железногорска ГУ &quot;1 Отряд  ФПС по Курской области»	53381	г.Железногорск, ул. Мира, д.65	4-36-11 (подполковник вн. службы Чавкин Иван Иванович)	52.355399	35.362100	0	 undefined	" ""/images/pojarka_small.png"""	 80	 58
13 ПЧ по охране г. Щигры ГУ &quot; 1 Отряд ФПС  по Курской области&quot;	53385	г. Щигры, пер. Степной, 1	4-22-01 (подполковник вн. службы Юдалевич Игорь Аронович)	51.876529	36.950007	0	 undefined	" ""/images/pojarka_small.png"""	 80	 58
13 ПЧ по охране г. Щигры ГУ &quot; 1 Отряд ФПС  по Курской области&quot;	53390	г. Щигры, пер. Степной, 1	4-22-01 (подполковник вн. службы Юдалевич Игорь Аронович)	51.876529	36.950007	0	 undefined	" ""/images/pojarka_small.png"""	 80	 58
20 ПЧ  г. Курск ППС Курской области	53398	г.Курск, ул.Ольшанского, 6<br />	354396 (Мясоедов Максим Александрович)	51.704655	36.150668	0	 undefined	" ""/images/pojarka_small.png"""	 80	 58
20 ПЧ  г. Курск ППС Курской области	53405	г.Курск, ул.Ольшанского, 6<br />	354396 (Мясоедов Максим Александрович)	51.704655	36.150668	0	 undefined	" ""/images/pojarka_small.png"""	 80	 58
36 ПЧ Октябрьского  района ППС Курской области	53481	Октябрьский район, п. Прямицино, ул. Октябрьская, 106<br />	21101 (Наумов Николай Петрович)	51.657702	35.934300	0	 undefined	" ""/images/pojarka_small.png"""	 80	 58
9 ПЧ ФГКУ «1 ОФПС по Сахалинской области»	54237	г. Оха, ул. Карла Маркса 41/1<br />	8-924-183-14-15 (Начальник части,  лейтенант в/с, Гуськов Павел Михайлович)	53.595799	142.961002	0	 undefined	" ""/images/pojarka_small.png"""	 80	 58
4-ПЧ 1-ОФПС	53009	г.Н.Новгород, ул.Ванеева, 237	8 (831) 467-30-00 (Евсеев Руслан Викторович, зам.начальника 1-ОФПС)	56.282185	44.033744	0	 undefined	" ""/images/pojarka_small.png"""	 80	 58
СЧ ФКУ «ЦУКС ГУ МЧС России по Магаданской области» 	54239	г. Магадан, ул. Ясная, 16<br />	8(4132)62-57-90, 62-88-77 (Начальник части, майор в/с Прокопьев В.А)	59.556320	150.813078	0	 undefined	" ""/images/pojarka_small.png"""	 80	 58
36 ПЧ Октябрьского  района ППС Курской области	53483	Октябрьский район, п. Прямицино, ул. Октябрьская, 106<br />	21101 (Наумов Николай Петрович)	51.657702	35.934300	0	 undefined	" ""/images/pojarka_small.png"""	 80	 58
Пост Вагонмаш ППС Курской области	53589	г.Железногорск, Киевский проезд 2	8-915-517-84-90 (Полянский Эдуард Николаевич)	52.332787	35.367436	0	 undefined	" ""/images/pojarka_small.png"""	 80	 58
ПЧ-20 ФГКУ «1 отряд по Магаданской области» 	54241	г. Магадан, ул. Попова, 3а<br />	8(4132)60-80-79 60-80-91 (Начальник части, майор в/с Дзюба А.Н)	59.583498	150.818997	0	 undefined	" ""/images/pojarka_small.png"""	 80	 58
11-ПЧ ГУ «31 ОФПС»	53028	Самарская область,  г. Тольятти  ул. 40-лет Победы, 94 	8 (848-2) 35-04-10; 8-927-792-44-82 (Начальник 11-ПЧ ГУ «31 ОФПС»  майор вн. службы Алькин Александр Иванович)	53.524337	49.322621	0	 undefined	" ""/images/pojarka_small.png"""	 80	 58
Пост Вагонмаш ППС Курской области	53591	г.Железногорск, Киевский проезд 2	8-915-517-84-90 (Полянский Эдуард Николаевич)	52.332787	35.367436	0	 undefined	" ""/images/pojarka_small.png"""	 80	 58
3 пожарная часть г. Костромы Федерального государственного казенного учреждения «1 отряд федеральной противопожарной службы по Костромской области»	53593	г.Кострома, ул. Самоковская д.12-а	8-4942-22-96-66 (Заместитель начальника отряда подполковник вн. службы Шутов Сергей Александрович)	57.739633	40.901544	0	 undefined	" ""/images/pojarka_small.png"""	 80	 58
Федеральное государственное казенное учреждение  «Специализированная пожарная часть по тушению крупных пожаров федеральной противопожарной службы по Костромской области»	53595	г. Кострома, ул.Петра Щербины, д.23-а 	8-4942-629-104 (Заместитель начальника части по кадровой и воспитательной работе майор вн. службы Натненков Дмитрий Владимирович)	57.764606	41.014084	0	 undefined	" ""/images/pojarka_small.png"""	 80	 58
ПЧ №31 ГО Саранск	53110	ул. Пролетарская, 117 «А»	(8-8342) 24-86-08 (Чугаев Алексей Александрович)	54.197968	45.179411	0	 undefined	" ""/images/pojarka_small.png"""	 80	 58
2-ПЧ 1-ОФПС	53100	г.Н.Новгород, ул.Фруктовая, 6 	8(831) 467-30-00 (Евсеев Руслан Викторович, зам.начальника 1-ОФПС (г.Н.Новгород) 	56.316619	44.055798	0	 undefined	" ""/images/pojarka_small.png"""	 80	 58
3 пожарная часть ФКГУ «19 отряд ФПС МЧС России по Тульской области»	53599	г. Тула, ул. Марата, 29	8(4872)426024 (подполковник внутренней службы Ибряев Николай Николаевич)	54.201803	37.646103	0	 undefined	" ""/images/pojarka_small.png"""	 80	 58
ПЧ-24	53605	г. Воронеж, Ленинский проспект, д. 124	229-39-69 (начальник ПЧ-24 подполковник внутренней службы Жердев Юрий Васильевич)	51.674198	39.255596	0	 undefined	" ""/images/pojarka_small.png"""	 80	 58
Учебная пожарная часть УП ФГКУ &quot;3 отряд ФПС&quot;	53007	г. Киров, ул. Лепсе, 30	(8832) 53-18-20 (Начальник части - П.В. Островский)	58.614649	49.630293	0	 undefined	" ""/images/pojarka_small.png"""	 80	 58
ПЧ-24	53607	г. Воронеж, Ленинский проспект, д. 124	229-39-69 (начальник ПЧ-24 подполковник внутренней службы Жердев Юрий Васильевич)	51.674198	39.255596	0	 undefined	" ""/images/pojarka_small.png"""	 80	 58
10 ПЧ ФГКУ «3 ОФПС по Липецкой области»	53609	г.Елец,  ул. Коммунаров, 10 	8-(47467)-2-34-26 (Коврижных Александр Сергеевич)	52.626098	38.494598	0	 undefined	" ""/images/pojarka_small.png"""	 80	 58
40 ПЧ ФГКУ «3 ОФПС по Липецкой области»	53611	г. Липецк, ул. Московская, 173	8-(4742)-49-32-02 (Клишин Александр Викторович)	52.581699	39.489500	0	 undefined	" ""/images/pojarka_small.png"""	 80	 58
Пожарная часть № 1 ФГКУ «1 ОФПС по Ярославской области»	53613	150028, г. Ярославль, Красная пл., 8	8 (4852) 79-08-65 (Кучер Григорий Владимирович)	57.631585	39.885657	0	 undefined	" ""/images/pojarka_small.png"""	 80	 58
Пожарная часть № 1 ФГКУ «1 ОФПС по Ярославской области»	53615	150028, г. Ярославль, Красная пл., 8	8 (4852) 79-08-65 (Кучер Григорий Владимирович)	57.631585	39.885657	0	 undefined	" ""/images/pojarka_small.png"""	 80	 58
Пожарная часть № 12 ФГКУ «1 ОФПС по Ярославской области»	53617	150003, г. Ярославль, Полушкина роща, 3	8 (4852) 79-19-41 (Ермилов Дмитрий Геннадьевич)	57.645677	39.878084	0	 undefined	" ""/images/pojarka_small.png"""	 80	 58
Пожарная часть № 12 ФГКУ «1 ОФПС по Ярославской области»	53619	150003, г. Ярославль, Полушкина роща, 3	8 (4852) 79-19-41 (Ермилов Дмитрий Геннадьевич)	57.645677	39.878084	0	 undefined	" ""/images/pojarka_small.png"""	 80	 58
Пожарная часть № 23 ФГКУ «1 ОФПС по Ярославской области»	53621	150036, г. Ярославль, ул. Спартаковская, 1	8 (4852) 38-42-55 (Дунаев Дмитрий Анатольевич)	57.729567	39.812624	0	 undefined	" ""/images/pojarka_small.png"""	 80	 58
1 ПЧ-1 ФГКУ «22 ОФПС по РБ»	53019	г. Уфа, ул. Октябрьской революции, 14	8 (347) 272 86 20 (Начальник части подполковник в/с Гончарук Евгений Вячеславович)	54.722810	55.952178	0	 undefined	" ""/images/pojarka_small.png"""	 80	 58
1-я пожарная часть ФГКУ «1 отряд ФПС по Псковской области»	53260	г. Псков, ул. Коммунальная, 62<br />	(8112)-79-44-72 (Калинин Андрей Лаврентьевич)	57.814058	28.275812	0	 undefined	" ""/images/pojarka_small.png"""	 80	 58
Пожарная часть № 23 ФГКУ «1 ОФПС по Ярославской области»	53623	150036, г. Ярославль, ул. Спартаковская, 1	8 (4852) 38-42-55 (Дунаев Дмитрий Анатольевич)	57.729567	39.812624	0	 undefined	" ""/images/pojarka_small.png"""	 80	 58
Пожарная часть №22 ФГКУ «4ОФПС по Ярославской области»	53629	152100, г. Ростов, ул. Чистова 46	8 (48536) 6-26-53 (Коновалов Андрей Викторович)	57.199399	39.434604	0	 undefined	" ""/images/pojarka_small.png"""	 80	 58
Пожарная часть №22 ФГКУ «4ОФПС по Ярославской области»	53631	152100, г. Ростов, ул. Чистова 46	8 (48536) 6-26-53 (Коновалов Андрей Викторович)	57.199399	39.434604	0	 undefined	" ""/images/pojarka_small.png"""	 80	 58
Пожарная часть №25 ФГКУ «4ОФПС по Ярославской области»	53633	152620, г. Углич, Рыбинское шоссе, 36-а	8(48532) 5-16-40 (Воробьёв Николай Алексеевич)	57.552499	38.343303	0	 undefined	" ""/images/pojarka_small.png"""	 80	 58
Пожарная часть №25 ФГКУ «4ОФПС по Ярославской области»	53635	152620, г. Углич, Рыбинское шоссе, 36-а	8(48532) 5-16-40 (Воробьёв Николай Алексеевич)	57.552499	38.343303	0	 undefined	" ""/images/pojarka_small.png"""	 80	 58
Пожарная часть №28 ФГКУ «4ОФПС по Ярославской области»	53637	152140, г. Переславль, ул. Менделеева, 47	8 (48535) 3-16-12 (Корчагин Павел Викторович)	56.754199	38.886101	0	 undefined	" ""/images/pojarka_small.png"""	 80	 58
13 специализированная часть (по тушению крупных пожаров) при ФГКУ «1 отряд ФПС по РМЭ	53021	г.Йошкар-Ола, ул. Волкова 107	(8362) 45-30-57 (подполковник внутренней службы ДОЛГАНОВ Юрий Павлович, начальник СЧ-13)	56.636372	47.896716	0	 undefined	" ""/images/pojarka_small.png"""	 80	 58
5-ПЧ 40 ОФПС по Ростовской области	53286	г. Ростов - на Дону, пер. Доломановский, 132<br />	8 (863)232-53-85 (Нестеренко Илья Павлович)	47.238404	39.690911	0	 undefined	" ""/images/pojarka_small.png"""	 80	 58
Пожарная часть №28 ФГКУ «4ОФПС по Ярославской области»	53639	152140, г. Переславль, ул. Менделеева, 47	8 (48535) 3-16-12 (Корчагин Павел Викторович)	56.754199	38.886101	0	 undefined	" ""/images/pojarka_small.png"""	 80	 58
Специализированная часть №1 по тушению крупных пожаров федерального государственного казённого учреждения «2 отряд федеральной противопожарной службы по Тамбовской области»	53641	г. Тамбов, ул.Железнодорожная, дом 14	8-(4752)-72-87-31 (Начальник специализированной части майор внутренней службы Романов Павел Петрович)	52.699756	41.451070	0	 undefined	" ""/images/pojarka_small.png"""	 80	 58
Специализированная часть №1 по тушению крупных пожаров федерального государственного казённого учреждения «2 отряд федеральной противопожарной службы по Тамбовской области»	53643	г. Тамбов, ул.Железнодорожная, дом 14	8-(4752)-72-87-31 (Начальник специализированной части майор внутренней службы Романов Павел Петрович)	52.699756	41.451070	0	 undefined	" ""/images/pojarka_small.png"""	 80	 58
ПЧ №25 ГУ &quot;1 отряд ФПС по Республике Мордовия&quot;, п. Торбеево	53023	улица 3-й микрорайон, д.9<br />	(8-834-56) 2-01-30 (начальник: Анохин Александр Васильевич)	54.407303	86.279904	0	 undefined	" ""/images/pojarka_small.png"""	 80	 58
21-ПЧ 6 ОФПС по Ростовской области	53288	г. Таганрог, ул. Чехова, 94<br />	8 (8634)61-30-36 (Рыбалко Александр Евгеньевич)	47.210069	38.924316	0	 undefined	" ""/images/pojarka_small.png"""	 80	 58
Пожарная часть федерального государственного казённого учреждения «2 отряд федеральной противопожарной службы по Тамбовской области»	53645	г. Тамбов, ул. Астраханская, дом 164	8-(4752)-75-77-27 (Начальник пожарной части подполковник внутренней службы Маматказин Мильхад Исмаилович)	52.689735	41.465757	0	 undefined	" ""/images/pojarka_small.png"""	 80	 58
ПЧ-56 ОФПС-15 по РТ	53025	г. Набережные  Челны, Пр. Московский, 93<br />	(8552) 58-56-43 (Начальник части Загидуллин Марсель Миннахметович, майор вн. сл.)	55.736230	52.417227	0	 undefined	" ""/images/pojarka_small.png"""	 80	 58
Пожарная часть федерального государственного казённого учреждения «2 отряд федеральной противопожарной службы по Тамбовской области»	53647	г. Тамбов, ул. Астраханская, дом 164	8-(4752)-75-77-27 (Начальник пожарной части подполковник внутренней службы Маматказин Мильхад Исмаилович)	52.689735	41.465757	0	 undefined	" ""/images/pojarka_small.png"""	 80	 58
7 пожарная часть ФГКУ «ОФПС по Смоленской области»	53653	г. Смоленск, ул. Попова, д. 21	8-920-310-45-55 (подполковник внутренней службы Матвеев Максим Борисович)	54.767498	32.104602	0	 undefined	" ""/images/pojarka_small.png"""	 80	 58
7 пожарная часть ФГКУ «ОФПС по Смоленской области»	53655	г. Смоленск, ул. Попова, д. 21	8-920-310-45-55 (подполковник внутренней службы Матвеев Максим Борисович)	54.767498	32.104602	0	 undefined	" ""/images/pojarka_small.png"""	 80	 58
ПЧ-5	53030	г. Саратов, ул. Попова, 4	8 (8452) 36-73-33 (начальник части подполковник вн.сл.  Хамбиков О.В.), 8 (8452) 74-14-00 (начальник отдела информации и связи с общественностью капитан вн.сл.  Куличенкова Н.С.)	51.587354	45.942413	0	 undefined	" ""/images/pojarka_small.png"""	 80	 58
Шатурский гарнизон ПО ФГКУ «8 ПЧ ФПС по МО»	54289	г.о. Рошаль, ул. Коммунаров, д. № 6	(Арифулин Ильдар Хасянович капитан вн.сл. зам. начальника  ФГКУ «8 ПЧ ФПС по МО»)	55.659876	39.881947	0	 undefined	" ""/images/pojarka_small.png"""	 80	 58
Одинцовский гарнизон пожарной охраны ФГКУ «3ПЧ ФПС по Московской области»	54291	г. Одинцово, Можайское шоссе, д. 2	8(495) 593-17-68 (Майор внутренней службы Иванова И.А., заместитель начальника части – начальник группы по кадровой и воспитательной работе)	55.669320	37.263007	0	 undefined	" ""/images/pojarka_small.png"""	 80	 58
Долгопрудненский ГПО, ПЧ-82	54293	г. Лобня, ул. Промышленная, д.4	8-(495)-577-14-48 (Зрилов Сергей Владимирович, подполковник внутренней службы, начальник части)	56.016114	37.474219	0	 undefined	" ""/images/pojarka_small.png"""	 80	 58
Долгопрудненский ГПО, ПЧ-73	54295	г. Долгопрудный, ул. Летная, д.3	8-(495)-408-65-55 (Алексеев Александр Вячеславович, майор внутренней службы, Врио. начальника части)	55.931401	37.502804	0	 undefined	" ""/images/pojarka_small.png"""	 80	 58
Мытищинский гарнизон  17 специализированная пожарная часть	54297	г. Мытищи, ул. Комарова д.7.	.8-903-622-45-61 (Начальник 17 СПЧ подполковник вн.сл. Стукалов М.Ю)	55.918197	37.743687	0	 undefined	" ""/images/pojarka_small.png"""	 80	 58
ЩГПО ПЧ-300	54299	г. Щёлково ул. Советская д.21А	8-496-56-6-98-04 (Кравчук И.В. начальник ПЧ-300)	55.913702	38.001997	0	 undefined	" ""/images/pojarka_small.png"""	 80	 58
ЩГПО, ПЧ-279	54301	пос. Фряново, ул. Первомайская	8-496-56-3-53-02 (Бакашинов В.А. начальник ПЧ-279 )	56.139000	38.430197	0	 undefined	" ""/images/pojarka_small.png"""	 80	 58
ЩГПО, ПЧ-44	54303	г. Щёлково ул. Советская д.21А	8-496-56-2-16-22 (Баринов М.Е., майор в/с начальник ПЧ-44)	55.913702	38.001997	0	 undefined	" ""/images/pojarka_small.png"""	 80	 58
ЩГПО, ПЧ-78	54305	г. Фрязино ул. Котельный проезд д.6	8-496-56-4-42-20 (Орлов О.В., капитан в/с зам.нач-ка ПЧ-78)	55.944420	38.056561	0	 undefined	" ""/images/pojarka_small.png"""	 80	 58
ЩГПО, ПЧ-277	54307	г. Лосино-Петровский ул. Кирова д.3	8-496-56-7-52-34 (Драчев В.В. начальник ПЧ-277)	55.864985	38.202681	0	 undefined	" ""/images/pojarka_small.png"""	 80	 58
Электростальский гарнизон, ПЧ-45	54309	Электростальский гарнизон, ПЧ-45, г. Электросталь, ул. Красная, д.52	8-906-717-89-45, Зиньчук Евгений Васильевич, майор внутренней службы	55.779418	38.454093	0	 undefined	" ""/images/pojarka_small.png"""	 80	 58
Раменский ГПО, 127 пожарная часть	54311	г. Бронницы, Коширский переулок, д.47	8-496-46-4-45-39 (Байбаков Алексей Николаевич, майор внутренней службы, начальник ПЧ-127)	55.420198	38.257299	0	 undefined	" ""/images/pojarka_small.png"""	 80	 58
Раменский ГПО, 343 пожарная часть	54313	МО, Раменский район, с. Ульянино, д.1	 8-496-46-6-19-40 (Субботин Сергей Викторович, начальник ПЧ-343)	55.349445	38.428203	0	 undefined	" ""/images/pojarka_small.png"""	 80	 58
Раменский ГПО, 42 пожарная часть	54315	г. Раменское, Дорожный проезд, д.2	8-496-46-3-41-23 (Смирнов Павел Игоревич, капитан внутренней службы, начальник ПЧ-42)	55.563600	38.257200	0	 undefined	" ""/images/pojarka_small.png"""	 80	 58
Раменский ГПО, 262 пожарная часть	54317	МО, Раменский район, п. Ново-Харитоново, ул. Центральная, д.123	8-496-46-4-71-01 (Новиков Евгений Александрович, начальник ПЧ-262)	55.592820	38.507354	0	 undefined	" ""/images/pojarka_small.png"""	 80	 58
Первая пожарная часть ФПС ФГКУ &quot;5 отряд ФПС по Ульяновской области&quot; 	53094	г. Ульяновск,  ул. К.Маркса, д. 121 	8-960-372-88-56 (Начальник 1-ПЧ  майор в/с Старостин Денис Петрович), 8-960-372-88-57 (Заместитель начальника 1-ПЧ капитан в/с Капалин Александр Вячеславович)	54.326312	48.364172	0	 undefined	" ""/images/pojarka_small.png"""	 80	 58
Балашихинская 29 пожарная часть 	54319	г. Балашиха, ул. Пригородная, 4	521-72-07 (Бакулин Е.В. Майор внутренней службы  Начальник 29 пожарной части)	55.724398	38.009597	0	 undefined	" ""/images/pojarka_small.png"""	 80	 58
Зарайский гарнизон пожарной охраны., ПЧ-319 Каширского ТУСиС ГКУ МО «Мособлпожспас» по Зарайскому району	54323	г. Зарайск ул. Привокзальная д.1	89851544142 (Резкин Сергей Алексеевич., Заместитель начальника Каширского ТУСиС ГКУ МО «Мособлпожспас» по Зарайскому району)	54.766210	38.881682	0	 undefined	" ""/images/pojarka_small.png"""	 80	 58
Зарайский гарнизон пожарной охраны., ПЧ-341 Каширского ТУСиС ГКУ МО «Мособлпожспас» по Зарайскому району	54325	МО Зарайский район, д. Алферьево <br />	8926941613 (Смирнов Валерий Анатольевич Начальник ПЧ-341 Каширского ТУСиС ГКУ МО «Мособлпожспас» по Зарайскому району)	54.652787	38.752019	0	 undefined	" ""/images/pojarka_small.png"""	 80	 58
Зарайский гарнизон пожарной охраны., 59 ПЧ ФГКУ «12 ОФПС по МО»	54327	МО г. Зарайск ул. Московская ПЧ-59	8905 7385811 (Ломкин Николай Викторович., капитан внутренней службы., Заместитель начальника 59 ПЧ ФГКУ «12 ОФПС по МО»)	56.246556	38.016038	0	 undefined	" ""/images/pojarka_small.png"""	 80	 58
ПЧ-36	54329	ПЧ-36 г. Егорьевск, ул. Сосновая,2	8-916-382-75-80, Гостев Вадим Викторович  начальник ПЧ-36, подполковник вн. сл.   	55.435411	37.739653	0	 undefined	" ""/images/pojarka_small.png"""	 80	 58
ПЧ-131	54331	г. Егорьевск, ул. Сосновая,2<br />	8-910-478-44-46 (Михайлов Михаил Петрович начальник ПЧ-131 майор вн. сл)	55.368615	39.020498	0	 undefined	" ""/images/pojarka_small.png"""	 80	 58
Павлово-Посадский ГПО ПЧ-41 ФГКУ «23 ОФПС поМО»	54333	Павлово-Посадский ГПО ПЧ-41 ФГКУ «23 ОФПС поМО»  г.п. Павловский Посад  ул. Тимирязева д.16 	8-916-02184-22, Зенин Павел Александрович подполковник внутренней службы ВрИО начальника 41 ПЧ «23 ОФПС по МО» 	54.970427	39.035707	0	 undefined	" ""/images/pojarka_small.png"""	 80	 58
Павлово-Посадский ГПО ПЧ-110 ФГКУ «23 ОФПС поМО» 	54335	г.о. Электрогорск, ул. Святого Константина д.8 <br />	8-903-562-78-28 (Кондрашов Евгений Викторович подполковник внутренней службы  начальник 110 ПЧ «23 ОФПС по МО»)	55.886342	38.780244	0	 undefined	" ""/images/pojarka_small.png"""	 80	 58
Каширский ГПО, ПЧ-104	54337	г. Кашира, ул. Советская, д.33а	8(926)270-09-59 (Бакштеев Олег Анатольевич, капитан внутренней службы, заместитель начальника ПЧ-104)	54.836534	38.151163	0	 undefined	" ""/images/pojarka_small.png"""	 80	 58
Коломенский гарнизон пожарной охраны 32 пожарная часть	54339	г. Коломна, ул. III-го Интернационала д.12а	8-926-399-18-90 (Майор в\с Осипов Роман Сергеевич, начальник ПЧ-32)	55.080421	38.797698	0	 undefined	" ""/images/pojarka_small.png"""	 80	 58
Пожарная часть №6 ФГКУ «5 отряд ФПС по Чувашской Республике – Чувашии»	53096	г.Чебоксары,  ул. Николаева, д.20	(Начальник пожарной части №6 ФКУ «5 отряд ФПС по Чувашской Республике – Чувашии» капитан внутренней службы Васильев Евгений Николаевич)	56.122329	47.274974	0	 undefined	" ""/images/pojarka_small.png"""	 80	 58
Луховицкий гарнизон пожарной охраны 89 пожарная часть	54341	Луховицкий р-он, д. Ларино	8-916-230-50-43 (Подполковник в\с Тюренков Михаил Иванович, начальник ПЧ-89)	54.923823	39.059818	0	 undefined	" ""/images/pojarka_small.png"""	 80	 58
ПЧ-1 ФГКУ «1 ОФПС по РС (Я)»	54364	г.Алдан, ул. 10 лет Якутии, 40<br />	8(41145)32-0-93, 37-12-4 (Инспектор ОС и П, капитан в/с, Флусов Евгений Владимирович)	58.609601	125.393001	0	 undefined	" ""/images/pojarka_small.png"""	 80	 58
15 специализированная часть ФГКУ &quot;3 отряд ФПС&quot;	53098	г. Киров, ул. Щорса, 101 	70-38-29 (Начальник части А.В. Мальцев)	58.578236	49.592977	0	 undefined	" ""/images/pojarka_small.png"""	 80	 58
ПЧ-2 ФГКУ «1 ОФПС по РС (Я)»	54367	г.Томмот, ул. Укуланская,93<br />	8(41145)41-5-93, 41-2-66 (Начальник части, майор в/с, Щербаков Сергей Викторович)	58.955607	126.270574	0	 undefined	" ""/images/pojarka_small.png"""	 80	 58
2-ПЧ ФГКУ «21-ОФПС по Хабаровскому краю»	54396	г. Хабаровск, ул. Волочаевская, 5<br />	8(4212) 48-71-35 (Воронцов Константин Михайлович )	48.458742	135.098166	0	 undefined	" ""/images/pojarka_small.png"""	 80	 58
98-ПЧ ФГКУ «8-ОФПС по Хабаровскому краю»	54398	г. Комсомольск-на -Амуре, ул. Севостопольская,27<br />	8(4217) 54-28-31 (Халиков Эдуард Рафаилович )	50.544400	137.015000	0	 undefined	" ""/images/pojarka_small.png"""	 80	 58
ФГБОУ ДПО Хабаровский учебный центр ФПС	54401	г. Хабаровск, ул. Орджоникидзе, 4<br />	8(4212)57-35-55 (Капитан в/с, Горбунова О.А)	48.493307	135.042820	0	 undefined	" ""/images/pojarka_small.png"""	 80	 58
26 ПЧ ФГКУ «6 отряд ФПС по Приморскому краю»	54407	г. Партизанск, ул. М.Горького, 1<br />	8(42363)6-23-97 (Зам.начальника части, старший лейтенант в/с, Горпенко Семен Александрович)	43.118800	133.126004	0	 undefined	" ""/images/pojarka_small.png"""	 80	 58
СЧ-55 ФГКУ «22 ОФПС по РБ»	53108	г. Уфа, ул. Б. Бикбая, 11 	8 (347) 291 84 33 (Начальник части подполковник в/с Алексеев Юрий Иванович)	54.738437	55.983161	0	 undefined	" ""/images/pojarka_small.png"""	 80	 58
ПЧ-1 ФГКУ «2 ОФПС по РС (Я)»	54370	г.Ленск, ул. Победы,69	8(41137)24-8-31 (Психолог группы КВР, старший лейтенант в/с, Юркина Надежда Константиновна)	58.596201	125.373004	0	 undefined	" ""/images/pojarka_small.png"""	 80	 58
ПЧ №2	53127	г.Горно-Алтайск, ул. им.Павла Кучияк, 9	8 (388-22)-2-41-78 (Начальник ПЧ №2 - капитан вн.сл. Титов Семен Михайлович)	51.961101	85.966904	0	 undefined	" ""/images/pojarka_small.png"""	 80	 58
ПЧ-1 ФГКУ «4 ОФПС по РС (Я)»	54379	г. Нерюнгри, ул. Строителей, 21	8 (41147)68-9-01 (Зам. начальника ПЧ, лейтенант в/с. Лиханов Олег Леонидович)	56.661398	124.741004	0	 undefined	" ""/images/pojarka_small.png"""	 80	 58
84 ПЧ ФГКУ «6 отряд ФПС по Приморскому краю»	54411	г.Партизанск, с. Углекаменск, ул. Калинина, 32 Б<br />	8(42363)6-11-44 (Зам.начальника части, старший лейтенант в/с, Юлин Александр Юрьевич)	43.114483	133.137907	0	 undefined	" ""/images/pojarka_small.png"""	 80	 58
ПЧ №1	53136	г.Иркутск, ул. Академическая, 13	Начальник ОФПС-2 подполковник внутренней службы Федосеенко Вячеслав Сергеевич	52.236701	104.293003	0	 undefined	" ""/images/pojarka_small.png"""	 80	 58
2 специализированная часть по тушению крупных пожаров ФГКУ «ОФПС по Смоленской области»	53659	г. Смоленск, ул. Шевченко, д. 95	8-920-662-38-38 (подполковник внутренней службы Петров Николай Александрович)	54.788216	32.094577	0	 undefined	" ""/images/pojarka_small.png"""	 80	 58
ПЧ № 19  Федерального государственного казенного учреждения «5 ОФПС по Владимирской области»	53676	г. Гусь-Хрустальный, ул. Интернациональная, д. 112<br />	8-904-599-33-50 (Заместитель начальника ФГКУ «5 ОФПС по Владимирской области» подполковник вн. сл. Чупилко В.А.)	55.612299	40.667901	0	 undefined	" ""/images/pojarka_small.png"""	 80	 58
ПЧ № 14  Федерального государственного казенного учреждения «8 ОФПС по Владимирской области»	53682	г. Ковров, ул. Дегтярева, д. 61	8-920-626-18-32 (Заместитель начальника ФГКУ «8 ОФПС по Владимирской области» майор вн. сл. Телегин В.А.)	56.378100	41.314104	0	 undefined	" ""/images/pojarka_small.png"""	 80	 58
Пожарная часть № 11 по охране г. Кинешма и Кинешемского района ФГКУ «2 отряд ФПС по Ивановской области»	53822	г. Кинешма, ул. Островского, д. 4	8-915-815-32-48 (Начальник части, майор внутренней службы Мишагин Сергей Ильич)	57.444099	42.152403	0	 undefined	" ""/images/pojarka_small.png"""	 80	 58
ПЧ № 4 ФГКУ «13-й Отряд ФПС по Тверской области»	53828	г.Тверь, ул.Желябова, д.39	39-09-20 (подполковник вн. службы Орлов Алексей Александрович)	56.854399	35.914097	0	 undefined	" ""/images/pojarka_small.png"""	 80	 58
ПЧ № 4 ФГКУ «13-й Отряд ФПС по Тверской области»	53832	г.Тверь, ул.Желябова, д.39	39-09-20 (подполковник вн. службы Орлов Алексей Александрович)	56.854399	35.914097	0	 undefined	" ""/images/pojarka_small.png"""	 80	 58
ПЧ № 16 ФГКУ «2 ОФПС по Белгородской области»	53852	г.Алексеевка, ул.К.Маркса, 20	89517626633 (Путрин Игорь Алексеевич)	50.628698	38.689496	0	 undefined	" ""/images/pojarka_small.png"""	 80	 58
ПЧ-2 ФГКУ &quot;1 отряд ФПС по  Кемеровской области&quot;	53138	г. Кемерово, ул. Ворошилова, 9а	8 (3842) 46-38-05 (Начальник ПЧ-2 - майор вн. службы Белоусов Павел Александрович)	55.340942	86.157931	0	 undefined	" ""/images/pojarka_small.png"""	 80	 58
ПЧ-1 ФГКУ «5 ОФПС по РС (Я)»	54382	г. Якутск, ул. Дзержинского, 35	8(4112)22-34-70 (Начальник части, майор в/с, Козлов Денис Олегович)	62.050901	129.738996	0	 undefined	" ""/images/pojarka_small.png"""	 80	 58
32 ПЧ  ФГКУ «7 отряд ФПС по Приморскому краю»	54428	г. Уссурийск, ул.Ленина, 143	8(42341)33-49-06 (Начальник части, капитан в/с, Маслянко П.Н)	43.802205	131.975810	0	 undefined	" ""/images/pojarka_small.png"""	 80	 58
33 ПЧ ФГКУ «7 отряд ФПС по Приморскому краю»	54431	г. Уссурийск, ул. Раковская, 2а	8(42341)38-19-58 (Начальник части, Конончук С.В)	43.792900	131.985000	0	 undefined	" ""/images/pojarka_small.png"""	 80	 58
СПЧ г. Иркутск	53157	г. Иркутск, ул. Байкальская, 275	Начальник СПЧ - подполковник внутренней службы Баскаков Павел Анатольевич	52.256331	104.356541	0	 undefined	" ""/images/pojarka_small.png"""	 80	 58
ПЧ-2 ФГКУ «5 ОФПС по РС (Я)»	54385	г. Якутск, ул. Вилюйский тракт, 5-й км	8(4112)36-94-49, 36-92-63 (Начальник части, подполковник в/с, Мироненко Владимир Иванович Зам. начальника части, майор в/с, Михайлов Павел Степанович)	62.028191	129.701779	0	 undefined	" ""/images/pojarka_small.png"""	 80	 58
ПЧ-5 ФГКУ &quot;11 отряд ФПС по  Кемеровской области&quot;	53159	г. Новокузнецк, ул. Авиаторов, 27	8 (3843)61-67-68 (Начальник ПЧ-5 - подполковник вн.службы Фирсов Сергей Евгеньевич)	53.786502	87.155205	0	 undefined	" ""/images/pojarka_small.png"""	 80	 58
Учебная пожарная часть ФГБОУ «Учебный центр ФПС по Челябинской области»	53898	г. Челябинск, ул. Троицкая, 1г<br />	8-351-262-55-40 (Начальник  СТРУНОВ, Рафаэль Юрьевич)	55.128984	61.378991	0	 undefined	" ""/images/pojarka_small.png"""	 80	 58
Пожарно-техническая выставка Центра противопожарной пропаганды и общественных связей ФКУ «ЦУКС ГУ МЧС России по Челябинской области»	53900	г. Челябинск, ул. Пушкина, 68	8-351 239-70-85, 239-70-86 (Начальник ГОЛОБОРОДЬКО Борис Олегович)	55.156688	61.409641	0	 undefined	" ""/images/pojarka_small.png"""	 80	 58
ПЧ-7 ОФПС-1 г. Мурманск	53254	г. Мурманск,  ул. Шабалина, 8	52-69-38 (Сучков Константин Юрьевич)	68.892407	33.105964	0	 undefined	" ""/images/pojarka_small.png"""	 80	 58
ФГКУ «1 ОФПС по Челябинской области&quot;	53902	г. Златоуст, ул. Северная, д.27.	8-351-3 239-71-57, 65-37-02 (Начальник отряда МАЙОРОВ Алексей Валерьевич)	55.141825	59.707280	0	 undefined	" ""/images/pojarka_small.png"""	 80	 58
ПЧ-8	53904	г. Златоуст, ул. Северная, 27	8-351-3 65-37-63, 62-04-07 (Начальник ДОРОХ Виктор Павлович)	55.141825	59.707280	0	 undefined	" ""/images/pojarka_small.png"""	 80	 58
ПЧ-44	53906	г. Куса, ул. Бубнова, 12	8-351-54 3-41-32, 8-951-474-3444 (Начальник  КУРКОВ Александр Сергеевич)	55.338746	59.432728	0	 undefined	" ""/images/pojarka_small.png"""	 80	 58
ПЧ-45	53908	г. Златоуст, ул. Лапшина, 4	8-351-3 67-33-11, 65-16-75 (Начальник ГАВРИЛОВ Сергей Геннадьевич)	55.141825	59.707280	0	 undefined	" ""/images/pojarka_small.png"""	 80	 58
ФГКУ «2 ОФПС по челябинской области»	53912	г. Магнитогорск, ул. Кирова, 101	8-351-9 239-71-41, 24-74-33 (Начальник отряда МИНИН Александр Геннадьевич)	53.416325	59.057214	0	 undefined	" ""/images/pojarka_small.png"""	 80	 58
ПЧ-21	53914	г. Магнитогорск, ул. Жукова, 24	8-351-9 факс 40-77-36, 41-82-03 (Начальник ПОНОМАРЕНКО Вячеслав )	53.350800	58.969799	0	 undefined	" ""/images/pojarka_small.png"""	 80	 58
ПЧ-24	53916	г. Магнитогорск, ул. Лермонтова, 18	8-351-9 факс 29-25-28, 8-351-900-5231 (Начальник БАЛДИН Сергей Николаевич)	53.384929	59.066961	0	 undefined	" ""/images/pojarka_small.png"""	 80	 58
ПЧ-25	53918	г. Магнитогорск, ул. Советская, 108	8-351-9 факс 21-77-34, 21-77-41 (Начальник ОБОРИН Дмитрий Юрьевич)	53.392205	58.960501	0	 undefined	" ""/images/pojarka_small.png"""	 80	 58
ПЧ-67	53924	с. Агаповка, ул. Правобережная, 3/1	8 351-40 факс 2-03-37, 2-13-43 (Начальник МЯСНИКОВ Дмитрий Александрович)	53.308886	59.129888	0	 undefined	" ""/images/pojarka_small.png"""	 80	 58
ПЧ 1 ФКУ «ЦУКС ГУ МЧС России по Республике Адыгея»	53270	Республика Адыгея г. Майкоп, ул. Хакурате 642<br />	8 (8772) 56-80-57 (Строгонов Александр Михайлович)	44.623000	40.061798	0	 undefined	" ""/images/pojarka_small.png"""	 80	 58
«ОФПС по Челябинской области»	53928	г. Магнитогорск, ул. Кирова,101	8-351-9 факс 24-70-90, 239-71-43, 24-71-00, 8-351-906-7245 (Начальник ЛЕБЕДЕВ Дмитрий Александрович)	53.416325	59.057214	0	 undefined	" ""/images/pojarka_small.png"""	 80	 58
ПЧ-15	53930	г. Магнитогорск (Цех покрытий ОАО &quot;ММК&quot;)	код 8-351-9 24-36-31 МЯСНИКОВ Алексей Александрович	53.398579	58.988412	0	 undefined	" ""/images/pojarka_small.png"""	 80	 58
ПЧ-16	53932	по охране ОАО &quot;Автомобильный завод &quot;Урал и Предприятия &quot;Урал&quot;, г. Миасс	код  8-351 3 29-70-39 ГОРШЕНКОВ Александр Анатольевич	55.065257	60.101551	0	 undefined	" ""/images/pojarka_small.png"""	 80	 58
ПЧ-20	53934	г. Магнитогорск, ул. Кирова, 101	8-351-9 факс 24-70-90, 24-46-60 (Начальник СУХАНОВ Вадим Викторович)	53.416325	59.057214	0	 undefined	" ""/images/pojarka_small.png"""	 80	 58
Пожарная часть № 27 (Кетовский район)	53315	с. Кетово, ул. Пожарная 3<br />	8(35231) 2-11-94 (Трофимова Елена Валерьевна, инспектор по основной деятельности)	55.339918	65.329539	0	 undefined	" ""/images/pojarka_small.png"""	 80	 58
ПЧ-3 ФГКУ «5 ОФПС по РС (Я)»	54389	г. Якутск, ул. Маганский тракт, 2-й км	8(4112)20-42-33 (Начальник части, майор в/с, Подваркин Юрий Александрович, Зам. начальника части, майор в/с, Попов Александр Семенович)	62.028191	129.701779	0	 undefined	" ""/images/pojarka_small.png"""	 80	 58
34 ПЧ ФГКУ «7 отряд ФПС по Приморскому краю»	54435	г. Уссурийск, ул. Новонекольский проезд, 1а<br />	8(42341)34-62-44 (Начальник части, Жук В.М)	43.816803	131.919001	0	 undefined	" ""/images/pojarka_small.png"""	 80	 58
ФГКУ «4 ПЧ ФПС по Амурской области»	54457	г. Белогорск, ул. Скорикова, 7<br />	8-914-604-40-20 (Заместитель по кадрам, майор в/с, Чистяков А.А)	50.918300	128.479001	0	 undefined	" ""/images/pojarka_small.png"""	 80	 58
Пожарная часть № 45 (Шадринский район)	53400	ул. К. Маркса, 23	8(35253) 6-61-98 (Мяготина Алена Николаевна, инспектор по основной деятельности)	55.433379	65.332854	0	 undefined	" ""/images/pojarka_small.png"""	 80	 58
ПЧ-26	53936	по охране ЛПДС &quot; Ленинск&quot; ОАО &quot;Уралсибнефтепровод&quot;, г. Миасс	код 8 351 3 57-88-45 ФАМБУЛОВ Сергей Юрьевич	55.065257	60.101551	0	 undefined	" ""/images/pojarka_small.png"""	 80	 58
ПЧ-34	53938	г. Челябинск, ул. 2-я Павелецкая, 24	8-351 725-41-09 (Начальник ТОЛСТИХИН Максим Алексеевич)	55.265779	61.411564	0	 undefined	" ""/images/pojarka_small.png"""	 80	 58
ПЧ-51	53946	г. Магнитогорск, ОАО &quot;Магнитогорский Металлургический Комбинат&quot;	код  8-351-9 24-54-92 КОРОЛЬ Сергей Романович	53.398579	58.988412	0	 undefined	" ""/images/pojarka_small.png"""	 80	 58
ФГКУ «3 ОФПС по челябинской области»	53948	г. Челябинск, ул. Нахимова, 1а	8-351 8-902-604-0600 (Начальник ЖЕЛТЫШЕВ Вячеслав Владимирович)	55.120732	61.481524	0	 undefined	" ""/images/pojarka_small.png"""	 80	 58
ПЧ-1	53950	г. Челябинск, ул. Пушкина, 68	8 351 239-72-30 (Начальник ГОСТЕВ Максим Анатольевич)	55.156688	61.409641	0	 undefined	" ""/images/pojarka_small.png"""	 80	 58
ПЧ-2	53952	г. Челябинск, ул. Троицкая, 1/б	8 351 262-55-20, 8-351-904-8604 (Начальник ОЛОЛЕНКО Сергей Михайлович)	55.125664	61.374472	0	 undefined	" ""/images/pojarka_small.png"""	 80	 58
ПЧ-3	53954	г. Челябинск, ул. Тагильская, 24/а	8 351 791-29-55 (Начальник ТРОШИН Андрей Леонидович)	55.177961	61.390337	0	 undefined	" ""/images/pojarka_small.png"""	 80	 58
ПЧ-4	53956	г. Челябинск, ул. Хлебозаводская, 1	8- 351 735-03-81 (Начальник ХАЗИПОВ Рауф Равильевич)	55.249253	61.406102	0	 undefined	" ""/images/pojarka_small.png"""	 80	 58
2 специализированная часть по тушению крупных пожаров ФГКУ «ОФПС по Смоленской области»	53657	г. Смоленск, ул. Шевченко, д. 95	8-920-662-38-38 (подполковник внутренней службы Петров Николай Александрович)	54.788216	32.094577	0	 undefined	" ""/images/pojarka_small.png"""	 80	 58
ПЧ-5	53958	г. Челябинск, ул. Горького, 35	8 351 772-79-92, 773-35-11 (Начальник НОРЕНКОВ Николай Иванович)	55.173709	61.439124	0	 undefined	" ""/images/pojarka_small.png"""	 80	 58
ПЧ-6	53960	г. Челябинск, Копейское шоссе, 35	код 8-351 254-72-64 8-922-600-2176 ЖЕЛЕЗНОВ Иван Вадимович	55.136010	61.461986	0	 undefined	" ""/images/pojarka_small.png"""	 80	 58
Специальная часть по тушению крупных пожаров на территории городского округа Иваново ФГКУ «1 отряд ФПС по Ивановской области»	53705	г. Иваново, ул. Базисная, д. 27	8-903-888-44-99 (Начальник части, подполковник внутренней службы Рыжиков Дмитрий Николаевич)	57.011626	40.989587	0	 undefined	" ""/images/pojarka_small.png"""	 80	 58
ПЧ-7	53962	г. Челябинск, ул. Куйбышева, 15<br />	8-351 741-73-01 (Начальник СИБИРЕВ Юрий Васильевич)	55.198037	61.359578	0	 undefined	" ""/images/pojarka_small.png"""	 80	 58
ПЧ-11	53964	г. Челябинск, пр-т Победы, 400	8 351 731-20-56 (Начальник ЖЕЛТЫШЕВ Евгений Владимирович)	55.181493	61.287524	0	 undefined	" ""/images/pojarka_small.png"""	 80	 58
ПЧ-19	53967	г. Челябинск, ул. Новороссийская, 5	8 351 255-55-19 (Начальник БАРЫШНИКОВ Сергей Александрович)	55.097842	61.492861	0	 undefined	" ""/images/pojarka_small.png"""	 80	 58
ПЧ-34	53969	г. Челябинск, ул. 2-я Павелецкая, 24	8-351 725-41-09 (Начальник ТОЛСТИХИН Максим Алексеевич)	55.265779	61.411564	0	 undefined	" ""/images/pojarka_small.png"""	 80	 58
ПЧ-35	53971	г. Челябинск,  Бродокалмакский тракт, 4	код 8-351 779-02-01 ЛЕВИН Игорь Владимирович	55.220901	61.499096	0	 undefined	" ""/images/pojarka_small.png"""	 80	 58
Пожарная часть № 2 по охране Октябрьского района г. Иваново  ФГКУ «1 отряд ФПС по Ивановской области»	53717	г. Иваново, ул. Дзержинского, д. 44	8-910-686-68-38 (Начальник части, майор внутренней службы Сенягин Владимир Андреевич)	57.018462	40.955784	0	 undefined	" ""/images/pojarka_small.png"""	 80	 58
ФГКУ «5 ОФПС по Челябинской области»	53977	г. Миасс, Предзаводская площадь, 4	код 8-351-3 239-71-61 55-32-41 ПЛЕШКОВ Алексей Геннадьевич	55.065257	60.101551	0	 undefined	" ""/images/pojarka_small.png"""	 80	 58
Реутовский гарнизон пожарной охраны, ФГКУ «СПЧ по ТКП ФПС по Московской области»	54273	г. Реутов, улица Победы, 33	89653584744 (Скрипай Игорь Александрович, заместитель начальника ФГКУ «СПЧ по ТКП ФПС по Московской области» по АСР)	55.766866	37.847092	0	 undefined	" ""/images/pojarka_small.png"""	 80	 58
Орехово-Зуевский ГПО, СПЧ-24 ФГКУ 23 ОФПС по МО	54275	г.о. Орехово-Зуево, ул. Барышникова, д.11	8-4964-25-60-30 (Шабалин Антон Станиславович, подполковник внутренней службы, начальник СПЧ-24)	55.803008	39.000870	0	 undefined	" ""/images/pojarka_small.png"""	 80	 58
Орехово-Зуевский ГПО, ПСЧ-301 О/З ТУ СиС ГКУ МО «Мособлпожспас»	54277	г. Ликино-Дулево, ул. Комсомольская д.10	8-4964-15-13-40 (Рабин Владимир Федорович, начальник ПСЧ-301)	55.717001	38.954301	0	 undefined	" ""/images/pojarka_small.png"""	 80	 58
Орехово-Зуевский ГПО, ПСО-14 О/З ТУ СиС ГКУ МО «Мособлпожспас»	54279	г.о. Орехово-Зуево, ул. Совхозная, д.61	8-4964-24-43-44 Моб.8-903-139-51-64 (Кузнецов Александр Григорьевич, начальник ПСО-14)	55.767737	38.679938	0	 undefined	" ""/images/pojarka_small.png"""	 80	 58
Шатурский гарнизон ПО ФКУ «ОФПС по МО ПЧ-13 (договорная)»	54287	г. Шатура, Аллея Ударников, д. № 4	8-916-817-11-70 (Головарь Александр Леонидович, подполковник вн. сл. начальник ФКУ «ОФПС по МО  ПЧ-13 (договорная)»)	55.576584	39.551537	0	 undefined	" ""/images/pojarka_small.png"""	 80	 58
СЧ-№5 ФГКУ «1 ОФПС по Белгородской области»	53838	г. Белгород, ул. Михайловское шоссе, 40	8-903-886-53-47 (подполковник внутренней службы Тарасов Александр Иванович)	50.581701	36.649898	0	 undefined	" ""/images/pojarka_small.png"""	 80	 58
ФГКУ «СПЧ ФПС по РС (Я)»	54391	г. Якутск, ул. Дежнёва, 75	8(4112)36-02-60 74-37-63 (Старший мастер ГДЗС, прапорщик в/с, Костырин В.А)	62.015099	129.706998	0	 undefined	" ""/images/pojarka_small.png"""	 80	 58
ФГКУ «2 ПЧ ФПС по Амурской области»	54459	г. Свободный, ул. Ленина, 87<br />	8-914-381-00-67 (Начальник отряда п/п-к в/с  Ларин О.А)	51.383698	128.132000	0	 undefined	" ""/images/pojarka_small.png"""	 80	 58
ФГКУ «3 ПЧ ФПС по Амурской области»	54463	г. Тында, ул. Советская, 51<br />	8-914-597-07-67 (ВрИО начальника части, майор в/с, Набок А.А)	55.140019	124.739611	0	 undefined	" ""/images/pojarka_small.png"""	 80	 58
ФГКУ «7 ПЧ ФПС по Амурской области»	54465	г. Завитинск, ул. Куйбышева, д.87<br />	8-914-043-28-92 (Заместитель начальника части, майор в/с, Гольц К.Л)	50.108200	129.437998	0	 undefined	" ""/images/pojarka_small.png"""	 80	 58
ФГКУ «9 ПЧ ФПС по Амурской области»	54469	г. Шимановск, микрорайон №1, д. 13<br />	8-961-953-44-24 (Заместитель начальника части,  капитан в/с Семенов Е.Ю)	51.998971	127.676105	0	 undefined	" ""/images/pojarka_small.png"""	 80	 58
ПЧ № 2  ФГКУ «1 ОФПС по Белгородской области»	53842	г. Белгород, ул. Щорса, 39	8-950-710-73-10 (старший лейтенант внутренней службы Мантулин Николай Николаевич)	50.569402	36.571403	0	 undefined	" ""/images/pojarka_small.png"""	 80	 58
24 ПЧ  ФГКУ «19 отряд ФПС по Приморскому краю»	54405	г.Артем, ул. Кооперативная, 2	8(42337)4-26-01 (Начальник части, полковник в/с, Земсков А.В)	43.357203	132.184004	0	 undefined	" ""/images/pojarka_small.png"""	 80	 58
ФГКУ «10 ПЧ ФПС по Амурской области»	54471	г. Зея, ул. Магистральная, д.13<br />	8-909-810-79-70 (Заместитель по кадрам капитан в/с , Трифонов О.А)	53.736398	127.226004	0	 undefined	" ""/images/pojarka_small.png"""	 80	 58
9 ПЧ ФГКУ «1 ОФПС по Сахалинской области»	54486	г. Оха, ул. Карла Маркса 41/1<br />	8-924-183-14-15 (Начальник части,  лейтенант в/с, Гуськов Павел Михайлович)	53.595799	142.961002	0	 undefined	" ""/images/pojarka_small.png"""	 80	 58
112 ПЧ ФГКУ 24 ОФПС	54581	Свердловская область,<br />г. Сысерть, ул. К.Маркса, 28<br />	8(34374)61811 капитан внутренней службы Гончаров Ю.Н.	56.505902	60.819304	0	 undefined	" ""/images/pojarka_small.png"""	 80	 58
75 ПЧ	54583	п. Белоярский, ул. Юбилейная, 40	8(34377)21529 (Инспектор по основной деятельности ОСИП 59 ОФПС по СО Корюкалова М.П)	56.758600	61.418598	0	 undefined	" ""/images/pojarka_small.png"""	 80	 58
117 ПЧ	54587	Свердловская область, г. Сухой Лог, ул. Курьинская, 20 б	8(34373)31085 Писцова Е.Н.	56.885397	62.037231	0	 undefined	" ""/images/pojarka_small.png"""	 80	 58
166 ПЧ	54589	г. Нижняя Тура, ул. Декабристов, 2 д	8(34342)26086 (Начальник 166 ПЧ майор внутренней службы  Паньков И.А)	58.625202	59.850597	0	 undefined	" ""/images/pojarka_small.png"""	 80	 58
23 ПЧ ФГКУ «20 отряд ФПС по Приморскому краю»	54417	г. Спасск-Дальний, ул. Советская, 50<br />	8(42352)2-53-13 (Начальник отряда, подполковник в/с, Нестреляй Юрий Анатольевич)	44.603102	132.820999	0	 undefined	" ""/images/pojarka_small.png"""	 80	 58
ПЧ №1 ФГКУ «ОФПС по Камчатскому краю»	54439	г. Петропавловск-Камчатский, ул. Ленинградская, 25<br />	8-924-891-96-75 (Начальник ПЧ, Петров А.Ю)	53.033000	158.643997	0	 undefined	" ""/images/pojarka_small.png"""	 80	 58
ПЧ №2 ФГКУ «ОФПС по Камчатскому краю»	54441	г. Петропавловск-Камчатский, пер. Садовый, 10/1<br />	8-914-786-13-66 (ВрИО начальника ПЧ, Омельченко О.И)	52.979801	158.681996	0	 undefined	" ""/images/pojarka_small.png"""	 80	 58
ПЧ №3 ФГКУ «ОФПС по Камчатскому краю»	54445	г. Петропавловск-Камчатский, ул. Вулканная, 25<br />	8 914 628 99 99 (Начальник ПЧ Головенко С.И )	53.076598	158.611002	0	 undefined	" ""/images/pojarka_small.png"""	 80	 58
266 ПЧ 6 ОФПС	54596	ГО Карпинск, ул. Ленина, 133а<br />	8(343)83 3-35-70 (Заместитель начальника 266 ПЧ 6 ОФПС Брянцева Надежда Александровна)	59.771101	59.986701	0	 undefined	" ""/images/pojarka_small.png"""	 80	 58
57 ПЧ 6 ОФПС	54600	Свердловская область, ГО Краснотурьинск,<br />ул. Комарова,1а<br />	8(343)84 6-12-52 ст. лейтенант внутренней службы Соловарова Е.Г. 	59.768101	60.218197	0	 undefined	" ""/images/pojarka_small.png"""	 80	 58
256 ПЧ 6 ОФПС	54603	Свердловская область, ГО Краснотурьинск,<br />ул. Новая,1а<br />	8(343)84 5-08-65 Шитц Евгений Эдвинович	59.777198	60.209798	0	 undefined	" ""/images/pojarka_small.png"""	 80	 58
56 ПЧ 6 ОФПС	54605	Свердловская область, Серовский ГО<br />ул. Победы,15<br />	8(343)85 6-40-22 капитан внутренней службы Маркус Евгения Владимировна 	56.895098	60.607751	0	 undefined	" ""/images/pojarka_small.png"""	 80	 58
ГКПТУ ОПС №18 ОП 18/4	54612	Свердловская область, Сухоложский р-н<br />с.Новопышминское<br />ул.Ильича, 13<br />	8(34373) 99-4-32 8(34373) 99-4-32 Лескин И.В.	56.887812	62.242954	0	 undefined	" ""/images/pojarka_small.png"""	 80	 58
ГКПТУ ОПС №18 ОП 18/4 	54617	Свердловская область, Сухоложский р-н<br />пос. Алтынай<br />ул.Кирова, 35<br />	8(34373) 93-2-42 8(34373) 93-2-42 Полков С.А.	57.066000	61.996601	0	 undefined	" ""/images/pojarka_small.png"""	 80	 58
ГКПТУ ОПС №18 ОП 18/4	54619	Свердловская область, г. Сухой Лог<br />ул. С.Разина,17<br />	8(34373) 4-29-19 8(34373) 4-29-19 Каргаев В.Н.	56.885397	62.037231	0	 undefined	" ""/images/pojarka_small.png"""	 80	 58
ГКПТУ ОПС №18 ОП 18/4 	54622	Свердловская область, г. Сухой Лог<br />ул.Милицейская,4<br />	8(34373) 3-10-85 Шангин А.Н.	56.885397	62.037231	0	 undefined	" ""/images/pojarka_small.png"""	 80	 58
ФГКУ « СПСЧ ФПС по Камчатскому краю»	54447	г. Петропавловск-Камчатский, ул. Степная, 50<br />	8-914-780-02-20 (Начальник ПЧ Пахомов А.В)	53.012098	158.724998	0	 undefined	" ""/images/pojarka_small.png"""	 80	 58
1 ПЧ ФГКУ «1 ОФПС по Сахалинской области»	54475	г. Южно-Сахалинск, ул. Амурская 60	8(4242)25-50-72 (Начальник части,  капитан в/с,  Левченко  Сергей Владимирович)	46.959708	142.730396	0	 undefined	" ""/images/pojarka_small.png"""	 80	 58
3 ПЧ ФГКУ «1 ОФПС по Сахалинской области»	54477	г. Холмск, ул. Советская, 81	8-914-749-58-90 (Начальник части,  лейтенант в/с, Стойка  Владислав Валерьевич)	47.057440	142.055968	0	 undefined	" ""/images/pojarka_small.png"""	 80	 58
4 ПЧ ФГКУ «1 ОФПС по Сахалинской области»	54481	г. Корсаков, ул. Краснофлотская 12	8-924-185-32-70 (Начальник части.  майор в/с,  Яковлев Дмитрий Юрьевич)	46.630301	142.777001	0	 undefined	" ""/images/pojarka_small.png"""	 80	 58
63 ПЧ	54628	Свердловская область, г. Каменск – Уральский, ул. Прокопьева, д.8	8(3439) 34-03-81 8(3439) 36-47-63 подполковник внутренней службы Бычков Е.С.	56.425198	61.885901	0	 undefined	" ""/images/pojarka_small.png"""	 80	 58
№109 ФГКУ 5 ОФПС по Свердловской области	54630	Свердловская область, пос. Малышева, ул. Февральская, 8	8(34365)53907 8(34365)75501 Шайдуллин Рашид Назимович	57.112998	61.402302	0	 undefined	" ""/images/pojarka_small.png"""	 80	 58
206 ПЧ	54636	Свердловская область, город Кушва, улица Первомайская, 23	8 (34344) 2-46-42 8 (34344) 2-44-71 майор внутренней службы Зимин  Денис Викторович	58.285500	59.753301	0	 undefined	" ""/images/pojarka_small.png"""	 80	 58
99 ПЧ 59 ОФПС МЧС России по Свердловской области	54638	Свердловская область, г.Заречный<br />Лермонтова 4<br />	майор внутренней службы Быченков Сергей Васильевич	56.817301	61.328604	0	 undefined	" ""/images/pojarka_small.png"""	 80	 58
77 ПЧ	54644	Свердловская область, посёлок Баранчинский, улица<br />Октябрьская, 23<br />	8 (34344) 5-30-01 подполковник внутренней службы Белых Николай Михайлович	58.170346	59.701279	0	 undefined	" ""/images/pojarka_small.png"""	 80	 58
163 ПЧ	54646	Свердловская область, город Красноуральск, улица Устинова, 44 б	8 (34344) 2-73-31 подполковник внутренней службы Гафиятуллин Игорь Рузальевич	58.352802	60.037204	0	 undefined	" ""/images/pojarka_small.png"""	 80	 58
223 ПЧ 54 ОФПС 	54652	Свердловская область,<br />г. Реж,<br />ул. Советская, 112<br />	8 (34364) 2-15-17 капитан внутренней службы Руснак Геннадий Григорьевич	57.352841	61.408051	0	 undefined	" ""/images/pojarka_small.png"""	 80	 58
76 ПЧ 54 ОФПС 	54654	Свердловская область,<br />г. Алапаевск,<br />ул. Ленина,<br />6,  корп.1<br />	8 (34346) 2-19-44 8 (34346) 2-14-00 майор внутренней службы Кесарев Андрей Валерьевич	57.850198	61.703597	0	 undefined	" ""/images/pojarka_small.png"""	 80	 58
8 ПЧ ФГКУ «1 ОФПС по Сахалинской области»	54483	пос. Ноглики, пер. Свободный, 1<br />	8-924-187-79-22 (Начальник части,  майор в/с,  Таратов Михаил Алексеевич)	51.795757	143.142211	0	 undefined	" ""/images/pojarka_small.png"""	 80	 58
ПЧ-20 ФГКУ «1 отряд по Магаданской области» 	54494	г. Магадан, ул. Попова, 3а<br />	8(4132)60-80-79 60-80-91 (Начальник части, майор в/с Дзюба А.Н)	59.583498	150.818997	0	 undefined	" ""/images/pojarka_small.png"""	 80	 58
64 ПЧ 10 ОФПС 	54660	г. Полевской, ул. Крылова,<br />д. 8<br />	(834350)2-20-34 (834350)2-32-69 майор внутренней службы Шилков А.И.	56.451200	60.164603	0	 undefined	" ""/images/pojarka_small.png"""	 80	 58
65 ПЧ 10 ОФПС 	54662	Свердловская область, г. Ревда, переулок Больничный, 2	 (834397)3-45-05  (834397)3-06-50 капитан внутренней службы Стерхов В.С. 	56.806299	59.912904	0	 undefined	" ""/images/pojarka_small.png"""	 80	 58
102 ПЧ 10 ОФПС 	54664	Свердловская область, г. Дегтярск, ул. Лесозавод, 2	 (834397)6-10-88  (834397)6-10-92 капитан внутренней службы Атамурадов Р.С.	56.702046	60.103778	0	 undefined	" ""/images/pojarka_small.png"""	 80	 58
47 ПЧ 10 ОФПС 	54666	Свердловская область, г. Первоуральск, ул. Строителей, 13	(83439)24-03-70 майор внутренней службы Приемщиков Ю.П. 	56.912900	59.956104	0	 undefined	" ""/images/pojarka_small.png"""	 80	 58
СЧ ФКУ «ЦУКС ГУ МЧС России по Магаданской области» 	54490	г. Магадан, ул. Ясная, 16<br />	8(4132)62-57-90, 62-88-77 (Начальник части, майор в/с Прокопьев В.А)	59.556320	150.813078	0	 undefined	" ""/images/pojarka_small.png"""	 80	 58
Центр противопожарной пропаганды и связей с общественностью ГКУ «ППС Курганской области»	54503	г. Курган, ул. Куйбышева, 191	8 (3522) - 476-430 (Критинина Тамара Николаевна, директор Центра противопожарной пропаганды) 	55.445748	65.388414	0	 undefined	" ""/images/pojarka_small.png"""	 80	 58
60ПЧ ФПС	54671	Свердловская область,<br />г. Ирбит, ул. Революции,17<br />	8(34355)3-90-15 8(34355)6-59-91 майор внутренней службы Шипицын Сергей Игоревич	57.681302	63.056999	0	 undefined	" ""/images/pojarka_small.png"""	 80	 58
73 ПЧ ФПС по СО	54673	Свердловская область, г. Красноуфимск, ул. Ленина, 100	8(34394)24801 8(34394)23207 майор внутренней службы Каледаев Андрей Александрович,	56.623801	57.764197	0	 undefined	" ""/images/pojarka_small.png"""	 80	 58
258 ПЧ 13 ОФПС 	54677	Свердловская область,<br />г. Кировград,<br />ул. Фадеева 31<br />	(34357)4-25-51 (34357)4-17-72 капитан внутренней службы Масленникова Т.С.	57.431199	60.050697	0	 undefined	" ""/images/pojarka_small.png"""	 80	 58
46 ПЧ 13 ОФПС 	54680	Свердловская область,<br />г. Невьянск,<br />ул. Дзержинского 8а<br />	(34356)2-49-46 майор внутренней службы Веретенников Д.А.	57.483900	60.200599	0	 undefined	" ""/images/pojarka_small.png"""	 80	 58
295 ПЧ 71 ОФПС	54684	Свердловская область, Верхотурский район с. Дерябино ул. Центральная 5б 	8(34389)2-33-21 Дерябин В.И.	58.740830	61.918375	0	 undefined	" ""/images/pojarka_small.png"""	 80	 58
86 ПЧ ФПС по СО	54693	623640 Свердловская область, г.Талица, ул.Заводская, 13 «Б»	8(34371)21131 8(34371)28101 Горбунов Анатолий Ильич	57.012102	63.715302	0	 undefined	" ""/images/pojarka_small.png"""	 80	 58
11 ПЧ	54695	Свердловская область, г. Н. Тагил, ул. Красногвардейская, 55а	8 (3435)25-56-85 8 (3435)25-66-55 капитан внутренней службы Воробьев В.В.	57.890999	60.005404	0	 undefined	" ""/images/pojarka_small.png"""	 80	 58
12 ПЧ	54699	Свердловская область, г. Н. Тагил, ул. Пожарная, 1	8(3435)37-79-86 8(3435)25-66-55 капитан внутренней службы Горелов А.Б.	57.925403	60.003383	0	 undefined	" ""/images/pojarka_small.png"""	 80	 58
13 ПЧ	54701	Свердловская область, г. Н. Тагил, ул. Выйская, 53а	1. 8(3435)48-29-14 2. 8(3435)25-66-55 капитан внутренней службы Орлов М.В..	57.925398	59.935398	0	 undefined	" ""/images/pojarka_small.png"""	 80	 58
15 ПЧ	54703	Свердловская область, г. Н. Тагил, Черноисточинское шоссе, 80а	8(3435)32-43-17 8(3435)25-66-55 капитан внутренней службы Лучинин Д.А.	57.925403	60.003383	0	 undefined	" ""/images/pojarka_small.png"""	 80	 58
Пожарная часть № 20 (Альменевский район)	54505	с. Альменево, ул.Советская 11	8(35242)9-24-55 (Локосова Надежда Ивановна, инспектор  по основной деятельности  ПЧ № 20)	54.945474	63.578345	0	 undefined	" ""/images/pojarka_small.png"""	 80	 58
Пожарная часть № 21 (Белозерский район) 	54509	с. Белозерское, ул. Попова 1<br />	8(35232) 2-26-02 (Зотикова Людмила Геннадьевна, инспектор  по основной деятельности)	55.822999	65.586700	0	 undefined	" ""/images/pojarka_small.png"""	 80	 58
1-ПЧ	54706	Свердловская область, г.Екатеринбург, ул Софьи Ковалевской,8	8(343)216-11-95 8(343)374-09-95 майор внутренней службы  Гребнев Ю.В 	56.844993	60.655937	0	 undefined	" ""/images/pojarka_small.png"""	 80	 58
30 ПЧ	54708	Свердловская область, г. Н. Тагил, Восточное шоссе, 41	8(3435)33-36-39 8(3435)25-66-55 майор внутренней службы  Воробьев В.В 	57.909202	60.010003	0	 undefined	" ""/images/pojarka_small.png"""	 80	 58
4-ПЧ	54715	Свердловская область, г.Екатеринбург, ул Проезжая,110	8(343)341-55-18 8(343)341-99-53 подполковник внутренней  службы  Скрипин В.Н. 	56.875654	60.692184	0	 undefined	" ""/images/pojarka_small.png"""	 80	 58
7-ПЧ	54717	Свердловская область, г. Екатеринбург, ул. Маневровая,38	8(343)323-02-90 майор внутренней службы Поскребышев С.В	56.884910	60.533739	0	 undefined	" ""/images/pojarka_small.png"""	 80	 58
9-ПЧ	54719	Свердловская область, г.Екатеринбург, ул Сибирский тракт,79/1	8(343)261-99-86 8 (343)261-97-38 майор внутренней  службы  Стариков Е.В. 	56.837982	60.597340	0	 undefined	" ""/images/pojarka_small.png"""	 80	 58
ОП 9-ПЧ	54721	Свердловская область г.Екатеринбург, ул Главная,17/б	8(343)2060557 ст. лейтенант внутренней  службы  Тычкин С.В. 	56.837982	60.597340	0	 undefined	" ""/images/pojarka_small.png"""	 80	 58
19-ПЧ	54723	Свердловская область, г.Екатеринбург, ул Машиностроителей,27	8(343)327-56-96 8(343)327-49-23 подполковник внутренней службы Васильев Г.Н.	56.884837	60.587350	0	 undefined	" ""/images/pojarka_small.png"""	 80	 58
151-ПЧ	54727	Свердловская область, г.Екатеринбург, пос. Садовый	8(343)295-22-87 8(343)295-23-79 Гордеев В.Е.	56.956569	60.676580	0	 undefined	" ""/images/pojarka_small.png"""	 80	 58
Пожарная часть № 22 (Варгашинский район) 	54511	п.Варгаши, ул. Матросова, 56<br />	8(35233)2-15-91 (Сунгурова Татьяна Николаевна, инспектор  по основной деятельности)	55.383802	65.796699	0	 undefined	" ""/images/pojarka_small.png"""	 80	 58
Пожарная часть № 31 (Мишкинский район)	54545	р.п. Мишкино, ул. Первомайская 68<br />	8(35247) 2-32-02 (Маслакова Ольга Дмитриевна, инспектор  по основной деятельности)	55.337599	63.925104	0	 undefined	" ""/images/pojarka_small.png"""	 80	 58
74-ПЧ	54729	Свердловская область, г.Екатеринбург, ул Тверитина,1	8(343)229-80-28 8(343)229-83-28 майор внутренней службы  Федяков А.П. 	56.823410	60.639956	0	 undefined	" ""/images/pojarka_small.png"""	 80	 58
Учебная пожарная часть ФГБОУ «Учебный центр ФПС по Челябинской области» 	54733	г. Челябинск, <br />ул. Троицкая, 1г<br />	код  8-351 262-55-40 СТРУНОВ Рафаэль Юрьевич 	55.128984	61.378991	0	 undefined	" ""/images/pojarka_small.png"""	 80	 58
Пожарно-техническая выставка Центра противопожарной пропаганды и общественных связей ФКУ «ЦУКС ГУ МЧС России по Челябинской области» 	54737	г. Челябинск,<br />ул. Пушкина, 68<br />	код  8-351 239-70-85 239-70-86 ГОЛОБОРОДЬКО Борис Олегович 	55.156688	61.409641	0	 undefined	" ""/images/pojarka_small.png"""	 80	 58
ФГКУ «1 ОФПС по Челябинской области&quot;	54739	г. Златоуст,<br />ул. Северная, д.27.<br />	код  8-351-3 239-71-57 65-37-02 МАЙОРОВ Алексей Валерьевич 	55.141825	59.707280	0	 undefined	" ""/images/pojarka_small.png"""	 80	 58
Пожарная часть № 33 (Мокроусовский район)	54547	с.Мокроусово ул.Тарасова, 1	8(35234) 9-24-98 (Кошубаева Саулям Ислямовна, инспектор  по основной деятельности)	55.809818	66.771901	0	 undefined	" ""/images/pojarka_small.png"""	 80	 58
Пожарная часть № 36 (Притобольный район)	54553	с. Глядянское, ул. Ленина, 75	8(35239) 9-30-73 (Блынская Алена Юрьевна, инспектор  по основной деятельности)	54.907724	65.094369	0	 undefined	" ""/images/pojarka_small.png"""	 80	 58
ПЧ-8	54743	г. Златоуст,<br />ул. Северная, 27<br />	код  8-351-3 65-37-63 62-04-07  ДОРОХ Виктор Павлович 	55.141825	59.707280	0	 undefined	" ""/images/pojarka_small.png"""	 80	 58
ПЧ-44	54745	г. Куса,<br />ул. Бубнова, 12<br />	код  8-351-54 3-41-32 8-951-474-3444 КУРКОВ Александр Сергеевич 	55.338746	59.432728	0	 undefined	" ""/images/pojarka_small.png"""	 80	 58
ФГКУ «2 ОФПС по челябинской области»	54750	г. Магнитогорск,<br />ул. Кирова, 101<br />	код  8-351-9 239-71-41 24-74-33 МИНИН Александр Геннадьевич 	53.416325	59.057214	0	 undefined	" ""/images/pojarka_small.png"""	 80	 58
ПЧ-45	54752	г. Златоуст,<br />ул. Лапшина, 4<br />	код 8-351-3 67-33-11 65-16-75 ГАВРИЛОВ Сергей Геннадьевич 	55.141825	59.707280	0	 undefined	" ""/images/pojarka_small.png"""	 80	 58
ПЧ-49	54754	г. Сатка,<br />ул. 100-летия комбината «Магнезит», 7<br />	код 8-351-61 4-33-30 ДМИТРИЕВ Евгений Александрович 	55.070298	58.991700	0	 undefined	" ""/images/pojarka_small.png"""	 80	 58
ПЧ-21	54760	г. Магнитогорск,<br />ул. Жукова, 24<br />	код  8-351-9 факс 40-77-36 41-82-03 ПОНОМАРЕНКО Вячеслав Геннадьевич 	53.350800	58.969799	0	 undefined	" ""/images/pojarka_small.png"""	 80	 58
ПЧ-24	54763	г. Магнитогорск,<br />ул. Лермонтова, 18<br />	код 8-351-9 факс 29-25-28 8-351-900-5231 БАЛДИН Сергей Николаевич 	53.384929	59.066961	0	 undefined	" ""/images/pojarka_small.png"""	 80	 58
Пожарная часть № 34 (Петуховский район)	54549	г. Петухово, ул. К-Маркса, 2<br />	8(35235) 2-20-01 (Шепелина Елена Ивановна, инспектор по основной деятельности)	55.067298	67.888201	0	 undefined	" ""/images/pojarka_small.png"""	 80	 58
ПЧ-25	54765	г. Магнитогорск,<br /> ул. Советская, 108<br />	код 8-351-9 факс 21-77-34 21-77-41 ОБОРИН Дмитрий Юрьевич 	53.392205	58.960501	0	 undefined	" ""/images/pojarka_small.png"""	 80	 58
ПЧ-59	54767	г. Верхнеуральск, <br />ул. Энергетиков, 1В<br />	код 8- 351- 43 факс 2-24-46 2-20-07 ГОРОХОВ Вячеслав Александрович 	53.886599	59.222702	0	 undefined	" ""/images/pojarka_small.png"""	 80	 58
ПЧ-63	54770	с. Кизильское,<br /> пер. Бородулина, 3-а<br />	код 8- 351- 55 факс 3-02-47 3-10-16 КАДИГРОБ Павел Сергеевич 	52.723499	58.900000	0	 undefined	" ""/images/pojarka_small.png"""	 80	 58
ПЧ-67	54773	с. Агаповка, <br />ул. Правобережная, 3/1<br />	код  8 351-40 факс 2-03-37 2-13-43 МЯСНИКОВ Дмитрий Александрович 	53.308886	59.129888	0	 undefined	" ""/images/pojarka_small.png"""	 80	 58
«ОФПС по Челябинской области»	54777	г. Магнитогорск, ул. Кирова,101	код 8-351-9 факс 24-70-90 239-71-43 24-71-00 8-351-906-7245 ЛЕБЕДЕВ Дмитрий Александрович 	53.416325	59.057214	0	 undefined	" ""/images/pojarka_small.png"""	 80	 58
ПЧ-15	54780	г. Магнитогорск (Цех покрытий ОАО &quot;ММК&quot;)	код 8-351-9 24-36-31 МЯСНИКОВ Алексей Александрович 	53.398579	58.988412	0	 undefined	" ""/images/pojarka_small.png"""	 80	 58
«ОФПС по Челябинской области»	54783	г. Магнитогорск,<br />ул. Кирова,101	код 8-351-9 факс 24-70-90 239-71-43 24-71-00 8-351-906-7245 ЛЕБЕДЕВ Дмитрий Александрович 	53.416325	59.057214	0	 undefined	" ""/images/pojarka_small.png"""	 80	 58
ПЧ-15	54788	г. Магнитогорск (Цех покрытий ОАО &quot;ММК&quot;)	код 8-351-9 24-36-31 МЯСНИКОВ Алексей Александрович 	53.398579	58.988412	0	 undefined	" ""/images/pojarka_small.png"""	 80	 58
Пожарная часть № 35 (Половинный район)	54551	с. Половинное, ул. Мостовая, 6	8(35238) 9-22-55 (Климова Валентина Андреевна, инспектор по основной деятельности)	54.792001	65.985803	0	 undefined	" ""/images/pojarka_small.png"""	 80	 58
ПЧ-16	54790	по охране ОАО &quot;Автомобильный завод &quot;Урал и Предприятия &quot;Урал&quot;, г. Миасс  	код  8-351 3 29-70-39 ГОРШЕНКОВ Александр Анатольевич 	55.065257	60.101551	0	 undefined	" ""/images/pojarka_small.png"""	 80	 58
ПЧ-20	54792	г. Магнитогорск,<br />ул. Кирова, 101<br />	код  8-351-9 факс 24-70-90 24-46-60 СУХАНОВ Вадим Викторович 	53.416325	59.057214	0	 undefined	" ""/images/pojarka_small.png"""	 80	 58
ПЧ-26	54797	по охране ЛПДС &quot; Ленинск&quot; ОАО &quot;Уралсибнефтепровод&quot;, г. Миасс	код 8 351 3 57-88-45 ФАМБУЛОВ Сергей Юрьевич 	55.065257	60.101551	0	 undefined	" ""/images/pojarka_small.png"""	 80	 58
ПЧ-34	54799	г. Челябинск,<br />ул. 2-я Павелецкая, 24<br />	код  8 351 факс 725-34-01 725-52-66 ТОЛСТИХИН Максим Алексеевич 	55.265779	61.411564	0	 undefined	" ""/images/pojarka_small.png"""	 80	 58
ПЧ-51	54810	г. Магнитогорск, ОАО &quot;Магнитогорский Металлургический Комбинат&quot;	код  8-351-9 24-54-92 КОРОЛЬ Сергей Романович 	53.398579	58.988412	0	 undefined	" ""/images/pojarka_small.png"""	 80	 58
ФГКУ «3 ОФПС по челябинской области»	54812	г. Челябинск,<br />ул. Нахимова, 1а	код 8-351 8-902-604-0600 ЖЕЛТЫШЕВ Вячеслав Владимирович 	55.120732	61.481524	0	 undefined	" ""/images/pojarka_small.png"""	 80	 58
ПЧ-1	54816	г. Челябинск,<br /> ул. Пушкина, 68<br />	код 8 351 239-72-30 ГОСТЕВ Максим Анатольевич 	55.156688	61.409641	0	 undefined	" ""/images/pojarka_small.png"""	 80	 58
ПЧ-2	54819	г. Челябинск, <br />ул. Троицкая, 1/б<br />	код 8 351 262-55-20 8-351-904-8604 ОЛОЛЕНКО Сергей Михайлович 	55.125664	61.374472	0	 undefined	" ""/images/pojarka_small.png"""	 80	 58
ПЧ-3	54822	г. Челябинск,<br />ул. Тагильская, 24/а	код 8 351 791-29-55 ТРОШИН Андрей Леонидович 	55.177961	61.390337	0	 undefined	" ""/images/pojarka_small.png"""	 80	 58
ПЧ-4	54824	г. Челябинск,<br />ул. Хлебозаводская, 1<br />	код 8- 351 735-03-81 ХАЗИПОВ Рауф Равильевич 	55.249253	61.406102	0	 undefined	" ""/images/pojarka_small.png"""	 80	 58
Пожарная часть № 37 (Сафакулевский район)	54560	с. Сафакулево, ул. Ленина, 5<br />	8(35243) 2-11-74 (Гафарова Гульфия Рафиковна, инспектор по основной деятельности)	54.987399	62.539201	0	 undefined	" ""/images/pojarka_small.png"""	 80	 58
Пожарная часть № 39 (Частоозерский район)	54564	с. Частоозерье, ул.Октябрьская, 115	8(35230) 9-20-50 (Хательская Татьяна Николаевна, инспектор по основной деятельности)	55.566700	67.903904	0	 undefined	" ""/images/pojarka_small.png"""	 80	 58
Пожарная часть № 42 (Шумихинский район)	54568	г. Шумиха, ул. Гагарина, 6	8(35245) 2-13-62 (Мананкова Мария Викторовна, инспектор  по основной деятельности)	55.225902	63.283904	0	 undefined	" ""/images/pojarka_small.png"""	 80	 58
Пожарная часть № 38 (Целинный район)	54562	с. Целинное, ул. Ворошилова, 19	8(35241) 2-74-72 (Козырева Елена Георгиевна, инспектор  по основной деятельности) 	54.504510	63.676243	0	 undefined	" ""/images/pojarka_small.png"""	 80	 58
Пожарная часть № 43 (Щучанский район)	54572	г. Щучье, улица Жукова ,33	8(35244) 2-37-35 (Косарева Галина Николаевна, инспектор  по основной деятельности)	55.220202	62.753898	0	 undefined	" ""/images/pojarka_small.png"""	 80	 58
ПЧ-5	54829	г. Челябинск,<br />ул. Горького, 35	код  8 351 772-79-92 773-35-11 НОРЕНКОВ Николай Иванович 	55.173709	61.439124	0	 undefined	" ""/images/pojarka_small.png"""	 80	 58
ПЧ-6	54831	г. Челябинск, Копейское шоссе, 35	код 8-351 254-72-64 8-922-600-2176 ЖЕЛЕЗНОВ Иван Вадимович 	55.136010	61.461986	0	 undefined	" ""/images/pojarka_small.png"""	 80	 58
ПЧ-7	54833	г. Челябинск, <br />ул. Куйбышева, 15<br />	код 8-351 741-73-01 СИБИРЕВ Юрий Васильевич 	55.198037	61.359578	0	 undefined	" ""/images/pojarka_small.png"""	 80	 58
ПЧ-11	54837	г. Челябинск,<br />пр-т Победы, 400<br />	код  8 351 731-20-56 ЖЕЛТЫШЕВ Евгений Владимирович 	55.181493	61.287524	0	 undefined	" ""/images/pojarka_small.png"""	 80	 58
ПЧ-19	54839	г. Челябинск,<br />ул. Новороссийская, 5<br />	код  8 351 255-55-19 БАРЫШНИКОВ Сергей Александрович 	55.097842	61.492861	0	 undefined	" ""/images/pojarka_small.png"""	 80	 58
ПЧ-34	54842	г. Челябинск, <br />ул. 2-я Павелецкая, 24<br />	код 8-351 725-41-09 ТОЛСТИХИН Максим Алексеевич 	55.265779	61.411564	0	 undefined	" ""/images/pojarka_small.png"""	 80	 58
ПЧ-31	54845	г. Троицк,<br /> ул. Денисова, 3а<br />	код 8-351-63 2-01-65 БОЧКАРЕВ Василий Павлович 	54.076498	61.539403	0	 undefined	" ""/images/pojarka_small.png"""	 80	 58
ФГКУ 28 ОФПС по МО, ПЧ-5	54877	Сергиево-Посадский р-он, г.Краснозаводск, ул. Красной армии, д.1	926-130-65-09 (Назаров Сергей Анатольевич, капитан вн.сл., заместитель начальника части)	56.448190	38.217207	0	 undefined	" ""/images/pojarka_small.png"""	 80	 58
ФГКУ 28 ОФПС по МО, ПЧ-5	54879	Сергиево-Посадский р-он, г.Краснозаводск, ул. Красной армии, д.1	926-130-65-09 (Назаров Сергей Анатольевич, капитан вн.сл., заместитель начальника части)	56.448190	38.217207	0	 undefined	" ""/images/pojarka_small.png"""	 80	 58
Пожарная часть № 40 (Шатровский район)	54566	с. Шатрово, ул. Кирова,4	8(35257) 9-11-95 (Галанина Алена Петровна, инспектор  по основной деятельности)	56.512002	64.634198	0	 undefined	" ""/images/pojarka_small.png"""	 80	 58
Пожарная часть № 45 (Шадринский район)	54574	ул. К. Маркса, 23	8(35253) 6-61-98 (Мяготина Алена Николаевна, инспектор по основной деятельности)	55.433379	65.332854	0	 undefined	" ""/images/pojarka_small.png"""	 80	 58
ФГКУ 28 ОФПС по МО, ПЧ-87	54881	г.Сергиев-Посад, ул.Центральная д.2	Воронцов Роман Николаевич, подполковник вн.сл.,  начальник части	56.294046	38.151522	0	 undefined	" ""/images/pojarka_small.png"""	 80	 58
ФГКУ 28 ОФПС по МО, ПЧ-87	54883	г.Сергиев-Посад, ул.Центральная д.2	Воронцов Роман Николаевич, подполковник вн.сл.,  начальник части	56.294046	38.151522	0	 undefined	" ""/images/pojarka_small.png"""	 80	 58
ФГКУ 28 ОФПС по МО, ПЧ-5	54885	Сергиево-Посадский р-он, г. Краснозаводск, ул. Красной армии, д.1	(Назаров Сергей Анатольевич, капитан вн.сл., заместитель начальника части)	56.448190	38.217207	0	 undefined	" ""/images/pojarka_small.png"""	 80	 58
ФГКУ 28 ОФПС по МО, ПЧ-87	54887	г.Сергиев-Посад, ул.Центральная д.2	(Воронцов Роман Николаевич, подполковник вн.сл.,  начальник части)	56.294046	38.151522	0	 undefined	" ""/images/pojarka_small.png"""	 80	 58
Клинский гарнизон пожарной охраны. 37 специализированная часть по тушению крупных пожаров	54889	Московская Область, г. Клин, ул. Московская, д. 33	8-496-441-23-58, Ватутин Андрей Васильевич  подполковник внутренней службы,  Врид.начальника ФГКУ «13 ОФПС по Московской области»  	56.321316	36.709780	0	 undefined	" ""/images/pojarka_small.png"""	 80	 58
Шатурский гарнизон ПО ФКУ «ОФПС по МО ПЧ-13 (договорная)»	54891	г. Шатура, Аллея Ударников, д. № 4	8-916-817-11-70 (Головарь Александр Леонидович, подполковник вн. сл. начальник ФКУ «ОФПС по МО  ПЧ-13 (договорная)»)	55.576584	39.551537	0	 undefined	" ""/images/pojarka_small.png"""	 80	 58
Шатурский гарнизон ПО ФГКУ «8 ПЧ ФПС по МО»	54893	г.о. Рошаль, ул. Коммунаров, д. № 6	(Арифулин Ильдар Хасянович капитан вн.сл. зам. начальника  ФГКУ «8 ПЧ ФПС по МО»)	55.659876	39.881947	0	 undefined	" ""/images/pojarka_small.png"""	 80	 58
Одинцовский гарнизон пожарной охраны ФГКУ «3ПЧ ФПС по Московской области»	54895	г. Одинцово, Можайское шоссе, д. 2	8(495) 593-17-68 (Майор внутренней службы Иванова И.А., заместитель начальника части – начальник группы по кадровой и воспитательной работе)	55.669320	37.263007	0	 undefined	" ""/images/pojarka_small.png"""	 80	 58
Долгопрудненский ГПО, ПЧ-82	54897	г. Лобня, ул. Промышленная, д.4	8-(495)-577-14-48 (Зрилов Сергей Владимирович, подполковник внутренней службы, начальник части)	56.016114	37.474219	0	 undefined	" ""/images/pojarka_small.png"""	 80	 58
Долгопрудненский ГПО, ПЧ-73	54899	г. Долгопрудный, ул. Летная, д.3	8-(495)-408-65-55 (Алексеев Александр Вячеславович, майор внутренней службы, Врио. начальника части)	55.931401	37.502804	0	 undefined	" ""/images/pojarka_small.png"""	 80	 58
Мытищинский гарнизон  17 специализированная пожарная часть	54901	г. Мытищи, ул. Комарова д.7.	.8-903-622-45-61 (Начальник 17 СПЧ подполковник вн.сл. Стукалов М.Ю)	55.918197	37.743687	0	 undefined	" ""/images/pojarka_small.png"""	 80	 58
ЩГПО ПЧ-300	54903	г. Щёлково ул. Советская д.21А	8-496-56-6-98-04 (Кравчук И.В. начальник ПЧ-300)	55.913702	38.001997	0	 undefined	" ""/images/pojarka_small.png"""	 80	 58
ЩГПО, ПЧ-279	54905	пос. Фряново, ул. Первомайская	8-496-56-3-53-02 (Бакашинов В.А. начальник ПЧ-279 )	56.139000	38.430197	0	 undefined	" ""/images/pojarka_small.png"""	 80	 58
ЩГПО, ПЧ-44	54907	г. Щёлково ул. Советская д.21А	8-496-56-2-16-22 (Баринов М.Е., майор в/с начальник ПЧ-44)	55.913702	38.001997	0	 undefined	" ""/images/pojarka_small.png"""	 80	 58
ЩГПО, ПЧ-78	54909	г. Фрязино ул. Котельный проезд д.6	8-496-56-4-42-20 (Орлов О.В., капитан в/с зам.нач-ка ПЧ-78)	55.944420	38.056561	0	 undefined	" ""/images/pojarka_small.png"""	 80	 58
ЩГПО, ПЧ-277	54911	г. Лосино-Петровский ул. Кирова д.3	8-496-56-7-52-34 (Драчев В.В. начальник ПЧ-277)	55.864985	38.202681	0	 undefined	" ""/images/pojarka_small.png"""	 80	 58
Зарайский гарнизон пожарной охраны., 59 ПЧ ФГКУ «12 ОФПС по МО»	54915	МО г. Зарайск ул. Московская ПЧ-59	8905 7385811 (Ломкин Николай Викторович., капитан внутренней службы., Заместитель начальника 59 ПЧ ФГКУ «12 ОФПС по МО»)	56.246556	38.016038	0	 undefined	" ""/images/pojarka_small.png"""	 80	 58
ПЧ-36	54917	г. Копейск, ул. Борьбы, 57	8-351-39-7-51-63, Начальник  КРОХИН  Андрей Михайлович  	56.164702	37.928497	0	 undefined	" ""/images/pojarka_small.png"""	 80	 58
Павлово-Посадский ГПО ПЧ-41 ФГКУ «23 ОФПС поМО»	54919	г.п. Павловский Посад ул. Тимирязева д.16 	8-916-02184-22, Зенин Павел Александрович подполковник внутренней службы ВрИО начальника 41 ПЧ «23 ОФПС по МО» 	55.769990	38.670119	0	 undefined	" ""/images/pojarka_small.png"""	 80	 58
Каширский ГПО, ПЧ-104	54921	г. Кашира, ул. Советская, д.33а	8(926)270-09-59 (Бакштеев Олег Анатольевич, капитан внутренней службы, заместитель начальника ПЧ-104)	54.836534	38.151163	0	 undefined	" ""/images/pojarka_small.png"""	 80	 58
Коломенский гарнизон пожарной охраны 32 пожарная часть	54923	г. Коломна, ул. III-го Интернационала д.12а	8-926-399-18-90 (Майор в\с Осипов Роман Сергеевич, начальник ПЧ-32)	55.080421	38.797698	0	 undefined	" ""/images/pojarka_small.png"""	 80	 58
Луховицкий гарнизон пожарной охраны 89 пожарная часть	54925	Луховицкий р-он, д. Ларино	8-916-230-50-43 (Подполковник в\с Тюренков Михаил Иванович, начальник ПЧ-89)	54.923823	39.059818	0	 undefined	" ""/images/pojarka_small.png"""	 80	 58
ПЧ-15	54943	г. Магнитогорск (Цех покрытий ОАО &quot;ММК&quot;)	код 8-351-9 24-36-31 МЯСНИКОВ Алексей Александрович	53.398579	58.988412	0	 undefined	" ""/images/pojarka_small.png"""	 80	 58
ПЧ-16	54945	по охране ОАО &quot;Автомобильный завод &quot;Урал и Предприятия &quot;Урал&quot;, г. Миасс	код  8-351 3 29-70-39 ГОРШЕНКОВ Александр Анатольевич	55.065257	60.101551	0	 undefined	" ""/images/pojarka_small.png"""	 80	 58
ПЧ-26	54947	по охране ЛПДС &quot; Ленинск&quot; ОАО &quot;Уралсибнефтепровод&quot;, г. Миасс	код 8 351 3 57-88-45 ФАМБУЛОВ Сергей Юрьевич	55.065257	60.101551	0	 undefined	" ""/images/pojarka_small.png"""	 80	 58
ПЧ-51	54955	г. Магнитогорск, ОАО &quot;Магнитогорский Металлургический Комбинат&quot;	код  8-351-9 24-54-92 КОРОЛЬ Сергей Романович	53.398579	58.988412	0	 undefined	" ""/images/pojarka_small.png"""	 80	 58
ПЧ-6	54957	г. Челябинск, Копейское шоссе, 35	код 8-351 254-72-64 8-922-600-2176 ЖЕЛЕЗНОВ Иван Вадимович	55.136010	61.461986	0	 undefined	" ""/images/pojarka_small.png"""	 80	 58
ПЧ-35	54960	г. Челябинск,  Бродокалмакский тракт, 4	код 8-351 779-02-01 ЛЕВИН Игорь Владимирович	55.220901	61.499096	0	 undefined	" ""/images/pojarka_small.png"""	 80	 58
ПЧ-61	54964	с. Долгодеревенское, ул. Сиреневая, 1б	код 8-351-44 3-20-29 ПЕРШУКОВ Сергей Викторович	55.345836	61.321876	0	 undefined	" ""/images/pojarka_small.png"""	 80	 58
ФГКУ «5 ОФПС по Челябинской области»	54967	г. Миасс, Предзаводская площадь, 4	код 8-351-3 239-71-61 55-32-41 ПЛЕШКОВ Алексей Геннадьевич	55.065257	60.101551	0	 undefined	" ""/images/pojarka_small.png"""	 80	 58
ПЧ-55	54985	п. Южный	код  8-351-63 2-43-60 ШКАРАПУТА Михаил Александрович	53.120545	59.455913	0	 undefined	" ""/images/pojarka_small.png"""	 80	 58
ПЧ-42	54995	г. Верхний Уфалей,  ул. К. Маркса, 123	код  8-351-64 2-35-31 КОЗИН Сергей Викторович	56.063002	60.214999	0	 undefined	" ""/images/pojarka_small.png"""	 80	 58
ПЧ-57	55002	с. Бреды,  ул. Маяковского, 3	код  8 351 41 3-54-73 БОРОДИН Сергей Павлович	52.411972	60.346485	0	 undefined	" ""/images/pojarka_small.png"""	 80	 58
ФГКУ 18 ОФПС	55034	г. Ишим, ул. 8-е Марта 26	8(34551)7-28-76 Эмрих Алексей Владимирович	56.112282	69.465293	0	 undefined	" ""/images/pojarka_small.png"""	 80	 58
Учебная пожарная часть ФГБОУ «Учебный центр ФПС по Челябинской области»	55046	г. Челябинск,  ул. Троицкая, 1г	8-351-262-55-40, Начальник  СТРУНОВ  Рафаэль  Юрьевич  	55.128984	61.378991	0	 undefined	" ""/images/pojarka_small.png"""	 80	 58
Пожарно-техническая выставка Центра противопожарной пропаганды и общественных связей ФКУ «ЦУКС ГУ МЧС России по Челябинской области»	55048	г. Челябинск, ул. Пушкина, 68	8-351-239-70-85, Начальник  ГОЛОБОРОДЬКО  Борис  Олегович  	55.156688	61.409641	0	 undefined	" ""/images/pojarka_small.png"""	 80	 58
ФКУ 4 ОФПС	55012	г. Тюмень                                        ул. Кедровая, 125	8(3452)48-26-00 Кряжева Юлия Сергеевна	57.153732	65.672579	0	 undefined	" ""/images/pojarka_small.png"""	 80	 58
ФГКУ 8 ОФПС	55015	г. Тобольск 4 мкр., д.56	8(3456) 25 19 92 Терехов Вячеслав Александрович	58.205188	68.324935	0	 undefined	" ""/images/pojarka_small.png"""	 80	 58
ФГКУ «1 ОФПС по Челябинской области&quot;	55050	г. Златоуст, ул. Северная, д.27.	8-351-3-239-71-57, Начальник отряда МАЙОРОВ  Алексей Валерьевич  	55.141825	59.707280	0	 undefined	" ""/images/pojarka_small.png"""	 80	 58
ПЧ-8	55052	г. Златоуст, ул. Северная, 27	8-351-3-65-37-63, Начальник  ДОРОХ  Виктор Павлович  	55.141825	59.707280	0	 undefined	" ""/images/pojarka_small.png"""	 80	 58
ПЧ-44	55054	г. Куса, ул. Бубнова, 12	8-351-54-3-41-32, Начальник   КУРКОВ  Александр Сергеевич  	55.338746	59.432728	0	 undefined	" ""/images/pojarka_small.png"""	 80	 58
ФГКУ «2 ОФПС по челябинской области»	55056	г. Магнитогорск, ул. Кирова, 101	8-351-9-239-71-41, Начальник отряда МИНИН  Александр Геннадьевич  	53.416325	59.057214	0	 undefined	" ""/images/pojarka_small.png"""	 80	 58
ПЧ-45	55058	г. Златоуст, ул. Лапшина, 4	8-351-3-67-33-11, Начальник ГАВРИЛОВ  Сергей Геннадьевич  	55.141825	59.707280	0	 undefined	" ""/images/pojarka_small.png"""	 80	 58
ПЧ-49	55060	г. Сатка, ул. 100-летия комбината «Магнезит», 7	8-351-61-4-33-30, Начальник ДМИТРИЕВ  Евгений Александрович  	55.070298	58.991700	0	 undefined	" ""/images/pojarka_small.png"""	 80	 58
ПЧ-21	55062	г. Магнитогорск, ул. Жукова, 24	8-351-9-40-77-3, Начальник ПОНОМАРЕНКО  Вячеслав 	53.350800	58.969799	0	 undefined	" ""/images/pojarka_small.png"""	 80	 58
ПЧ-24	55064	г. Магнитогорск, ул. Лермонтова, 18	8-351-9-29-25-28, Начальник БАЛДИН  Сергей Николаевич  	53.384929	59.066961	0	 undefined	" ""/images/pojarka_small.png"""	 80	 58
ПЧ-25	55066	г. Магнитогорск, ул. Советская, 108	8-351-9-21-77-34, Начальник ОБОРИН  Дмитрий Юрьевич  	53.392205	58.960501	0	 undefined	" ""/images/pojarka_small.png"""	 80	 58
ПЧ-59	55068	г. Верхнеуральск,  ул. Энергетиков, 1В	8- 351- 43-2-24-46, Начальник ГОРОХОВ  Вячеслав Александрович  	53.886599	59.222702	0	 undefined	" ""/images/pojarka_small.png"""	 80	 58
ФГКУ 19 ОФПС	55018	п.Винзили ул.Заводская, 17	Р.т. 8(3452) 728-152; с.т. 926239 Пятых Ирина Александровна	56.952799	65.769004	0	 undefined	" ""/images/pojarka_small.png"""	 80	 58
ПЧ-63	55070	с. Кизильское, пер. Бородулина, 3-а	8-351-55-3-02-47, Начальник КАДИГРОБ  Павел Сергеевич	52.723499	58.900000	0	 undefined	" ""/images/pojarka_small.png"""	 80	 58
ПЧ-67	55072	с. Агаповка, ул. Правобережная, 3/1	8 351-40-2-13-43, Начальник МЯСНИКОВ  Дмитрий Александрович  	53.308886	59.129888	0	 undefined	" ""/images/pojarka_small.png"""	 80	 58
ПЧ-68	55074	с. Фершампенуаз, Нагайбакского района, пер. Пионерский, 2	8-351-57-2-21-43, Начальник ЯКОВЛЕВ  Сергей Иванович  	53.519519	59.821698	0	 undefined	" ""/images/pojarka_small.png"""	 80	 58
«ОФПС по Челябинской области»	55076	г. Магнитогорск, ул. Кирова, 101	8-351-9-239-71-41, Начальник отряда МИНИН  Александр Геннадьевич  	53.416325	59.057214	0	 undefined	" ""/images/pojarka_small.png"""	 80	 58
ПЧ-20	55078	г. Магнитогорск, ул. Кирова, 101	8-351-9-24-70-90, Начальник СУХАНОВ  Вадим Викторович  	53.416325	59.057214	0	 undefined	" ""/images/pojarka_small.png"""	 80	 58
ПЧ-34	55080	г. Челябинск, ул. 2-я Павелецкая, 24	8-351-725-34-01, Начальник ТОЛСТИХИН  Максим Алексеевич  	55.265779	61.411564	0	 undefined	" ""/images/pojarka_small.png"""	 80	 58
ФГКУ «3 ОФПС по челябинской области»	55082	г. Челябинск, ул. Нахимова, 1а	8-902-604-0600, Начальник ЖЕЛТЫШЕВ  Вячеслав Владимирович  	55.120732	61.481524	0	 undefined	" ""/images/pojarka_small.png"""	 80	 58
ФГКУ 24 ОФПС	55022	г. Ялуторовск ул. Бахтиярова 32	(34535) 2 60 64 Кузнецова Екатерина Владимировна	56.638199	66.274899	0	 undefined	" ""/images/pojarka_small.png"""	 80	 58
ФГКУ 25 ОФПС	55025	г. Заводоуковск ул.Шоссейная,117	8(34542) 2-34-53 Дубовец Сергей Иванович	56.510701	66.532796	0	 undefined	" ""/images/pojarka_small.png"""	 80	 58
ПЧ-1	55084	г. Химки, ул. Ленинградская, д. 13	8-916-708-19-20, Лукьянов Денис Алексеевич,  майор внутренней службы  заместитель начальника 1 пожарной части	53.417044	58.991673	0	 undefined	" ""/images/pojarka_small.png"""	 80	 58
ПЧ-2	55086	г. Челябинск, ул. Троицкая, 1/б	8-351-262-55-20, Начальник ОЛОЛЕНКО  Сергей Михайлович  	55.125664	61.374472	0	 undefined	" ""/images/pojarka_small.png"""	 80	 58
ПЧ-3	55088	г. Челябинск, ул. Тагильская, 24/а	8-351-791-29-55, Начальник ТРОШИН  Андрей Леонидович  	55.177961	61.390337	0	 undefined	" ""/images/pojarka_small.png"""	 80	 58
ПЧ-4	55090	г. Челябинск, ул. Хлебозаводская, 1	8-351-735-03-81, Начальник ХАЗИПОВ  Рауф Равильевич  	55.249253	61.406102	0	 undefined	" ""/images/pojarka_small.png"""	 80	 58
ПЧ-5	55092	г. Челябинск, ул. Горького, 35	8-351-772-79-92 ,8 351  772-79-92  	55.173709	61.439124	0	 undefined	" ""/images/pojarka_small.png"""	 80	 58
ПЧ-7	55094	г. Челябинск, ул. Куйбышева, 15	8-351-741-73-01, Начальник СИБИРЕВ  Юрий Васильевич  	55.198037	61.359578	0	 undefined	" ""/images/pojarka_small.png"""	 80	 58
ПЧ-11	55096	г. Челябинск, пр-т Победы, 400	8-351-731-20-56, Начальник ЖЕЛТЫШЕВ  Евгений Владимирович  	55.181493	61.287524	0	 undefined	" ""/images/pojarka_small.png"""	 80	 58
ПЧ-19	55098	г. Челябинск, ул. Новороссийская, 5	8 351  255-55-19, Начальник БАРЫШНИКОВ  Сергей Александрович  	55.097842	61.492861	0	 undefined	" ""/images/pojarka_small.png"""	 80	 58
ПЧ-34	55100	г. Челябинск, ул. 2-я Павелецкая, 24	8-351-725-34-01, Начальник ТОЛСТИХИН  Максим Алексеевич  	55.265779	61.411564	0	 undefined	" ""/images/pojarka_small.png"""	 80	 58
ПЧ-31	55102	г. Троицк,		54.088546	61.582369	0	 undefined	" ""/images/pojarka_small.png"""	 80	 58
СЧТКП ФГКУ «1 отряд ФПС по РСО-А»	55112	ГУ по Республике Северная Осетия-Алания,г. Владикавказ ул. Гвардейская. 30	Начальник части Чегаев Арсен Хаджисмелович раб. 8-8672-74-33-02 сот. 8-988-838-74-92	43.059202	44.675097	0	 undefined	" ""/images/pojarka_small.png"""	 80	 58
ФГКУ 32 ОФПС	55030	г. Тюмень ул. Чекистов, 33	590-795 988308 Борисова Елена Александровна	57.118990	65.651657	0	 undefined	" ""/images/pojarka_small.png"""	 80	 58
ПЧ-1 ФКУ «ОФПС-1 ГУ МЧС России по ЧР»	55116	ГУ по Чеченской Республике,г. Грозный, ул. Тухачевского. 13	Начальник части старший лейтенант вн. сл. Магомедов Ибрагим Ахмадович сот. 8 928-738 -24-95	43.331830	45.644864	0	 undefined	" ""/images/pojarka_small.png"""	 80	 58
ПЧ-18 ФГКУ «1 отряд ФПС по РСО-А»	55118	ГУ по Республике Северная Осетия-Алания, с. Эльхотово ул. Кирова. 110	Начальник части Габатаев Петр Самсонович раб.8-86735-5-08-02 сот. 8-906-188-90-15	43.330801	44.213201	0	 undefined	" ""/images/pojarka_small.png"""	 80	 58
ПЧ-13 ФГКУ «ОФПС-3 по СК»	55150	г. Ставрополь пр. Кулакова 15	8-962-455-80-80-95 (Начальник части старший лейтенант вн. сл. Башлай Андрей Александрович)	45.051010	41.914825	0	 undefined	" ""/images/pojarka_small.png"""	 80	 58
УПЧ ФГБОУ &quot;ДПО Тюменский учебный центр ФПС&quot;	55935	625043, Тюменская обл, Тюменская обл, Тюменская обл, 11 километр Салаирского тракта 	643-3452-590710 (Начальник: Сергей Михайлович Афанасьев)	56.543349	66.594250	0	 undefined	" ""/images/pojarka_small.png"""	 80	 58
3 ПЧ 1 ОФПС	53151	г. Абакан, ул. Крылова, 133.	Верещагин Алексей Валерьевич (начальник отдела профилактики 1 ОФПС)	53.734539	91.437420	0	 undefined	" ""/images/pojarka_small.png"""	 80	 58
ПЧ № 17  Федерального государственного казенного учреждения «2 ОФПС по Владимирской области»	53665	г. Александров, ул. Красный переулок, д. 4а	8-961-111-00-20 (Заместитель начальника ФГКУ «2 ОФПС по Владимирской области» подполковник вн. сл. Прозорова И.Ю.)	56.392388	38.726462	0	 undefined	" ""/images/pojarka_small.png"""	 80	 58
59 ПЧ 54 ОФПС 	54648	Свердловская область,<br />г. Артемовский,<br />ул. Коммунаров, 2<br />	8 (34363) 2-47-44 капитан внутренней службы Рагимов Тахир Магеддин Оглы	57.336522	61.891057	0	 undefined	" ""/images/pojarka_small.png"""	 80	 58
СЧ ФГКУ «1 отряд ФПС по РД»	55106	ГУ по Республике Дагестан, г. Махачкала, ул. Акушинского.<br />зо-д<br />	Начальник части капитан вн. сл. Кудуев Гасангусейн Каримуллаевич раб.8-8722-63-30-95 сот. 8-928-531-59-14	42.976722	47.484326	0	 undefined	" ""/images/pojarka_small.png"""	 80	 58
СЧ ФГКУ «1 отряд ФПС по КБР»	55108	ГУ по Кабардино-Балкарской Республике,г. Нальчик, ул. Кадырова, 6.	Начальник части старший лейтенант вн. сл. Сонов Аслан Мусабиевич раб. 8-8662-96-25-22. сот. 8-928-720-64-02.	43.504303	43.655302	0	 undefined	" ""/images/pojarka_small.png"""	 80	 58
ПЧ-6 «ФГКУ 1 отряд ФПС по Астраханской области»	53278	г. Астрахань, ул. Н. Островского, 136	8-(8512)-46-99-95, 8-(8512)-71-32-16 (Тулупов Алексей Николаевич)	46.400391	48.079963	0	 undefined	" ""/images/pojarka_small.png"""	 80	 58
«10 ОФПС по Челябинской области»	54047	г. Аша, ул. Советская, 8	8 351 59 239-71-73, 3-13-95 (Начальник  ПОПКО Вячеслав  Алексеевич)	54.992115	57.258257	0	 undefined	" ""/images/pojarka_small.png"""	 80	 58
ПЧ-8 ФГКУ «ОФПС-3 по С К»	55114	ГУ по Ставропольскому краю,г. Ставрополь ул. Суворова 5	Начальник части майор вн. сл. Бубликов Вадим Эдуардович сот. 8-918-870-02-44	45.047985	41.975785	0	 undefined	" ""/images/pojarka_small.png"""	 80	 58
147 ПЧ ФГКУ 26 ОФПС 	55865			57.649009	70.013552	0	 undefined	" ""/images/pojarka_small.png"""	 80	 58
ПЧ-2 по охране Северного района г. Орла	55146	г. Орел	8-4862-36-50-01 (Начальник части – капитан вн.сл. Хархардин Игорь Валерьевич)	52.968153	36.083061	0	 undefined	" ""/images/pojarka_small.png"""	 80	 58
151 ПЧ ФПС ФГКУ «27 ОФПС по Тюменской области»	55953	627300, ТЮМЕНСКАЯ область, рп. ГОЛЫШМАНОВО, ул. ВОКЗАЛЬНАЯ, д. 85		57.149113	65.529782	0	 undefined	" ""/images/pojarka_small.png"""	 80	 58
ПЧ-5 по охране Заводского района г. Орла	55148	г. Орел	8-4862-59-21-03 (Начальник части: старший лейтенант вн.сл. Горбачев Сергей Анатольевич)	52.968153	36.083061	0	 undefined	" ""/images/pojarka_small.png"""	 80	 58
ПЧ-50	54055	г. Аша, ул. Советская, 8	8 351 59 3-28-42 (Начальник ЧАЛОВ Денис Валерьевич)	54.992115	57.258257	0	 undefined	" ""/images/pojarka_small.png"""	 80	 58
ПЧ № 1 ФГКУ  «ОФПС по ЕАО» 	54249	г. Биробиджан, ул. Индустриальная, 3	8 (42622) 3-57-26 (Начальник части, Михайлов Евгений Анатольевич)	48.816801	132.885660	0	 undefined	" ""/images/pojarka_small.png"""	 80	 58
12 ПЧ ФГКУ «1 отряд ФПС МЧС России по Амурской области»	54451	г. Благовещенск, ул. Театральная, 181<br />	8-924-674-47-96 (Начальник караула, лейтенант в/с, Бабай С.И)	50.294249	127.559144	0	 undefined	" ""/images/pojarka_small.png"""	 80	 58
СЧ ФГКУ «1 отряд ФПС МЧС России по Амурской области»	54453	г. Благовещенск, ул. Пионерская 47<br />	8-914-388-30-31 (Начальник части, капитан в/с, Рыбалко К.В)	50.267684	127.533381	0	 undefined	" ""/images/pojarka_small.png"""	 80	 58
81 ПЧ	54585	"г. Богданович, ул. Ракицианская, 2 а	"	8(34376)22346 (Инструктор 81-ПЧ 59 ОФПС по СО Тырышкина А.С)	56.775398	62.051443	0	 undefined	" ""/images/pojarka_small.png"""	 80	 58
Королевский гарнизон 88 ПЧ 	54281	Мкр-н Текстильщики, ул. Советская, д.32	8-498-500-13-74 (Начальник 88 ПЧ Балашов Сергей Васильевич, майор вн.службы)	55.427208	38.260874	0	 undefined	" ""/images/pojarka_small.png"""	 80	 58
ПЧ-2 ФГКУ «1 отряд федеральной противопожарной службы по Брянской области»	54079	г.Брянск, п.Путевка, ул.Строи-телей, 29	(4832) 93-21-65, 8-953-280-49-81 (Заместитель начальника отряда по работе с кадрами — начальник отделения по кадровой и воспитательной работе подполковник внутренней службы Андрюшин Д.Г)	53.356481	34.315940	0	 undefined	" ""/images/pojarka_small.png"""	 80	 58
ПЧ-1 ФГКУ «1 отряд ФПС по Новгородской области»	53256	г. В Новгород пр. А Корсунова д. 26а<br />	Тимофеев Михаил Викторович	58.545725	31.242355	0	 undefined	" ""/images/pojarka_small.png"""	 80	 58
Пожарная часть №96 Федеральной противопожарной службы Главным управлением МЧС России по Московской области	55178	г. Химки		55.890038	37.445105	0	 undefined	" ""/images/pojarka_small.png"""	 80	 58
Наро-Фоминский гарнизон, ПЧ-239	54285	г.Верея, ул. Первомайская<br />	8(49634) 68-075 (Петров Владимир Валентинович начальник ПЧ-239)	55.338802	36.185424	0	 undefined	" ""/images/pojarka_small.png"""	 80	 58
33 ПЧ 3 ОФПС	54609	Свердловская область,  г.Верхняя Салда ул.Северная, 1	8 (34345) 5-58-22 майор внутренней службы Мурзин Андрей Юрьевич	58.046573	60.554822	0	 undefined	" ""/images/pojarka_small.png"""	 80	 58
41 ПЧ 3 ОФПС 	54614	Свердловская область,<br />г.Верхняя Салда,<br />ул.Молодежный поселок, 105<br />	8(34345) 2-35-21 8(34345) 2-04-61 майор внутренней службы Нечаев Владислав Александрович	58.046573	60.554822	0	 undefined	" ""/images/pojarka_small.png"""	 80	 58
2-ПЧ ФГКУ «2 отряд ФПС по Приморскому краю»	54422	г. Владивосток, ул. Вострецова, д. 19<br />	8(4232) 233-28-31 8(4232) 254-19-37 (Начальник части, подполковник в/с, Чепко Юрий Николаевич)	43.147774	131.918722	0	 undefined	" ""/images/pojarka_small.png"""	 80	 58
9-ПЧ ФГКУ «2 отряд ФПС по Приморскому краю»	54425	г. Владивосток, ул. Дальзаводская, д. 31	8(4232) 252-03-78 (Начальник части, капитан в/с, Шакиров Амир Сергеевич)	43.112252	131.916000	0	 undefined	" ""/images/pojarka_small.png"""	 80	 58
ПЧ № 3 Федерального государственного казенного учреждения «1 ОФПС по Владимирской области»	53663	г. Владимир, ул. Соколова - Соколенка, д. 10<br />	8-910-774-53-43 (Заместитель начальника ФГКУ «1 ОФПС по Владимирской области» подполковник вн. сл.  Домничев В.А.)	56.164150	40.457560	0	 undefined	" ""/images/pojarka_small.png"""	 80	 58
ПЧ-1	55632	ПЧ-1, г. Псков		57.819264	28.332855	0	 undefined	" ""/images/pojarka_small.png"""	 80	 58
ПЧ-13 ФГКУ «1 отряд федеральной противопожарной службы по Брянской области»	54072	г.Брянск, ул.Инсти-тутская, 6	(4832) 93-21-65, 8-953-280-49-81 (Заместитель начальника отряда по работе с кадрами — начальник отделения по кадровой и воспитательной работе подполковник внутренней службы Андрюшин Д.Г)	53.303974	34.308673	0	 undefined	" ""/images/pojarka_small.png"""	 80	 58
ПЧ-13 5-ОФПС по Волгоградской области	53284	Волгоградская область г. Волжский, ул. Карбышева, д. 13<br />	(8443) 39-59-53, (8443) 39-50-91 (Голованов Михаил Геннадьевич)	48.794348	44.758218	0	 undefined	" ""/images/pojarka_small.png"""	 80	 58
9 специализированная пожарная часть по тушению крупных пожаров ФГКУ «1 отряд ФПС по Вологодской области»	53240	г.Вологда, ул.Псковская, 20	(8172) 71-48-51 (заместитель начальника 9 СЧ лейтенант внутренней службы Малинин Алексей Николаевич)	59.197113	39.836348	0	 undefined	" ""/images/pojarka_small.png"""	 80	 58
ПЧ-32 ГУ «3 ОФПС»	53207	г. Воркута, п. Воргашор, ул. Л. Комсомола, 2<br />	(82151)  4-64-79 (Смирнов Алексей Станиславович)	67.501109	64.026856	0	 undefined	" ""/images/pojarka_small.png"""	 80	 58
СЧ-15	53601	г. Воронеж, ул. Вл. Невского, д. 19 а	242-98-38 (начальник СЧ-15 майор внутренней службы Севастьянов Сергей Васильевич)	51.713780	39.152155	0	 undefined	" ""/images/pojarka_small.png"""	 80	 58
СЧ-15	53603	г. Воронеж, ул. Вл. Невского, д. 19 а	242-98-38 (начальник СЧ-15 майор внутренней службы Севастьянов Сергей Васильевич)	51.713780	39.152155	0	 undefined	" ""/images/pojarka_small.png"""	 80	 58
96 пожарная часть ФГКУ «15 отряд ФПС по Ленинградской области»	53248	Ленинградская область, Всеволожский район, г. Всеволожск, ул. Народная, д. 7	964-89-47 (Чумаков Владимир Владимирович)	59.991421	30.654470	0	 undefined	" ""/images/pojarka_small.png"""	 80	 58
ПЧ №27	55634	ПЧ №27, поселок Пушкинские горы		57.897701	55.194099	0	 undefined	" ""/images/pojarka_small.png"""	 80	 58
52 пожарная часть ФГКУ «26 отряд ФПС по Ленинградской области»	53250	Ленинградская область, Выборгский район, г.Выборг,  ул. Кутузова, д.47	8-813-78-221-15 (Красовский Александр Олегович)	60.713506	28.738247	0	 undefined	" ""/images/pojarka_small.png"""	 80	 58
Пожарная часть № 76	55588	ул. Люблинская, дом 94	349-12-35, 349-00-56	55.657814	37.739016	0	 undefined	" ""/images/pojarka_small.png"""	 80	 58
53 ПЧ ФГКУ 18 ОФПС	54089	 	8(34551)7-28-76 Эмрих Алексей Владимирович	57.649009	70.013552	0	 undefined	" ""/images/pojarka_small.png"""	 80	 58
43 ПЧ 13 ОФПС	54119	Миннибаева Лейсан Хамзовна, заместитель начальника – начальник ОПП 43 ПЧ, капитан внутренней службы	7-3466-28-54-09, Миннибаева Лейсан Хамзовна,  заместитель начальника –  начальник ОПП 43 ПЧ,  капитан внутренней службы  	61.559456	68.651491	0	 undefined	" ""/images/pojarka_small.png"""	 80	 58
60 ПЧ ФГКУ «20 отряд ФПС по Приморскому краю»	54193	Спасский район, промзона Новоспасского цементного завода<br />	8(42352)3-14-95 (Начальник части, капитан в/с, Колодкин Роман Витальевич)	44.749120	132.978142	0	 undefined	" ""/images/pojarka_small.png"""	 80	 58
ПЧ №2 ГУ &quot;1-й отряд ФПС по Магаданской области&quot;	55860	г. Магадан, ул. Зайцева, 7	63-73-50	59.619402	150.777001	0	 undefined	" ""/images/pojarka_small.png"""	 80	 58
2-ПЧ ФГКУ «2 отряд ФПС по Приморскому краю»	54195	г. Владивосток, ул. Вострецова, д. 19<br />	8(4232) 233-28-31 8(4232) 254-19-37 (Начальник части, подполковник в/с, Чепко Юрий Николаевич)	43.147774	131.918722	0	 undefined	" ""/images/pojarka_small.png"""	 80	 58
Наро-Фоминский гарнизон Пожарной охраны: 39 пожарная часть	54283		8-926-162-42-12 (Мамаев Руслан Васильевич, ст. лейтенант вн. сл., начальник 39 пожарной части ФГКУ «19 ОФПС по Московской области»)	55.632139	37.673753	0	 undefined	" ""/images/pojarka_small.png"""	 80	 58
Чеховский Гарнизон пожарной охраны 79 ПЧ ФГКУ «29 ОФПС по МО»	54321		8-903-674-38-84 (Начальник 79 ПЧ ФГКУ «29 ОФПС по МО» подполковник внутренней службы Алексеев Алексей Александрович)	55.632139	37.673753	0	 undefined	" ""/images/pojarka_small.png"""	 80	 58
60 ПЧ ФГКУ «20 отряд ФПС по Приморскому краю»	54419	Спасский район, промзона Новоспасского цементного завода<br />	8(42352)3-14-95 (Начальник части, капитан в/с, Колодкин Роман Витальевич)	44.749120	132.978142	0	 undefined	" ""/images/pojarka_small.png"""	 80	 58
ФГКУ «146 ПЧ ФПС по Тюменской области»	55881			57.649009	70.013552	0	 undefined	" ""/images/pojarka_small.png"""	 80	 58
9-ПЧ ФГКУ «2 отряд ФПС по Приморскому краю»	54197	г. Владивосток, ул. Дальзаводская, д. 31	8(4232) 252-03-78 (Начальник части, капитан в/с, Шакиров Амир Сергеевич)	43.112252	131.916000	0	 undefined	" ""/images/pojarka_small.png"""	 80	 58
35 пожарная часть по охране БАЭС	54632	Свердловская область, БАЭС	подполковник внутренней службы Балабуркин Роман Сергеевич 	59.126311	61.706319	0	 undefined	" ""/images/pojarka_small.png"""	 80	 58
130 ПЧ ФГКУ 18 ОФПС	55379	 	8(34551)7-28-76 Эмрих Алексей Владимирович	57.649009	70.013552	0	 undefined	" ""/images/pojarka_small.png"""	 80	 58
131 ПЧ ФГКУ 18 ОФПС	55381	 		57.649009	70.013552	0	 undefined	" ""/images/pojarka_small.png"""	 80	 58
ФГКУ 27 ОФПС	55887	с. Голышманово, ул. Вокзальная, 85	8 34546 261-90 (Лещева Ольга Михайловна, Инспектор  по основной деятельности 110 ПЧ ФПС)	56.390699	68.382104	0	 undefined	" ""/images/pojarka_small.png"""	 80	 58
ФГКУ «6 ПЧ ФПС по Чукотскому АО»	54245	Анадырский муниципальный район, п. Угольные Копи, ул.Первомайская 24<br />	8(427)325-57-49 (Начальник части, Куцик Владимир Иосифович)	64.730401	177.692998	0	 undefined	" ""/images/pojarka_small.png"""	 80	 58
132 ПЧ ФГКУ 18 ОФПС	55383	 		57.649009	70.013552	0	 undefined	" ""/images/pojarka_small.png"""	 80	 58
134 ПЧ ФГКУ 18 ОФПС	55385	 		57.649009	70.013552	0	 undefined	" ""/images/pojarka_small.png"""	 80	 58
133 ПЧ ФГКУ 18 ОФПС	55387	 		57.649009	70.013552	0	 undefined	" ""/images/pojarka_small.png"""	 80	 58
Пожарная часть №12	55568	ул. Русаковская, дом 26, строение 1	603-09-99	55.789006	37.682035	0	 undefined	" ""/images/pojarka_small.png"""	 80	 58
Пожарная часть № 69	55570	Звездный бульвар, дом 7	616-52-23	55.814330	37.632484	0	 undefined	" ""/images/pojarka_small.png"""	 80	 58
Пожарная часть № 69	55572	Звездный бульвар, дом 7	616-52-23	55.814330	37.632484	0	 undefined	" ""/images/pojarka_small.png"""	 80	 58
150 ПЧ ФПС ФГКУ	55889	Аромашево		56.865663	68.646326	0	 undefined	" ""/images/pojarka_small.png"""	 80	 58
ФГКУ «5 ПЧ ФПС по Чукотскому АО»	54243	г. Анадырь, ул. Отке, д.52<br />	8(427)222-44-39 (Начальник части, Панов Валерий Михайлович)	64.736655	177.477366	0	 undefined	" ""/images/pojarka_small.png"""	 80	 58
Специализированная пожарная часть № 28	55574	ул. Братьев Фонченко, дом 6	(499) 145-33-36	55.730132	37.512739	0	 undefined	" ""/images/pojarka_small.png"""	 80	 58
Учебная пожарная часть Санкт-Петербургского университета ГПС МЧС России	55152	С-Пб ул. Фучика, дом 10, корпус 1	Телефон 774-81-16 (Процук Сергей Николаевич), 774-47-35 (Данилевич Андрей Васильевич)	59.938806	30.314278	0	 undefined	" ""/images/pojarka_small.png"""	 80	 58
Пожарная часть № 3	55562	Петровско - Разумовский проезд, дом 21, 	612-80-03, 656-36-50	55.799598	37.565901	0	 undefined	" ""/images/pojarka_small.png"""	 80	 58
ФГБОУ ДПО &quot;Учебный центр ФПС по Новосибирской области&quot;	53155		222-06-15 (Коваленко Андрей Григорьевич),  232-74-35 (Шестопалов Сергей Викторович)	55.312179	80.102208	0	 undefined	" ""/images/pojarka_small.png"""	 80	 58
Специализированная пожарная часть № 28	55576	ул. Братьев Фонченко, дом 6	(499) 145-33-36	55.730132	37.512739	0	 undefined	" ""/images/pojarka_small.png"""	 80	 58
Пожарная часть № 61	55578	г. Зеленоград, 1-й Западный проезд, дом 10	(499) 735-52-01, (499) 736-34-72	56.010231	37.198068	0	 undefined	" ""/images/pojarka_small.png"""	 80	 58
Пожарная часть № 61	55580	г. Зеленоград, 1-й Западный проезд, дом 10	(499) 735-52-01, (499) 736-34-72	56.010231	37.198068	0	 undefined	" ""/images/pojarka_small.png"""	 80	 58
Пожарная часть № 106	55582	ул. Чертановская, дом 40	313-23-53, 315-81-20	55.614027	37.589581	0	 undefined	" ""/images/pojarka_small.png"""	 80	 58
Пожарная часть № 106	55584	ул. Чертановская, дом 40	313-23-53, 315-81-20	55.614027	37.589581	0	 undefined	" ""/images/pojarka_small.png"""	 80	 58
151 ПЧ ФПС ФГКУ «27 ОФПС по Тюменской области»	55941	 627300, ТЮМЕНСКАЯ область, рп. ГОЛЫШМАНОВО, ул. ВОКЗАЛЬНАЯ, д. 85	Начальник  Ножкин Алексей Петрович	57.149113	65.529782	0	 undefined	" ""/images/pojarka_small.png"""	 80	 58
ПЧ-7 ФГКУ «1 отряд ФПС по Чукотскому АО»	54247	г. Билибино, ул. 30 лет Советской Чукотки 16<br />	8(427)382-42-91 (Начальник части, Балаханов Дмитрий Владимирович)	68.055832	166.437493	0	 undefined	" ""/images/pojarka_small.png"""	 80	 58
Пожарная часть № 76	55586	ул. Люблинская, дом 94	349-12-35, 349-00-56	55.657814	37.739016	0	 undefined	" ""/images/pojarka_small.png"""	 80	 58
Пожарная часть № 56	55590	ул. Введенского, дом 24 «А»	420-96-00, 420-96-11, 420-96-22	55.637530	37.535871	0	 undefined	" ""/images/pojarka_small.png"""	 80	 58
Пожарная часть № 56	55592	ул. Введенского, дом 24 «А»	420-96-00, 420-96-11, 420-96-22	55.637530	37.535871	0	 undefined	" ""/images/pojarka_small.png"""	 80	 58
Пожарная часть № 55	55594	ул. Соколово - Мещерская, дом 20	(499) 401-97-95	55.898710	37.388870	0	 undefined	" ""/images/pojarka_small.png"""	 80	 58
Пожарная часть № 55	55596	ул. Соколово - Мещерская, дом 20	(499) 401-97-95	55.898710	37.388870	0	 undefined	" ""/images/pojarka_small.png"""	 80	 58
Пожарная часть № 47	55598	Колпачный переулок, дом 8	625-73-34, 624-60-69	55.757202	37.641396	0	 undefined	" ""/images/pojarka_small.png"""	 80	 58
Сахалинский ПСО им. В.А. Полякова	56756	693023, г. Южно-Сахалинск, ул. Комсомольская, 217		46.948107	142.750725	0	 undefined	" ""/images/pojarka_small.png"""	 80	 58
ПЧ-1 ФГКУ «3 ОФПС по РС (Я)»	54154	г. Мирный, проспект Ленинградский,9	8 (4113)4-61-54 (ВрИО начальника части, младший сержант в/с, Неклюдов Олег Николаевич)	59.266015	127.501086	0	 undefined	" ""/images/pojarka_small.png"""	 80	 58
Пожарная часть № 47	55600	Колпачный переулок, дом 8	625-73-34, 624-60-69	55.757202	37.641396	0	 undefined	" ""/images/pojarka_small.png"""	 80	 58
Пожарная часть № 69	62647	Звездный бульвар, дом 7	616-52-23	55.814330	37.632484	0	 undefined	" ""/images/pojarka_small.png"""	 80	 58
Пожарная часть № 76	62704	ул. Люблинская, дом 94	349-12-35, 349-00-56	55.657814	37.739016	0	 undefined	" ""/images/pojarka_small.png"""	 80	 58
Химкинский ГПО, 96 пожарная часть 	54271	г.Химки, Новокуркинское ш.	8-925-858-27-65 (Медведев Роман Владимирович лейтенант внутренней службы  врио заместитель начальника 96 пожарной части)	55.884025	37.412379	0	 undefined	" ""/images/pojarka_small.png"""	 80	 58
1 ПЧ 5 ОФПС	53266	Мичуринская улица, дом 5	232-71-04 (Емельянов Роман Васильевич), 233-59-32 (Ильченко Олег Викторович)	59.954710	30.330286	0	 undefined	" ""/images/pojarka_small.png"""	 80	 58
18-ПЧ  8 ОФПС	53274	г. Новороссийск нефтебаза «Шесхарис»<br />	8-8617-60-34-03 (Гац Александр Владимирович)	44.720120	37.776493	0	 undefined	" ""/images/pojarka_small.png"""	 80	 58
Пожарная часть № 47	62699	Колпачный переулок, дом 8	625-73-34, 624-60-69	52.588139	82.530013	0	 undefined	" ""/images/pojarka_small.png"""	 80	 58
ПЧ-2 ФГКУ «3 ОФПС по РС (Я)»	54161	г. Мирный, ул. Соболева, 2	8-924-172-15-00 (Начальник части, капитан в/с, Волков Александр Сергеевич)	59.266015	127.501086	0	 undefined	" ""/images/pojarka_small.png"""	 80	 58
131 ПЧ 11 ОФПС 	54117	Сургутский р-он,<br />с.п. Солнечный,<br />территория Управления по переработке газа ОАО «Сургутнефтегаз»<br />	Тел. (3462)488901 Факс  (3462)284157 Найденов Михаил Львович	61.137501	73.447991	0	 undefined	" ""/images/pojarka_small.png"""	 80	 58
ПЧ-68	54775	Нагайбакского района,<br />пер. Пионерский, 2<br />	код 8-351-57 факс 2-21-43 2-20-60 ЯКОВЛЕВ Сергей Иванович 	53.563300	59.831221	0	 undefined	" ""/images/pojarka_small.png"""	 80	 58
Электростальский гарнизон, ПЧ-45	54913	г. Златоуст, ул. Лапшина, 4	8-351-3-67-33-11, Начальник ГАВРИЛОВ  Сергей Геннадьевич  	55.632139	37.673753	0	 undefined	" ""/images/pojarka_small.png"""	 80	 58
3 ПЧ 1 ОФПС	53131	г. Абакан	Верещагин Алексей Валерьевич - начальник отдела профилактики 1 ОФПС	53.720976	91.442423	0	 undefined	" ""/images/pojarka_small.png"""	 80	 58
ПЧ-1 ФГКУ «3 ОФПС по РС (Я)»	54373	г. Мирный, проспект Ленинградский,9	8 (4113)4-61-54 (ВрИО начальника части, младший сержант в/с, Неклюдов Олег Николаевич)	59.266015	127.501086	0	 undefined	" ""/images/pojarka_small.png"""	 80	 58
2 ПЧ ФГКУ «3 ОФПС по Архангельской области»	53235	г.Архангельск, ул.Папанина д.28. корп.1	8-8182-68-73-17 (Ершов  Михаил Владимирович)	64.516458	40.679498	0	 undefined	" ""/images/pojarka_small.png"""	 80	 58
12 ПЧ ФГКУ «1 отряд ФПС МЧС России по Амурской области»	54213	г. Благовещенск, ул. Театральная, 181<br />	8-924-674-47-96 (Начальник караула, лейтенант в/с, Бабай С.И)	50.294249	127.559144	0	 undefined	" ""/images/pojarka_small.png"""	 80	 58
ПЧ-2 ФГКУ «3 ОФПС по РС (Я)»	54376	г. Мирный, ул. Соболева, 2	8-924-172-15-00 (Начальник части, капитан в/с, Волков Александр Сергеевич)	59.266015	127.501086	0	 undefined	" ""/images/pojarka_small.png"""	 80	 58
СЧ ФГКУ «1 отряд ФПС МЧС России по Амурской области»	54215	г. Благовещенск, ул. Пионерская 47<br />	8-914-388-30-31 (Начальник части, капитан в/с, Рыбалко К.В)	50.267684	127.533381	0	 undefined	" ""/images/pojarka_small.png"""	 80	 58
135 ПЧ ФГКУ 19 ОФПС	55390	 		57.649009	70.013552	0	 undefined	" ""/images/pojarka_small.png"""	 80	 58
33 ПЧ 3 ОФПС	53751	Свердловская область,  г.Верхняя Салда ул.Северная, 1	8 (34345) 5-58-22 майор внутренней службы Мурзин Андрей Юрьевич	58.046573	60.554822	0	 undefined	" ""/images/pojarka_small.png"""	 80	 58
ПЧ-3 1-ОФПС по Волгоградской области	53282	Волгоградская область г. Волгоград, ул. 13-я Гвардейская, д. 15	(8442) 24-21-55, (8442) 23-59-58 (Шарантаев Ринат Фаритович)	48.716317	44.526659	0	 undefined	" ""/images/pojarka_small.png"""	 80	 58
136 ПЧ ФГКУ 19 ОФПС	55392	 		57.649009	70.013552	0	 undefined	" ""/images/pojarka_small.png"""	 80	 58
137 ПЧ ФГКУ 19 ОФПС	55394	 		57.649009	70.013552	0	 undefined	" ""/images/pojarka_small.png"""	 80	 58
138 ПЧ ФГКУ 19 ОФПС	55398	 		57.649009	70.013552	0	 undefined	" ""/images/pojarka_small.png"""	 80	 58
Пожарная часть № 3	55564	Петровско - Разумовский проезд, дом 21, 	612-80-03, 656-36-50	55.799598	37.565901	0	 undefined	" ""/images/pojarka_small.png"""	 80	 58
149 ПЧ ФГКУ 26 ОФПС	55401	 		57.649009	70.013552	0	 undefined	" ""/images/pojarka_small.png"""	 80	 58
Пожарная часть № 3	62715	Петровско - Разумовский проезд, дом 21, 	612-80-03, 656-36-50	55.799598	37.565901	0	 undefined	" ""/images/pojarka_small.png"""	 80	 58
Пожарная часть №12	55566	ул. Русаковская, дом 26, строение 1	603-09-99	55.789006	37.682035	0	 undefined	" ""/images/pojarka_small.png"""	 80	 58
ПЧ-1 ФКУ «ЦУКС ГУ МЧС России по КЧР»	55110	г. Черкесск, ул. Кавказская 33	Начальник части старший лейтенант вн. сл. Шенкао Мурат Мухамедович раб. 8-87822-5-14-11 моб. 8 928-399 -14-10	44.219841	42.058825	0	 undefined	" ""/images/pojarka_small.png"""	 80	 58
Пожарная часть № 47	62702	Колпачный переулок, дом 8	625-73-34, 624-60-69	55.757202	37.641396	0	 undefined	" ""/images/pojarka_small.png"""	 80	 58
"	ПЧС-12 ФКУ «ЦУКС МЧС России по РИ»"	55104	п. Экажево. ул.Джабагиева б/н	начальник М ГО ФКУ ЦУКС капитан вн. сл. Цицкиев Магомед Абукарович сот. 8-928-097-28-23	43.205537	44.821738	0	 undefined	" ""/images/pojarka_small.png"""	 80	 58
Пожарная часть № 56	62707	ул. Введенского, дом 24 «А»	420-96-00, 420-96-11, 420-96-22	55.637530	37.535871	0	 undefined	" ""/images/pojarka_small.png"""	 80	 58
ПЧ-1 г. Барнаула	53163	г. Барнаул, ул.Интернациональная,56	8-3852-33-50-13 (Губин Андрей Михайлович)	53.339129	83.789559	0	 undefined	" ""/images/pojarka_small.png"""	 80	 58
Пожарная часть №12	62709	ул. Русаковская, дом 26, строение 1	603-09-99	55.789006	37.682035	0	 undefined	" ""/images/pojarka_small.png"""	 80	 58
ПЧ №1 ФГКУ «ОФПС по Камчатскому краю»	75835	г. Петропавловск-Камчатский, ул. Ленинградская, 25	8-924-891-96-75 (Начальник ПЧ, Петров А.Ю)	53.033000	158.643997	0	 undefined	" ""/images/pojarka_small.png"""	 80	 58
87 ПЧ ФПС	54682	Свердловская область, г. Туринск ул. Свердлова 86	8(34349)2-24-85 старший лейтенант внутренней службы Хорев Иван Сергеевич	58.060602	63.683699	0	 undefined	" ""/images/pojarka_small.png"""	 80	 58
ФГКУ «СПЧ ФПС по РС (Я)»	75841	г. Якутск, ул. Дежнёва, 75	8(4112)36-02-60 74-37-63 (Старший мастер ГДЗС, прапорщик в/с, Костырин В.А)	62.015099	129.706998	0	 undefined	" ""/images/pojarka_small.png"""	 80	 58
Пожарная часть ПЧ-42 по охране г. Карачева ОГПС-1 по охране г. Брянска БОГУ &quot;БПСЦ&quot;	76006	Брянская область, г. Карачев, ул. Ленина  51	(8-483-35) 2-46-48, 2-40-95	53.119400	34.986497	0	 undefined	" ""/images/pojarka_small.png"""	 80	 58
Третья специализированная часть ФПС ФГКУ &quot;5 отряд ФПС по Ульяновской области&quot;	53122	г. Ульяновск, Новый город, проспект Туполева, д.11	8-960-372-85-02 (Начальник 3-СЧ майор в/с  Сальников Андрей Иванович)	54.369329	48.573947	0	 undefined	" ""/images/pojarka_small.png"""	 80	 58
71 ПЧ 71 ОФПС	54689	Свердловская область, г. Верхотурье ул. Совхозная, 15	8(34389)2-18-60 8(34389)2-17-97 Корчемкин С.Ю	56.912842	60.628448	0	 undefined	" ""/images/pojarka_small.png"""	 80	 58
46 пожарная часть 13 ОФПС	76421	г. Невьянск, ул. Дзержинского,8а	+7 (34356) 2-12-56	57.483900	60.200599	0	 undefined	" ""/images/pojarka_small.png"""	 80	 58
72 ПЧ 4 ОФПС 	54097	г. Нягань<br />ул. Лениниградская, д.34<br />	Тел./факс (34672) 5-16-65 Потолинский Михаил Андреевич	62.156400	65.439798	0	 undefined	" ""/images/pojarka_small.png"""	 80	 58
54 ПЧ 6 ОФПС	54103	Ханты-Мансийский автономный округ-Югра, г. Нефтеюганск, 9 мкрн.  34 «А»<br />	7-3463-230-134 (Брук Эдуард Вадимович,  начальник 54 ПЧ,  подполковник внутренней службы  )	61.096902	72.622799	0	 undefined	" ""/images/pojarka_small.png"""	 80	 58
76 ПЧ Пожарно-спасательное формирование ПЧ №76 отряда ГПС №14 ГУ МЧС России по ХМАО - Югре	78709	Тюменская обл., ХМАО, г. Мегион, ул. Кузьмина, 	273-35-013-00-01	61.040702	76.110400	0	 undefined	" ""/images/pojarka_small.png"""	 80	 58
132 ПЧ 7 ОФПС	54107	г. Ханты-Мансийск, ул. Студенческая, 8 а	Тел./факс (3467) 397-910 Шматова Татьяна Валерьевна	61.013798	69.056101	0	 undefined	" ""/images/pojarka_small.png"""	 80	 58
92 ПЧ 10 ОФПС 	54113	г.Лангепас, ул. Ленина, д.1	Тел. (34669)2-01-60 Факс (34669) 2-92-26 Корюкин Игорь Анатольевич	61.256198	75.168903	0	 undefined	" ""/images/pojarka_small.png"""	 80	 58
ПЧ №30 10-ОФПС по Волгоградской области	78705	400029, Волгоградская область, Волгоград город, ул. 40 лет ВЛКСМ, д. 55<br />(Красноармейский район) <br />терр.ЛУКойл-ВНП	8-8442-96-30-56 (диспетчер)  8-8442-96-35-51 (начальник) 	48.490835	44.610121	0	 undefined	" ""/images/pojarka_small.png"""	 80	 58
УПЧ ФПС г. Барнаула	53171	г. Барнаул, пр.Комсомольский, 130	8-3852-24-26-97 (Залюбовский Максим Николаевич)	53.360931	83.779884	0	 undefined	" ""/images/pojarka_small.png"""	 80	 58
ФГБОУ ДПО БУЦ ФПС	78711	Алтайский край, Барнаул г, проспект Комсомольский, 132	Телефон:+7 (3852) 393003  Факс:+7 (3852) 393003	53.361409	83.779489	0	 undefined	" ""/images/pojarka_small.png"""	 80	 58
